PAGN








Angoon Seaplane Base





Airport

ICAO code


  PAGN





IATA Code

AGN




Summary

ICAO Region

NAM



ICAO Territory





Alaska






 








Location

Angoon, Alaska




Serving

Angoon



Coordinates



    57°
    30'
          13"
        N
  
      ,
    
    134°
    35'
          6"
        W
  





Metar
PAGN 071322Z AUTO 00000KT 10SM OVC002 10/10 A3002 RMK AO2









Runways






Designator
Length
Width
Surface
Rops




NW/SE          
3048          
274          
WATER          
No/No          













Airport map






Aerial View