EDDF








Frankfurt am Main Airport





Airport

ICAO code


  EDDF





IATA Code

FRA




Summary

ICAO Region

EUR



ICAO Territory





Germany






 








Location

Frankfurt,




Serving

Frankfurt



Elevation

364 ft



Coordinates



    50°
    2'
          28"
        N
  
      ,
    
    8°
    34'
          24"
        E
  




KCC

Cfb



Airport LOS

Parallel Runway Operation




Metar
EDDF 071420Z AUTO VRB07KT CAVOK 29/17 Q1010








Description
International airport serving Frankfurt am Main, Germany.
Climatology
Temperate Marine climate/Oceanic climate (Köppen climate classification Cfb) - Moderately cool summer and comparatively warm winter.






Runways






Designator
Length
Width
Surface
Rops




07C/25C          
4000          
60          
CON          
Yes/Yes          


07R/25L          
4000          
45          
CON          
Yes/Yes          


18/36          
4000          
45          
CON          
Yes/Yes          













Airport map






Aerial View








Airport accidents



B77L, Frankfurt Germany, 2022
A359, vicinity Frankfurt Germany, 2020
A388/A320, vicinity Frankfurt Germany, 2011
A343, Frankfurt Germany, 2008
E170, Frankfurt Germany, 2005
B742 / A320, Frankfurt Germany, 2006
A320, vicinity Frankfurt Germany, 2001
B763, Frankfurt Germany, 2007