LFOH








Le Havre Octeville Airport





Airport

ICAO code


  LFOH





IATA Code

LEH




Summary

ICAO Region

EUR



ICAO Territory





France






 








Location

, Haute-Normandie




Serving

Le Havre



Elevation

313 ft



Coordinates



    49°
    32'
          2"
        N
  
      ,
    
    0°
    5'
          17"
        E
  





Metar
LFOH 071400Z AUTO 09003KT 9999 FEW014/// OVC068/// ///TCU 20/16 Q1008 TEMPO 4000 SHRA BKN012 BKN020CB









Runways






Designator
Length
Width
Surface
Rops




5/23          
2300          
40          
ASP          
No/No          













Airport map






Aerial View