EGXW








RAF Waddington





Airport

ICAO code


  EGXW






Summary

ICAO Region

EUR



ICAO Territory





United Kingdom






 








Location

RAF Waddington, England, United Kingdom,




Elevation

231 ft



Coordinates



    53°
    9'
          58"
        N
  
      ,
    
    0°
    31'
          26"
        W
  




KCC

Cfb




Metar
EGXW 071420Z AUTO 02007KT 5000 BR OVC006/// 19/17 Q1009








Description
Military airbase.
Climatology
Temperate Marine climate/Oceanic climate (Köppen climate classification Cfb). Moderately cool summer and comparatively warm winter with a temperature range of only 14°C. Prevailing south-westerly winds from the Atlantic Ocean.






Runways






Designator
Length
Width
Surface
Rops




2/20          
2743          
61          
ASP          
No/No          













Airport map






Aerial View