FAEO








Ermelo Airport





Airport

ICAO code


  FAEO






Summary

ICAO Region

AFI



ICAO Territory





South Africa






 








Location

, Mpumalanga




Serving

Ermelo



Elevation

5700 ft



Coordinates



    26°
    29'
          44"
        S
  
      ,
    
    29°
    58'
          47"
        E
  





Metar
FAEO 070848Z 32014KT CAVOK 23/04 Q1029









Runways






Designator
Length
Width
Surface
Rops




13/31          
1550          
10          
ASP          
No/No          













Airport map






Aerial View