KFHR








Friday Harbor Airport





Airport

ICAO code


  KFHR





IATA Code

FRD




Summary

ICAO Region

NAM



ICAO Territory





United States






 








Location

Friday Harbor,  Washington




Serving

San Juan Island



Elevation

113 ft



Coordinates



    48°
    31'
          29"
        N
  
      ,
    
    123°
    1'
          34"
        W
  




KCC

Cfb



Airport BS

Bird Strike




Metar
KFHR 071353Z AUTO 00000KT 10SM CLR 14/12 A2994 RMK AO2 SLP138 T01440117








Friday Harbor Airport is a public use airport located just southwest of the central business district of Friday Harbor on San Juan Island, Washington, USA.














Airport map






Aerial View