UHWW








Vladivostok International





Airport

ICAO code


  UHWW






Summary

ICAO Region

EUR



ICAO Territory





Russian Federation






 








Location

Artyom, Primorsky Krai,




Coordinates



    43°
    23'
          57"
        N
  
      ,
    
    132°
    9'
          5"
        E
  





Metar
UHWW 071230Z 02001MPS 9999 NSC 14/14 Q1014 R25L/0///70 NOSIG RMK QFE759








Vladivostok International Airport (IATA: VVO) is located near Artyom, Primorsky Krai, Russia 44 km north of center of the city of Vladivostok. It was formerly known as Knevichi Airport.






Runways






Designator
Length
Width
Surface
Rops




16/34          
602          
20          
ASP          
No/No          


6/24          
973          
20          
ASP          
No/No          


07R/25L          
2500          
60          
ASP          
Yes/Yes          


07L/25R          
3500          
60          
CON          
Yes/Yes          













Airport map






Aerial View