VVCT








Can Tho International Airport





Airport

ICAO code


  VVCT





IATA Code

VCA




Summary

ICAO Region

APAC



ICAO Territory





Vietnam






 








Location

Can Tho, Mekong Delta




Serving

Can Tho



Elevation

9 ft



Coordinates



    10°
    5'
          7"
        N
  
      ,
    
    105°
    42'
          43"
        E
  




KCC

Aw




Metar
VVCT 071300Z 24003KT 9999 FEW015 SCT050 27/27 Q1009 NOSIG








Can Tho International Airport, formerly Trà Nóc Airport is an airport located in Can Tho in Mekong Delta region of Vietnam.
Climatology
Tropical savannah climate (Köppen climate classification Aw)














Airport map






Aerial View