FMCZ








Dzaoudzi Pamandzi International Airport





Airport

ICAO code


  FMCZ





IATA Code

DZA




Summary

ICAO Region

AFI



ICAO Territory





Madagascar






 








Location

Dzaoudzi, Mayotte




Serving

Dzaoudzi



Elevation

23 ft



Coordinates



    12°
    48'
          25"
        S
  
      ,
    
    45°
    16'
          54"
        E
  




KCC

Am




Metar
FMCZ 071230Z AUTO 17007KT 9999 FEW019 SCT190 29/22 Q1016 NOSIG








Dzaoudzi Pamandzi International Airport is an international airport located in Dzaoudzi, Mayotte.
Climatology
Tropical monsoon climate (Köppen climate classification Am)






Runways






Designator
Length
Width
Surface
Rops




16/34          
1929          
28          
ASP          
Yes/Yes          













Airport map






Aerial View