LRCK








Mihail Kogălniceanu International Airport





Airport

ICAO code


  LRCK





IATA Code

CND




Summary

ICAO Region

EUR



ICAO Territory





Romania






 








Location

, Constanta




Serving

Constanta



Elevation

353 ft



Coordinates



    44°
    21'
          44"
        N
  
      ,
    
    28°
    29'
          18"
        E
  





Metar
LRCK 071200Z 04019KT 9999 SCT033 25/16 Q1019 NOSIG









Runways






Designator
Length
Width
Surface
Rops




18/36          
3500          
45          
CON          
Yes/Yes          













Airport map






Aerial View