LRBS








Băneasa International Airport





Airport

ICAO code


  LRBS





IATA Code

BBU




Summary

ICAO Region

EUR



ICAO Territory





Romania






 








Location

, Bucuresti




Serving

Bucharest



Elevation

297 ft



Coordinates



    44°
    30'
          11"
        N
  
      ,
    
    26°
    6'
          8"
        E
  





Metar
LRBS 071200Z 06014KT CAVOK 29/09 Q1019 NOSIG









Runways






Designator
Length
Width
Surface
Rops




7/25          
3200          
45          
CON          
Yes/Yes          













Airport map






Aerial View