KNQX








Naval Air Station Key West





Airport

ICAO code


  KNQX






Summary

ICAO Region

NAM



ICAO Territory





United States






 








Location

Key West, Florida,




Coordinates



    24°
    34'
          30"
        N
  
      ,
    
    81°
    41'
          18"
        W
  




KCC

Aw



Airport BS

Bird Strike




Metar
KNQX 071353Z 13010KT 10SM FEW020 BKN250 34/27 A2986 RMK AO2 SLP110 T03390267 $








Description
Naval Air Station Key West, or NAS Key West, is a military airport located on Boca Chica Key, 6 km east of the central business district of Key West, Florida.
Climatology
Tropical Savanna climate (Köppen climate classification Aw) - monthly mean temperatures above 18°C, and a pronounced dry season. A Tropical Savanna climate has more pronounced dry seasons than a Tropical Monsoon climate.






Runways






Designator
Length
Width
Surface
Rops




3/21          
2134          
46          
PEM          
Yes/Yes          


13/31          
2134          
46          
PEM          
Yes/Yes          


7/25          
3048          
61          
PEM          
Yes/Yes          













Airport map






Aerial View