UAAA








Almaty International Airport





Airport

ICAO code


  UAAA





IATA Code

ALA




Summary

ICAO Region

APAC



ICAO Territory





Kazakhstan






 








Location

Almaty,




Serving

Almaty



Elevation

2234 ft



Coordinates



    43°
    21'
          6"
        N
  
      ,
    
    77°
    2'
          11"
        E
  




KCC

BSk



Airport BS

Bird Strike



Airport WX

Fog




Metar
UAAA 071400Z 12003MPS 9999 SCT100 15/05 Q1024 NOSIG








Description
International airport serving the city of Almaty.
Climatology
Cold Semi-arid climate (Köppen climate classification BSk). - Hot, sometimes extremely hot summers and cold, sometimes very cold winters. Some snowfall during the winter. Areas featuring cold semi-arid climates are sometimes subject to major temperature swings during a 24 hour period.






Runways






Designator
Length
Width
Surface
Rops




5/23          
4397          
45          
ASP          
Yes/Yes          













Airport map






Aerial View








Airport accidents



CL60, Almaty Kazakstan, 2007