EGXT








RAF Wittering





Airport

ICAO code


  EGXT






Summary

ICAO Region

EUR



ICAO Territory





United Kingdom






 








Location

, England




Serving

Wittering



Elevation

273 ft



Coordinates



    52°
    36'
          45"
        N
  
      ,
    
    0°
    28'
          35"
        W
  





Metar
EGXT 071420Z AUTO 06004KT 8000 BR SCT013/// SCT039/// 20/16 Q1009









Runways






Designator
Length
Width
Surface
Rops




8/26          
2759          
61          
ASP          
No/No          













Airport map






Aerial View