EFIV








Ivalo





Airport

ICAO code


  EFIV






Summary

ICAO Region

EUR



ICAO Territory





Finland






 








Location

Ivalo, Inari,




Coordinates



    68°
    36'
          23"
        N
  
      ,
    
    27°
    24'
          11"
        E
  




KCC

Dfc



Airport GND

Aircraft Ground De/Anti Icing



Airport RE

Landing on Contaminated Runways




Metar
EFIV 071350Z AUTO 30010KT 270V330 CAVOK 20/05 Q1016








Description
Largely domestic but also international airport serving the town of Ivalo and community of the district of Inari in northern Finland. The airport is located 7nm sothwest of Ivalo.
Climatology
Subarctic climate (Köppen climate classification Dfc) - long, usually very cold winters, and short, cool to mild summers.






Runways






Designator
Length
Width
Surface
Rops




8/26          
800          
45          
ASP          
Yes/Yes          


4/22          
2499          
45          
ASP          
Yes/Yes          













Airport map






Aerial View