SLRI








Capitán Av. Selin Zeitun Lopez Airport





Airport

ICAO code


  SLRI





IATA Code

RIB




Summary

ICAO Region

CARSAM



ICAO Territory





Bolivia






 








Location

Riberalta, El Beni




Serving

Riberalta



Elevation

462 ft



Coordinates



    11°
    0'
          33"
        S
  
      ,
    
    66°
    4'
          26"
        W
  




KCC

Aw




Metar
SLRI 071200Z 13003KT 0100 FU VV/// 21/19 Q1013








Airport serving Riberalta, a port city on the Beni River in the Beni Department of Bolivia. The airport is in the western section of the city, near the confluence of the Beni and Madre de Dios Rivers.
Climatology
Tropical Savanna climate (Köppen climate classification Aw).






Runways






Designator
Length
Width
Surface
Rops




13/31          
1800          
0          
UNK          
No/No          













Airport map






Aerial View