DABS








Cheikh Larbi Tébessi Airport





Airport

ICAO code


  DABS





IATA Code

TEE




Summary

ICAO Region

AFI



ICAO Territory





Algeria






 








Location

, Tebessa




Serving

Tebessa



Elevation

2661 ft



Coordinates



    35°
    25'
          54"
        N
  
      ,
    
    8°
    7'
          15"
        E
  





Metar
DABS 071200Z 26006KT 9999 SCT033 35/10 Q1018









Runways






Designator
Length
Width
Surface
Rops




12/30          
2400          
30          
ASP          
No/No          


11/29          
3000          
45          
ASP          
No/No          













Airport map






Aerial View