DNCA








Margaret Ekpo International Airport





Airport

ICAO code


  DNCA





IATA Code

CBQ




Summary

ICAO Region

AFI



ICAO Territory





Nigeria






 








Location

Calabar, Cross River State




Serving

Calabar



Elevation

210 ft



Coordinates



    4°
    58'
          33"
        N
  
      ,
    
    8°
    20'
          50"
        E
  




KCC

Am




Metar
DNCA 071100Z 21009KT 2500 DZ BKN008 FEW019CB 25/24 Q1016








Margaret Ekpo International Airport (IATA: CBQ, ICAO: DNCA), also known as Calabar Airport, is an airport serving Calabar, the capital of the Cross River State in Nigeria.
Climatology
Tropical monsoon climate (Köppen climate classification Am)






Runways






Designator
Length
Width
Surface
Rops




3/21          
2451          
45          
ASP          
No/No          













Airport map






Aerial View