LDSP








Split Airport





Airport

ICAO code


  LDSP





IATA Code

SPU




Summary

ICAO Region

EUR



ICAO Territory





Croatia






 








Location

Kastela, Dalmatia




Serving

Split



Elevation

78 ft



Coordinates



    43°
    32'
          20"
        N
  
      ,
    
    16°
    17'
          53"
        E
  




KCC

Csa




Metar
LDSP 071300Z 23012KT 9999 FEW035 29/21 Q1015 NOSIG








Description
International airport serving Split, Croatia.
Climatology
Dry-summer subtropical ”Mediterranean" climate (Köppen climate classification Csa)






Runways






Designator
Length
Width
Surface
Rops




5/23          
2550          
45          
ASP          
Yes/Yes          













Airport map






Aerial View