MMCU








General Roberto Fierro Villalobos International Airport





Airport

ICAO code


  MMCU





IATA Code

CUU




Summary

ICAO Region

CARSAM



ICAO Territory





Mexico






 








Location

Chihuahua, Chihuahua




Serving

Chihuahua



Elevation

4462 ft



Coordinates



    28°
    42'
          10"
        N
  
      ,
    
    105°
    57'
          52"
        W
  




KCC

BSh




Metar
MMCU 071140Z 01005KT 10SM FEW030 SCT080 19/13 A3028 RMK SLP136 5//// 959 8/570 RTS








General Roberto Fierro Villalobos International Airport serves Chihuahua, Mexico.
Climatology
Semi-arid climate (Köppen climate classification BSh)






Runways






Designator
Length
Width
Surface
Rops




4/22          
1100          
30          
ASP          
Yes/Yes          


18R/36L          
2403          
23          
ASP          
Yes/Yes          


18L/36R          
2600          
45          
ASP          
Yes/Yes          













Airport map






Aerial View