EGHI








Southampton Airport





Airport

ICAO code


  EGHI





IATA Code

SOU




Summary

ICAO Region

EUR



ICAO Territory





United Kingdom






 








Location

Eastleigh,Southampton, England.,




Serving

Southampton



Elevation

44 ft



Coordinates



    50°
    56'
          59"
        N
  
      ,
    
    1°
    21'
          23"
        W
  




KCC

Cfb




Metar
EGHI 071420Z 03002KT 9999 -RA FEW014 SCT048 18/16 Q1009








Description
Small domestic and international airport serving the city of Southampton and environs; has co-located railway station.
Climatology
Temperate Marine climate/Oceanic climate (Köppen climate classification Cfb). Moderately cool summer and comparatively warm winter with a temperature range of only 14°C. Prevailing south-westerly winds from the Atlantic Ocean.






Runways






Designator
Length
Width
Surface
Rops




2/20          
1723          
37          
ASP          
Yes/Yes          













Airport map






Aerial View








Airport accidents



F100, Southampton UK, 1998
C550, Southampton UK, 1993
DH8D, vicinity Southampton UK, 2009
CRJ1, Southampton UK, 2007