DAOB








Bou Chekif Airport





Airport

ICAO code


  DAOB





IATA Code

TID




Summary

ICAO Region

AFI



ICAO Territory





Algeria






 








Location

, Tiaret




Serving

Tiaret



Elevation

3245 ft



Coordinates



    35°
    20'
          28"
        N
  
      ,
    
    1°
    27'
          47"
        E
  





Metar
DAOB 071200Z 20016KT 3000 DRDU NSC 30/18 Q1019









Runways






Designator
Length
Width
Surface
Rops




8/26          
3000          
45          
ASP          
No/No          













Airport map






Aerial View