SAVT








Almirante Marco Andres Zar Airport





Airport

ICAO code


  SAVT





IATA Code

REL




Summary

ICAO Region

CARSAM



ICAO Territory





Argentina






 








Location

Trelew, Chubut




Serving

Rawson



Elevation

141 ft



Coordinates



    43°
    12'
          38"
        S
  
      ,
    
    65°
    16'
          13"
        W
  




KCC

BSk




Metar
SAVT 071300Z 25015KT CAVOK 13/M02 Q1011








Airport in Chubut Province, Argentina
Climatology
Semi-arid climate (Köppen climate classification BSk).






Runways






Designator
Length
Width
Surface
Rops




6/24          
2560          
45          
CON          
Yes/Yes          













Airport map






Aerial View