SBCC








Novo Progresso/Cachimbo Air Base/Campo de Provas Brigadeiro Velloso





Airport

ICAO code


  SBCC






Summary

ICAO Region

CARSAM



ICAO Territory





Brazil






 








Location

Serra do Cachimbo, Pará




Serving

Serra do Cachimbo



Elevation

1762 ft



Coordinates



    9°
    20'
          4"
        S
  
      ,
    
    54°
    57'
          54"
        W
  




KCC

Af




Metar
SBCC 071200Z 04006KT 0500 R12/0200N FU NSC 27/12 Q1015








Military Airbase located near Serra do Cachimbo, Pará, Brasil. Part of Campo de Provas Brigadeiro Velloso, a large Brazilian military complex.
Climatology
Tropical Rainforest climate (Köppen climate classification Af) - almost no distinct seasons, average daily temperature around 27°C throughout the year. Extensive cloud cover and heavy rainfall prevent temperatures from rising much over 33°C. The diurnal temperature change is between 2°C and 5°C which is greater than the annual temperature range of 2°C. Rainfall is heavy and is usually convectional and in the afternoon.






Runways






Designator
Length
Width
Surface
Rops




12/30          
2599          
45          
ASP          
No/No          













Airport map






Aerial View