PTPN








Pohnpei International Airport





Airport

ICAO code


  PTPN





IATA Code

PNI




Summary

ICAO Region

APAC



ICAO Territory





Micronesia






 








Location

Dekehtik, Pohnpei




Serving

Pohnpei Island



Elevation

10 ft



Coordinates



    6°
    58'
          41"
        N
  
      ,
    
    158°
    12'
          25"
        E
  




KCC

Af




Metar
PTPN 071152Z 09004KT 15SM SCT018 BKN130 BKN300 26/24 A2983








Pohnpei International Airport is an airport located on Pohnpei Island (formerly Ponape), the main island of Pohnpei State.
Climatology
Tropical rainforest climate (Köppen climate classification Af)






Runways






Designator
Length
Width
Surface
Rops




9/27          
1829          
46          
ASP          
Yes/Yes          













Airport map






Aerial View