SBBW








Barra do Garças Airport





Airport

ICAO code


  SBBW





IATA Code

BPG




Summary

ICAO Region

CARSAM



ICAO Territory





Brazil






 








Location

Barra do Garças, Mato Grosso




Serving

Barra do Garças



Elevation

1147 ft



Coordinates



    15°
    51'
          39"
        S
  
      ,
    
    52°
    23'
          22"
        W
  




KCC

Aw




Metar
SBBW 071200Z 00000KT 6000 NSC 24/14 Q1016








Barra do Garças Airport is the airport serving Barra do Garças, Brazil.
Climatology
Tropical savanna climate (Köppen climate classification Aw)






Runways






Designator
Length
Width
Surface
Rops




7/25          
1598          
30          
ASP          
No/No          













Airport map






Aerial View