SCSE








La Florida Airport





Airport

ICAO code


  SCSE





IATA Code

LSC




Summary

ICAO Region

CARSAM



ICAO Territory





Chile






 








Location

La Antena, Coquimbo




Serving

La Serena



Elevation

481 ft



Coordinates



    29°
    54'
          58"
        S
  
      ,
    
    71°
    11'
          58"
        W
  




KCC

BWk




Metar
SCSE 071300Z VRB02KT 9999 SCT005 OVC007 11/10 Q1017








Airport in La Serena, Chile.
Climatology
Cool desert climate (Köppen climate classification BWk)






Runways






Designator
Length
Width
Surface
Rops




11/29          
1938          
45          
ASP          
Yes/Yes          













Airport map






Aerial View