KBPT








Jack Brooks Regional Airport





Airport

ICAO code


  KBPT





IATA Code

BPT




Summary

ICAO Region

NAM



ICAO Territory





United States






 








Location

Nederland, Texas




Serving

Beaumont



Elevation

15 ft



Coordinates



    29°
    57'
          3"
        N
  
      ,
    
    94°
    1'
          14"
        W
  




KCC

Cfa




Metar
KBPT 071430Z 02017G24KT 10SM SCT015 24/20 A2992 RMK AO2 T02390200








Jack Brooks Regional Airport, formerly Southeast Texas Regional Airport, is a public use airport located near Port Arthur, 8 nm southeast of the central business district of Beaumont, Texas, USA.














Airport map






Aerial View