RPMD








Francisco Bangoy International Airport





Airport

ICAO code


  RPMD





IATA Code

DVO




Summary

ICAO Region

APAC



ICAO Territory





Philippines






 








Location

Catitipan, Mindanao




Serving

Davao



Elevation

59 ft



Coordinates



    7°
    7'
          32"
        N
  
      ,
    
    125°
    38'
          45"
        E
  




KCC

Aw




Metar
RPMD 071400Z 36004KT 9999 FEW016 BKN080 27/23 Q1013 RMK A2991








Francisco Bangoy International Airport, also known and still commonly referred to as Davao International Airport, is the main airport serving Davao City and Davao Region in the Philippines.
Climatology
Tropical savannah climate (Köppen climate classification Aw)






Runways






Designator
Length
Width
Surface
Rops




5/23          
3000          
45          
ASP          
Yes/Yes          













Airport map






Aerial View