SPQU








Arequipa/Rodríguez Ballón International





Airport

ICAO code


  SPQU





IATA Code

AQP




Summary

ICAO Region

CARSAM



ICAO Territory





Peru






 








Location

Ro Seco, Arequipa




Serving

Arequipa



Elevation

8400 ft



Coordinates



    16°
    20'
          25"
        S
  
      ,
    
    71°
    34'
          22"
        W
  




KCC

BWk




Metar
SPQU 071300Z VRB02KT CAVOK 19/M10 Q1026 NOSIG RMK PP000








Rodríguez Ballón International Airport is an airport serving Peru's second largest city, Arequipa. This airport and Cusco's Alejandro Velasco Astete International Airport are the main air hubs in southern Peru.
Climatology
Cool Desert climate (Köppen climate classification BWk).






Runways






Designator
Length
Width
Surface
Rops




9/27          
2980          
45          
ASP          
No/No          













Airport map






Aerial View