OIMT








Tabas Airport





Airport

ICAO code


  OIMT





IATA Code

TCX




Summary

ICAO Region

APAC



ICAO Territory





Iran






 








Location

Tabas, South Khorasan




Serving

Tabas



Elevation

2312 ft



Coordinates



    33°
    40'
          9"
        N
  
      ,
    
    56°
    53'
          49"
        E
  




KCC

BSk




Metar
OIMT 071300Z AUTO 02004KT //// // ////// 40/M02 Q1008








Airport serving Tabas a city in the South Khorasan Province of central Iran.
Climatology
Cold semi-arid climate (Köppen climate classification BSk)






Runways






Designator
Length
Width
Surface
Rops




15/33          
3041          
45          
ASP          
No/No          













Airport map






Aerial View