LIBF








Foggia Gino Lisa Airport





Airport

ICAO code


  LIBF





IATA Code

FOG




Summary

ICAO Region

EUR



ICAO Territory





Italy






 








Location

Foggia, Apulia




Serving

Foggia



Elevation

266 ft



Coordinates



    41°
    25'
          53"
        N
  
      ,
    
    15°
    32'
          11"
        E
  




KCC

Csa




Metar
LIBF 071350Z 07011KT 9999 FEW040 33/20 Q1015








Foggia "Gino Lisa" Airport is an airport serving Foggia, Italy.
Climatology
Warm mediterranean climate (Köppen climate classification Csa)






Runways






Designator
Length
Width
Surface
Rops




16/34          
1440          
45          
ASP          
No/No          













Airport map






Aerial View