LICG








Pantelleria Airport





Airport

ICAO code


  LICG





IATA Code

PNL




Summary

ICAO Region

EUR



ICAO Territory





Italy






 








Location

Pantelleria, Sicily




Serving

Pantelleria



Elevation

635 ft



Coordinates



    36°
    48'
          50"
        N
  
      ,
    
    11°
    57'
          44"
        E
  




KCC

Csa




Metar
LICG 071350Z 01005KT 250V060 CAVOK 33/21 Q1016








Pantelleria Airport is a regional airport on the Italian island of Pantelleria.
Climatology
Warm mediterranean climate (Köppen climate classification Csa)






Runways






Designator
Length
Width
Surface
Rops




3/21          
1220          
30          
ASP          
Yes/Yes          


8/26          
1675          
45          
ASP          
Yes/Yes          













Airport map






Aerial View