LFQG








Nevers-Fourchambault Airport





Airport

ICAO code


  LFQG





IATA Code

NVS




Summary

ICAO Region

EUR



ICAO Territory





France






 








Location

, Bourgogne




Serving

Nevers



Elevation

602 ft



Coordinates



    47°
    0'
          9"
        N
  
      ,
    
    3°
    6'
          48"
        E
  





Metar
LFQG 071400Z AUTO 16004KT 5000 RA BR ///CB 18/17 Q1010









Runways






Designator
Length
Width
Surface
Rops




12/30          
1630          
30          
ASP          
No/No          













Airport map






Aerial View