MMLO








Del Bajío International Airport





Airport

ICAO code


  MMLO





IATA Code

BJX




Summary

ICAO Region

CARSAM



ICAO Territory





Mexico






 








Location

Silao, Guanajuato




Serving

Leon



Elevation

5956 ft



Coordinates



    20°
    59'
          36"
        N
  
      ,
    
    101°
    28'
          51"
        W
  




KCC

BSk




Metar
MMLO 071254Z 00000KT 8SM SCT025 BKN090 BKN220 18/13 A3013 RMK 8/588








Del Bajío International Airport, officially known as Aeropuerto Internacional de Guanajuato, is an international airport located in Silao, Guanajuato, Mexico.
Climatology
Semi-arid climate (Köppen climate classification BSk)






Runways






Designator
Length
Width
Surface
Rops




13/31          
3499          
45          
ASP          
Yes/Yes          













Airport map






Aerial View