FMMI








Ivato International Airport





Airport

ICAO code


  FMMI





IATA Code

TNR




Summary

ICAO Region

AFI



ICAO Territory





Madagascar






 








Location

Antananarivo, Antananarivo Province




Serving

Antananarivo



Elevation

4198 ft



Coordinates



    18°
    47'
          47"
        S
  
      ,
    
    47°
    28'
          34"
        E
  




KCC

Cwb




Metar
FMMI 071230Z 13011KT 9999 FEW020 25/11 Q1024 NOSIG








International airport 16 km north of Antananarivo, the capital city of Madagascar.
Climatology
Sub-tropical highland climate (Köppen climate classification Cwb)






Runways






Designator
Length
Width
Surface
Rops




11/29          
3100          
45          
ASP          
Yes/Yes          













Airport map






Aerial View