FNLU








Luanda/Quatro de Fevereiro Airport





Airport

ICAO code


  FNLU





IATA Code

LAD




Summary

ICAO Region

AFI



ICAO Territory





Angola






 








Location

Luanda, Luanda




Serving

Luanda



Elevation

243 ft



Coordinates



    8°
    51'
          30"
        S
  
      ,
    
    13°
    13'
          52"
        E
  





Metar
FNLU 071400Z 27012KT 9999 FEW023 25/18 Q1011 NOSIG









Runways






Designator
Length
Width
Surface
Rops




7/25          
2600          
60          
ASP          
Yes/Yes          


5/23          
3716          
45          
ASP          
Yes/Yes          













Airport map






Aerial View