CYLL








Lloydminster Airport





Airport

ICAO code


  CYLL





IATA Code

YLL




Summary

ICAO Region

NAM



ICAO Territory





Canada






 








Location

Lloydminster, Alberta,




Serving

Lloydminster



Elevation

2194 ft



Coordinates



    53°
    18'
          34"
        N
  
      ,
    
    110°
    4'
          22"
        W
  




KCC

Dfb



Airport CFIT

Altimeter Temperature Error Correction




Metar
CYLL 071500Z 04006KT 10SM BKN260 17/10 A2998 RMK CI5 SLP155 DENSITY ALT 2900FT








Description
Lloydminster Airport, (IATA: YLL), is located 2 nm northwest of Lloydminster, Alberta, Canada.
Climatology
Humid Continental climate (Köppen climate classification Dfb) - Variable weather patterns and a large seasonal temperature variance. Summers are often warm and humid with frequent thunderstorms and winters can be very cold with frequent snowfall and persistent snow cover.






Runways






Designator
Length
Width
Surface
Rops




11/29          
457          
30          
GRS          
No/No          


8/26          
1700          
46          
ASP          
Yes/Yes          













Airport map






Aerial View