RJBT








Tajima





Airport

ICAO code


  RJBT





IATA Code

TJH




Summary

ICAO Region

APAC



ICAO Territory





Japan






 








Location

Toyooka, Hogo Prefecture




Serving

Toyooka



Elevation

578 ft



Coordinates



    35°
    30'
          58"
        N
  
      ,
    
    134°
    47'
          22"
        E
  




KCC

Cfa




Metar
RJBT 070100Z VRB02KT 9999 FEW025 29/23 Q1015








Tajima Airport, also known as Kounotori Tajima Airport, is 2.6 nm southwest of Toyooka, Hyogo Prefecture, Japan.
Climatology
Humid Sub-tropical climate (Köppen climate classification Cfa)






Runways






Designator
Length
Width
Surface
Rops




1/19          
1200          
30          
ASP          
Yes/Yes          













Airport map






Aerial View