CYXS








Prince George





Airport

ICAO code


  CYXS






Summary

ICAO Region

NAM



ICAO Territory





Canada






 








Location

Prince George, British Columbia,




Coordinates



    53°
    53'
          22"
        N
  
      ,
    
    122°
    40'
          44"
        W
  




KCC

Dfb




Metar
CYXS 071411Z AUTO 00000KT 3SM BR OVC042 06/05 A3005 RMK SLP202








Description
Prince George Airport is an airport that serves Prince George, British Columbia, Canada, and the surrounding area. It is located just within the southern boundary of the city, 2.8 nm southeast.
Climatology
Humid Continental climate (Köppen climate classification Dfb) - Variable weather patterns and a large seasonal temperature variance. Summers are often warm and humid with frequent thunderstorms and winters can be very cold with frequent snowfall and persistent snow cover.






Runways






Designator
Length
Width
Surface
Rops




1/19          
1149          
23          
ASP          
Yes/Yes          


6/24          
1715          
46          
ASP          
Yes/Yes          


15/33          
3490          
46          
ASP          
Yes/Yes          













Airport map






Aerial View








Airport accidents



CRJ2, en-route, Fort St. John BC Canada, 2006