USSS








Koltsovo Airport





Airport

ICAO code


  USSS





IATA Code

SVX




Summary

ICAO Region

EUR



ICAO Territory





Russian Federation






 








Location

Koltsovo, Sverdlovsk Oblast,




Serving

Yekaterinburg



Elevation

764 ft



Coordinates



    56°
    44'
          41"
        N
  
      ,
    
    60°
    48'
          11"
        E
  





Metar
USSS 071230Z 36004MPS 9999 SCT046 18/08 Q1022 R26L/010060 NOSIG RMK QFE746/0994








Description
Koltsovo Airport is an international airport located 16 km southeast of Yekaterinburg, Russia.






Runways






Designator
Length
Width
Surface
Rops




08L/26R          
2497          
43          
ASP          
Yes/Yes          


08R/26L          
3025          
45          
CON          
Yes/Yes          













Airport map






Aerial View