KABI








Abilene Regional Airport





Airport

ICAO code


  KABI





IATA Code

ABI




Summary

ICAO Region

NAM



ICAO Territory





United States






 








Location

Abilene, Texas




Serving

Abilene



Elevation

1791 ft



Coordinates



    32°
    24'
          40"
        N
  
      ,
    
    99°
    40'
          54"
        W
  




KCC

Cfa



Airport LOS

Parallel Runway Operation




Metar
KABI 071352Z 36004KT 10SM CLR 21/14 A3020 RMK AO2 SLP204 T02110139 $








Description
Abilene Regional Airport is a public use airport located 5 km southeast of the central business district of Abilene, in Taylor County, Texas.














Airport map






Aerial View