SCDA








Diego Aracena International Airport





Airport

ICAO code


  SCDA





IATA Code

IQQ




Summary

ICAO Region

CARSAM



ICAO Territory





Chile






 








Location

Chucumata, Tarapaca




Serving

Iquique



Elevation

155 ft



Coordinates



    20°
    32'
          7"
        S
  
      ,
    
    70°
    10'
          53"
        W
  




KCC

Cfb




Metar
SCDA 071300Z 18004KT 130V300 9999 OVC025 16/09 Q1015








International airport serving Iquique, Tarapaca region, Chile. The airport is 48 km south of the city. The runway is shared with the Los Condores Air Base.
Climatology
Temperate oceanic climate (Köppen climate classification Cfb)






Runways






Designator
Length
Width
Surface
Rops




1/19          
3350          
45          
ASP          
No/No          













Airport map






Aerial View