TNCB








Flamingo International Airport





Airport

ICAO code


  TNCB






Summary

ICAO Region

CARSAM



ICAO Territory





Bonaire






 








Location

Bonaire, Leeward Antilles, Netherlands,




Coordinates



    12°
    8'
          0"
        N
  
      ,
    
    68°
    16'
          37"
        W
  




KCC

Aw




Metar
TNCB 071355Z 09013KT 060V120 9999 SCT017 31/26 Q1010








Description
Flamingo International Airport or Bonaire International Airport serves the island of Bonaire, part of the Leeward Antilles, Caribbean. (Netherlands)
Climatology
Tropical Savanna climate (Köppen climate classification Aw), rarely affected directly by tropical storms as it is on the southern fringe of the Atlantic/Caribbean Hurricane Belt.






Runways






Designator
Length
Width
Surface
Rops




10/28          
2880          
45          
ASP          
Yes/Yes          













Airport map






Aerial View








Airport accidents



BN2A, vicinity Bonaire Netherlands Antilles, 2009