SADF








San Fernando Airport





Airport

ICAO code


  SADF






Summary

ICAO Region

CARSAM



ICAO Territory





Argentina






 








Location

San Fernando, Buenos Aires




Serving

San Fernando



Elevation

10 ft



Coordinates



    34°
    27'
          11"
        S
  
      ,
    
    58°
    35'
          23"
        W
  




KCC

Cfa




Metar
SADF 071300Z 00000KT 9000 NSC 18/10 Q1015








Airport located 2km southwest of San Fernando, Buenos Aires Province, Argentina.
Climatology
Humid Sub-tropical climate (Köppen climate classification Cfa).






Runways






Designator
Length
Width
Surface
Rops




5/23          
1801          
30          
ASP          
No/No          













Airport map






Aerial View