DNKN








Mallam Aminu Kano International Airport





Airport

ICAO code


  DNKN





IATA Code

KAN




Summary

ICAO Region

AFI



ICAO Territory





Nigeria






 








Location

Kano, Kano State




Serving

Kano



Elevation

1562 ft



Coordinates



    12°
    2'
          55"
        N
  
      ,
    
    8°
    31'
          20"
        E
  




KCC

BSh




Metar
DNKN 061900Z 30003KT 9999 SCT009 FEW018CB(N-SE) 23/23 Q1014 NOSIG








Mallam Aminu Kano International Airport is an airport serving Kano, the capital city of Kano State of Nigeria.
Climatology
Warm Steppe climate (Köppen climate classification BSh)






Runways






Designator
Length
Width
Surface
Rops




5/23          
2451          
45          
ASP          
Yes/Yes          


6/24          
3301          
60          
ASP          
Yes/Yes          













Airport map






Aerial View