DAAJ








Djanet Inedbirene Airport





Airport

ICAO code


  DAAJ





IATA Code

DJG




Summary

ICAO Region

AFI



ICAO Territory





Algeria






 








Location

, Illizi




Serving

Djanet



Elevation

3176 ft



Coordinates



    24°
    17'
          34"
        N
  
      ,
    
    9°
    27'
          9"
        E
  





Metar
DAAJ 071100Z 03008KT 9999 SCT046 SCT100 31/15 Q1022









Runways






Designator
Length
Width
Surface
Rops




2/20          
2400          
45          
ASP          
No/No          


13/31          
3000          
45          
ASP          
No/No          













Airport map






Aerial View