BIVM








Vestmannaeyjar Airport





Airport

ICAO code


  BIVM





IATA Code

VEY




Summary

ICAO Region

NAT



ICAO Territory





Iceland






 








Location

, Suourland




Serving

Vestmannaeyjar



Elevation

326 ft



Coordinates



    63°
    25'
          27"
        N
  
      ,
    
    20°
    16'
          44"
        W
  





Metar
BIVM 071200Z 25010KT 9999 OVC030 09/07 Q1018









Runways






Designator
Length
Width
Surface
Rops




4/22          
1160          
45          
BIT          
No/No          


13/31          
1205          
45          
BIT          
No/No          













Airport map






Aerial View