ZYTX








Shenyang Taoxian International Airport





Airport

ICAO code


  ZYTX





IATA Code

SHE




Summary

ICAO Region

APAC



ICAO Territory





China






 








Location

Shenyang, Liaoning,




Serving

Shenyang



Elevation

198 ft



Coordinates



    41°
    38'
          24"
        N
  
      ,
    
    123°
    29'
          1"
        E
  




KCC

Dwa




Metar
ZYTX 071300Z VRB01MPS CAVOK 16/15 Q1016 NOSIG








Description
Shenyang Taoxian International Airport is an airport in Shenyang, Liaoning, China. It is located about 20 km south of the city center.
Climatology
Warm continental climate/Humid continental climate (Köppen climate classification Dwa).














Airport map






Aerial View