LOXZ








Zeltweg Air Base





Airport

ICAO code


  LOXZ






Summary

ICAO Region

EUR



ICAO Territory





Austria






 








Location

Zeltweg, Styria




Serving

Zeltweg



Elevation

2238 ft



Coordinates



    47°
    12'
          8"
        N
  
      ,
    
    14°
    44'
          32"
        E
  




KCC

Dfb




Metar
LOXZ 071120Z VRB04KT 9999 FEW040 BKN055 24/15 Q1017 NOSIG








Zeltweg Air Base, now known as Fliegerhorst Hinterstoisser, is a military airfield in Styria, Austria near Zeltweg. It is the main airfield of the Austrian Air Force.
Climatology
Humid continental climate (Köppen climate classification Dfb)






Runways






Designator
Length
Width
Surface
Rops




08L/26R          
1100          
40          
GRS          
No/No          


8/26          
2750          
60          
ASP          
No/No          













Airport map






Aerial View