CYFS








Fort Simpson Airport





Airport

ICAO code


  CYFS






Summary

ICAO Region

NAM



ICAO Territory





Canada






 








Location

Fort Simpson, Northwest Territories,




Coordinates



    61°
    45'
          37"
        N
  
      ,
    
    121°
    14'
          13"
        W
  




KCC

Dfc



Airport BS

Non Avian Wildlife Hazards to Aircraft



Airport CFIT

Altimeter Temperature Error Correction



Airport GND

Aircraft Ground De/Anti Icing




Metar
CYFS 070300Z 20006KT 15SM FEW120 BKN250 20/06 A2972 RMK AC1CI5 AC TR SLP070 DENSITY ALT 1600FT








Description
Regional airport serving the town of Fort Simpson, Northwest Territories, Canada.
Climatology
Subarctic climate (Köppen climate classification Dfc) - long, usually very cold winters, and short, cool to mild summers.






Runways






Designator
Length
Width
Surface
Rops




14/32          
1829          
46          
ASP          
No/No          













Airport map






Aerial View