RJTY








Yokota Air Base





Airport

ICAO code


  RJTY





IATA Code

OKO




Summary

ICAO Region

APAC



ICAO Territory





Japan






 








Location

Fussa, Kantō




Serving

Yokota



Elevation

463 ft



Coordinates



    35°
    44'
          55"
        N
  
      ,
    
    139°
    20'
          55"
        E
  




KCC

Cfa




Metar
RJTY 071255Z 34003KT 10SM FEW030 27/23 A2994 RMK AO2A SLP137 T02730229 $








Yokota Air Base is a United States Air Force base in the city of Fussa, in the Western Tokyo area, Japan.
Climatology
Humid Sub-tropical climate (Köppen climate classification Cfa)






Runways






Designator
Length
Width
Surface
Rops




18/36          
3353          
61          
CON          
Yes/Yes          













Airport map






Aerial View