SPPY








Chachapoyas Airport





Airport

ICAO code


  SPPY





IATA Code

CHH




Summary

ICAO Region

CARSAM



ICAO Territory





Peru






 








Location

Chachapoyas, Amazonas




Serving

Chachapoyas



Elevation

8333 ft



Coordinates



    6°
    12'
          7"
        S
  
      ,
    
    77°
    51'
          22"
        W
  




KCC

Cwb




Metar
SPPY 071300Z 09004KT 7000 2000SE BCFG SCT005 BKN050 11/10 Q1028 RMK TN06.4 PP000








Airport serving the city of Chachapoyas in the Amazonas Region of Peru. The runway is on a mesa north of the city, with steep dropoffs on either end.
Climatology
Subtropical Highland climate (Köppen climate classification Cwb).






Runways






Designator
Length
Width
Surface
Rops




13/31          
1980          
30          
ASP          
No/No          













Airport map






Aerial View