DAAY








Mecheria Airport





Airport

ICAO code


  DAAY






Summary

ICAO Region

AFI



ICAO Territory





Algeria






 








Location

, Naama




Serving

Mecheria



Elevation

3855 ft



Coordinates



    33°
    32'
          9"
        N
  
      ,
    
    0°
    14'
          32"
        W
  





Metar
DAAY 071200Z 20016KT 3000 DRSA FEW030 31/15 Q1021









Runways






Designator
Length
Width
Surface
Rops




17/35          
2876          
30          
ASP          
No/No          


6/24          
3591          
46          
ASP          
No/No          













Airport map






Aerial View