LEMH








Isla de Menorca/Menorca





Airport

ICAO code


  LEMH





IATA Code

MAH




Summary

ICAO Region

EUR



ICAO Territory





Spain






 








Location

Mahon, Balearics,




Serving

Menorca



Elevation

302 ft



Coordinates



    39°
    51'
          49"
        N
  
      ,
    
    4°
    12'
          58"
        E
  




KCC

Csa




Metar
LEMH 071300Z 21012KT 180V240 8000 NSC 28/25 Q1010








Description
International airport serving the island of Menorca.
Climatology
Dry-summer subtropical ”Mediterranean" climate (Köppen climate classification Csa) - characterized by hot, dry summers and mild winters. During the summer, subtropical high pressure cells dominate, making rainfall unlikely except for the occasional thunderstorm. In the winter, periodic storms bring rain.






Runways






Designator
Length
Width
Surface
Rops




01R/19L          
2100          
45          
ASP          
Yes/Yes          


01L/19R          
2350          
45          
ASP          
Yes/Yes          













Airport map






Aerial View








Airport accidents



CRJ2, Menorca Spain, 2011