GMMW








Nador International Airport





Airport

ICAO code


  GMMW





IATA Code

NDR




Summary

ICAO Region

AFI



ICAO Territory





Morocco






 








Location

Nador, Oriental region




Serving

Nador



Elevation

574 ft



Coordinates



    34°
    59'
          21"
        N
  
      ,
    
    3°
    1'
          40"
        W
  




KCC

Csa




Metar
GMMW 071300Z 04009KT 8000 NSC 32/18 Q1010 NOSIG








Nador International Airport is an airport serving Nador, a city in the Oriental region in Morocco. It is also known as Al Aroui International Airport or Arwi Airport.
Climatology
Dry-summer subtropical ”Mediterranean" climate (Köppen climate classification Csa)






Runways






Designator
Length
Width
Surface
Rops




8/26          
3000          
45          
ASP          
No/No          













Airport map






Aerial View