KCEZ








Cortez Municipal Airport





Airport

ICAO code


  KCEZ





IATA Code

CEZ




Summary

ICAO Region

NAM



ICAO Territory





United States






 








Location

Cortez, Colorado




Serving

Cortez



Elevation

5918 ft



Coordinates



    37°
    18'
          15"
        N
  
      ,
    
    108°
    37'
          47"
        W
  




KCC

BSk



Airport CFIT

Altimeter Temperature Error Correction



Airport RE

Hot and High Operations



Airport WX

Mountain Waves




Metar
KCEZ 071353Z AUTO 00000KT 10SM CLR 13/07 A3038 RMK AO2 SLP225 T01330072 $








Description
Cortez Municipal Airport is a city owned, public use airport located 3 nm southwest of the central business district of Cortez, a city in Montezuma County, Colorado, USA. It is also known as Montezuma County Airport.














Airport map






Aerial View