LBWN








Varna Airport





Airport

ICAO code


  LBWN





IATA Code

VAR




Summary

ICAO Region

EUR



ICAO Territory





Bulgaria






 








Location

Aksakovo, Varna Province




Serving

Varna



Elevation

230 ft



Coordinates



    43°
    13'
          55"
        N
  
      ,
    
    27°
    49'
          30"
        E
  




KCC

Cfb




Metar
LBWN 071230Z 06014KT 9999 FEW033 BKN040 25/18 Q1016 NOSIG








Varna Airport is the airport of Varna, the historical maritime capital of Bulgaria
Climatology
Temperate oceanic climate (Köppen climate classification Cfb)






Runways






Designator
Length
Width
Surface
Rops




9/27          
2500          
55          
CON          
Yes/Yes          













Airport map






Aerial View