WADL








Lombok/Zainuddin Abdul Madjid International Airport





Airport

ICAO code


  WADL





IATA Code

LOP




Summary

ICAO Region

APAC



ICAO Territory





Indonesia






 








Location

Central Lombok, West Nusa Tenggara




Serving

Mataram



Elevation

319 ft



Coordinates



    8°
    45'
          29"
        S
  
      ,
    
    116°
    16'
          35"
        E
  




KCC

Aw




Metar
WADL 071430Z 13011KT 7000 BKN016 26/24 Q1015 NOSIG








International airport serving Lombok.
Climatology
Tropical Savanna climate (Köppen climate classification Aw) - monthly mean temperature above 18°C in every month of the year and a pronounced dry season.














Airport map






Aerial View