SBKP








Viracopos-Campinas International Airport





Airport

ICAO code


  SBKP





IATA Code

VCP




Summary

ICAO Region

CARSAM



ICAO Territory





Brazil






 








Location

Viracopos, Sao Paulo




Serving

Campinas



Elevation

2170 ft



Coordinates



    23°
    0'
          25"
        S
  
      ,
    
    47°
    8'
          4"
        W
  




KCC

Cwa




Metar
SBKP 071200Z 12005KT 5000 HZ NSC 21/17 Q1021








Viracopos/Campinas International Airport (sometimes referred to as São Paulo/Campinas) is an international airport serving Campinas, São Paulo State, Brazil
Climatology
Humid subtropical climate (Köppen climate classification Cwa)






Runways






Designator
Length
Width
Surface
Rops




15/33          
3240          
45          
ASP          
Yes/Yes          













Airport map






Aerial View