MSSS








Ilopango International Airport





Airport

ICAO code


  MSSS





IATA Code

ILS




Summary

ICAO Region

CARSAM



ICAO Territory





El Salvador






 








Location

Ilopango, San Salvador




Serving

San Salvador



Elevation

2018 ft



Coordinates



    13°
    41'
          32"
        N
  
      ,
    
    89°
    6'
          58"
        W
  




KCC

Aw




Metar
MSSS 071500Z 18003KT 130V210 5000 SCT013 25/22 Q1014 A2994








Ilopango International Airport is an airport located on the eastern part of the city of San Salvador, El Salvador, once serving the city as its international airport until it was replaced by the larger and more modern Comalapa International Airport, located about 50 km south of the city.
Climatology
Tropical savannah climate (Köppen climate classification Aw)






Runways






Designator
Length
Width
Surface
Rops




15/33          
2240          
45          
ASP          
No/No          













Airport map






Aerial View