KBUF








Buffalo Niagara International Airport





Airport

ICAO code


  KBUF





IATA Code

BUF




Summary

ICAO Region

NAM



ICAO Territory





United States






 








Location

Cheektowaga, New York




Serving

Buffalo



Elevation

728 ft



Coordinates



    42°
    56'
          25"
        N
  
      ,
    
    78°
    43'
          49"
        W
  




KCC

Dfb



Airport WX

Lake Effect Snow




Metar
KBUF 071254Z 28009KT 10SM FEW025 SCT200 SCT250 15/11 A2986 RMK AO2 SLP109 T01500111








Description
Airport located in Cheektowaga, New York, USA serving Buffalo, New York as well as Southern Ontario, Canada.














Airport map






Aerial View








Airport accidents



DH8D, vicinity Buffalo NY USA, 2009