EDXW








Sylt Airport





Airport

ICAO code


  EDXW





IATA Code

GWT




Summary

ICAO Region

EUR



ICAO Territory





Germany






 








Location

Westerland, Sylt




Serving

Sylt



Elevation

51 ft



Coordinates



    54°
    54'
          40"
        N
  
      ,
    
    8°
    20'
          25"
        E
  




KCC

Cfb




Metar
EDXW 071420Z 10010KT CAVOK 25/18 Q1013








Sylt Airport (IATA: GWT, ICAO: EDXW) is the airport on the German island of Sylt.
Climatology
Temperate oceanic climate (Köppen climate classification Cfb)






Runways






Designator
Length
Width
Surface
Rops




6/24          
1696          
45          
ASP          
Yes/Yes          


14/32          
2120          
45          
CON          
Yes/Yes          













Airport map






Aerial View








Airport accidents



A320, Sylt Germany, 2017