PAMR








Merrill Field





Airport

ICAO code


  PAMR






Summary

ICAO Region

NAM



ICAO Territory





Alaska






 








Location

Anchorage,




Elevation

0 ft



Coordinates



    61°
    12'
          52"
        N
  
      ,
    
    149°
    51'
          1"
        W
  




KCC

Dfc



Airport CFIT

Altimeter Temperature Error Correction




Metar
PAMR 071153Z 18005KT 10SM FEW060 10/09 A2988 RMK AO2 SLP119 60000 70010 T01000089 10139 20100 52021








Description
General aviation airport serving Anchorage, Alaska.
Climatology
Cool continental climate/Subarctic climate (Köppen climate classification Dfc)






Runways






Designator
Length
Width
Surface
Rops




4/22          
610          
18          
GVL          
No/No          


16/34          
805          
23          
ASP          
No/No          


7/25          
1219          
30          
ASP          
No/No          













Airport map






Aerial View