LFMH








Saint-Étienne-Bouthéon Airport





Airport

ICAO code


  LFMH





IATA Code

EBU




Summary

ICAO Region

EUR



ICAO Territory





France






 








Location

, Rhone-Alpes




Serving

St-Etienne



Elevation

1325 ft



Coordinates



    45°
    32'
          26"
        N
  
      ,
    
    4°
    17'
          47"
        E
  





Metar
LFMH 071400Z AUTO 18020KT CAVOK 27/15 Q1008









Runways






Designator
Length
Width
Surface
Rops




18/36          
2300          
45          
ASP          
Yes/Yes          













Airport map






Aerial View