DAUK








Touggourt Sidi Madhi Airport





Airport

ICAO code


  DAUK





IATA Code

TGR




Summary

ICAO Region

AFI



ICAO Territory





Algeria






 








Location

, Ouargla




Serving

Touggourt



Elevation

279 ft



Coordinates



    33°
    4'
          4"
        N
  
      ,
    
    6°
    5'
          19"
        E
  





Metar
DAUK 071100Z 03004KT 8000 FEW040 35/19 Q1015









Runways






Designator
Length
Width
Surface
Rops




1/19          
3000          
45          
ASP          
No/No          













Airport map






Aerial View