PAKF








False Pass Airport





Airport

ICAO code


  PAKF





IATA Code

KFP




Summary

ICAO Region

NAM



ICAO Territory





Alaska






 








Location

, Alaska




Serving

False Pass



Elevation

20 ft



Coordinates



    54°
    50'
          51"
        N
  
      ,
    
    163°
    24'
          37"
        W
  





Metar
PAKF 071256Z AUTO 27003KT 10SM OVC006 06/06 A3015 RMK AO2 SLP208 T00610056









Runways






Designator
Length
Width
Surface
Rops




13/31          
640          
23          
GRVL-G          
No/No          













Airport map






Aerial View