HEMM








Marsa Matruh Airport





Airport

ICAO code


  HEMM





IATA Code

MUH




Summary

ICAO Region

EUR



ICAO Territory





Egypt






 








Location

Mersa Matruh, Matruh




Serving

Mersa Matruh



Elevation

94 ft



Coordinates



    31°
    19'
          31"
        N
  
      ,
    
    27°
    13'
          18"
        E
  





Metar
HEMM 071200Z 29015KT CAVOK 32/23 Q1013 NOSIG









Runways






Designator
Length
Width
Surface
Rops




6/24          
3000          
45          
ASP          
No/No          


15/33          
3000          
45          
ASP          
No/No          













Airport map






Aerial View