MMSD








Los Cabos International Airport





Airport

ICAO code


  MMSD





IATA Code

SJD




Summary

ICAO Region

CARSAM



ICAO Territory





Mexico






 








Location

San José del Cabo, Baja California Sur




Serving

San Jose Del Cabo



Elevation

374 ft



Coordinates



    23°
    9'
          7"
        N
  
      ,
    
    109°
    43'
          16"
        W
  




KCC

BWh



Airport BS

Bird Strike




Metar
MMSD 071144Z 00000KT 10SM SKC 28/22 A2976 RMK SLP060 56003 983








Los Cabos International Airport is a small international aerodrome located just north of San José del Cabo in Baja California Sur, Mexico. It services the Las Cabos region on the southern tip of the Baja penninsula.
Climatology
Hot Desert Climate (Köppen climate classification BWh)






Runways






Designator
Length
Width
Surface
Rops




16/34          
3000          
45          
ASP          
Yes/Yes          













Airport map






Aerial View