VTSR








Ranong Airport





Airport

ICAO code


  VTSR





IATA Code

UNN




Summary

ICAO Region

APAC



ICAO Territory





Thailand






 








Location

Ranong,




Serving

Ranong



Elevation

57 ft



Coordinates



    9°
    46'
          24"
        N
  
      ,
    
    98°
    35'
          17"
        E
  




KCC

Am




Metar
VTSR 071100Z 23004KT 170V290 9999 BKN020 29/25 Q1008 NOSIG








Description
Ranong Airport is an airport serving Ranong, a town in the Ranong Province of Thailand.
Climatology
Tropical Monsoon climate (Köppen climate classification Am) - monthly mean temperatures above 18°C in every month of the year and features wet and dry seasons. A tropical monsoon climate typically features less pronounced dry seasons than a tropical savanna climate and see less variance in temperatures during the course of the year. The driest month nearly always occurs at or soon after the "winter" solstice.














Airport map






Aerial View