FASB








Springbok Airport





Airport

ICAO code


  FASB





IATA Code

SBU




Summary

ICAO Region

AFI



ICAO Territory





South Africa






 








Location

, Northern Cape




Serving

Springbok



Elevation

2690 ft



Coordinates



    29°
    41'
          22"
        S
  
      ,
    
    17°
    56'
          23"
        E
  





Metar
FASB 070846Z 11010KT CAVOK 16/M01 Q1023









Runways






Designator
Length
Width
Surface
Rops




10/28          
1589          
20          
ASP          
No/No          













Airport map






Aerial View