ESOK








Karlstad





Airport

ICAO code


  ESOK






Summary

ICAO Region

EUR



ICAO Territory





Sweden






 








Location

Karlstad,




Elevation

352 ft



Coordinates



    59°
    26'
          41"
        N
  
      ,
    
    13°
    20'
          15"
        E
  




KCC

Dfb




Metar
ESOK 071220Z AUTO 08004KT 030V130 9999 NCD 23/14 Q1021








Description
Karlstad Airport is situated 16 km from Karlstad.
Climatology
Humid Continental climate (Köppen climate classification Dfb) - Variable weather patterns and a large seasonal temperature variance. Summers are often warm and humid with frequent thunderstorms and winters can be very cold with frequent snowfall and persistent snow cover.






Runways






Designator
Length
Width
Surface
Rops




03L/21R          
561          
52          
GRE          
No/No          


3/21          
2516          
45          
ASP          
Yes/Yes          













Airport map






Aerial View