KSZL








Whiteman Air Force Base





Airport

ICAO code


  KSZL






Summary

ICAO Region

NAM



ICAO Territory





United States






 








Location

Knob Noster, Missouri,




Coordinates



    38°
    43'
          44"
        N
  
      ,
    
    93°
    33'
          38"
        W
  




KCC

Dfa




Metar
KSZL 071355Z 04006KT 10SM CLR 15/11 A3027 RMK AO2A SLP251 T01470107 $








Description
Whiteman Air Force Base is a United States Air Force installation located approximately 3 km south of Knob Noster, Missouri.
Climatology
Humid continental climate (Köppen climate classification Dfa) - characterized by four seasons: cold, windy, snowy winters, mild springs, hot, humid summers, and crisp and relatively short autumns. Precipitation reaches its lowest in January and February and peaks in summer and latter half of spring.






Runways






Designator
Length
Width
Surface
Rops




1/19          
3780          
61          
CON          
Yes/Yes          













Airport map






Aerial View