NLWW








Wallis Island/Hihifo





Airport

ICAO code


  NLWW






Summary

ICAO Region

APAC



ICAO Territory





Wallis and Futuna Islands






 








Location

Wallis Island,




Coordinates



    13°
    14'
          18"
        S
  
      ,
    
    176°
    11'
          56"
        W
  




KCC

Am



Airport WX

Tropical Revolving Storm




Metar
NLWW 071400Z AUTO 15010KT 120V200 6000 -RA BKN014/// BKN020/// OVC030/// 22/21 Q1013 TEMPO 12020G40KT 2500 SHRA BKN012 FEW018CB BKN020








Description
Hihifo Airport is an airport in Hihifo on Wallis Island in Wallis and Futuna. The airport is 5.6 km from Mata-Utu.
Climatology
Tropical Monsoon climate (Köppen climate classification Am) - monthly mean temperatures above 18°C in every month of the year and features wet and dry seasons. A tropical monsoon climate typically features less pronounced dry seasons than a tropical savanna climate and see less variance in temperatures during the course of the year. The driest month nearly always occurs at or soon after the "winter" solstice.






Runways






Designator
Length
Width
Surface
Rops




8/26          
2100          
45          
ASP          
No/No          













Airport map






Aerial View