SLSA








Santa Ana Del Yacuma Airport





Airport

ICAO code


  SLSA





IATA Code

SBL




Summary

ICAO Region

CARSAM



ICAO Territory





Bolivia






 








Location

Santa Ana del Yacuma, El Beni




Serving

Santa Ana



Elevation

472 ft



Coordinates



    13°
    45'
          44"
        S
  
      ,
    
    65°
    26'
          7"
        W
  




KCC

Am




Metar
SLSA 071100Z VRB02KT 0500 FU VV/// 17/14 Q1011








Airport serving the town of Santa Ana del Yacuma in the Beni Department of Bolivia. The runway is just south of the town.
Climatology
Monsoon climate (Köppen climate classification Am).






Runways






Designator
Length
Width
Surface
Rops




14/32          
1528          
21          
ASP          
No/No          













Airport map






Aerial View