KGSP








Greenville-Spartanburg International Airport





Airport

ICAO code


  KGSP





IATA Code

GSP




Summary

ICAO Region

NAM



ICAO Territory





United States






 








Location

Greer, South Carolina




Serving

Greenville



Elevation

964 ft



Coordinates



    34°
    53'
          45"
        N
  
      ,
    
    82°
    13'
          8"
        W
  




KCC

Cfa



Airport RE

Engineered Materials Arresting System




Metar
KGSP 071353Z 30003KT 10SM CLR 23/17 A2992 RMK AO2 SLP120 T02330172








Greenville-Spartanburg International Airport, also known as GSP International Airport or Roger Milliken Field, is located 3 nm south of central Greer; the airport serves Greenville and Spartanburg in the Upstate region of South Carolina, USA.














Airport map






Aerial View