KSGF








Springfield-Branson National Airport





Airport

ICAO code


  KSGF






Summary

ICAO Region

NAM



ICAO Territory





United States






 








Location

Springfield, Missouri,




Coordinates



    37°
    14'
          18"
        N
  
      ,
    
    93°
    23'
          50"
        W
  




KCC

Cfa




Metar
KSGF 071352Z 06007KT 10SM CLR 15/09 A3025 RMK AO2 SLP236 T01500094








Description
Springfield-Branson National Airport, formerly Springfield-Greene County Airport, Springfield Municipal Airport and Springfield-Branson Regional Airport, is a public airport located 8 km northwest of the central business district of Springfield, a city in Greene County, Missouri.
Climatology
Humid “subtropical” climate (Köppen climate classification Cfa) - characterized by hot, humid summers and cool winters. Significant amounts of precipitation occur in all seasons in most areas. Winter rainfall (and sometimes snowfall) is associated with large storms that the westerlies steer from west to east. Most summer rainfall occurs during thunderstorms.






Runways






Designator
Length
Width
Surface
Rops




2/20          
2135          
46          
CON          
Yes/Yes          


14/32          
2438          
46          
PEM          
Yes/Yes          













Airport map






Aerial View