EGPE








Inverness Airport





Airport

ICAO code


  EGPE





IATA Code

INV




Summary

ICAO Region

EUR



ICAO Territory





United Kingdom






 








Location

Dalcross, Scotland




Serving

Inverness



Elevation

30 ft



Coordinates



    57°
    32'
          33"
        N
  
      ,
    
    4°
    2'
          51"
        W
  




KCC

Cfb




Metar
EGPE 071420Z 03005KT 350V060 6000 VCFG FEW001 SCT008 15/13 Q1014








Description
Small regional airport serving Inverness and the Central Highlands of Scotland.
Climatology
Temperate Marine climate/Oceanic climate (Köppen climate classification Cfb). Moderately cool summer and comparatively warm winter with a temperature range of only 14°C. Prevailing south-westerly winds from the Atlantic Ocean.






Runways






Designator
Length
Width
Surface
Rops




12/30          
700          
18          
ASP          
Yes/Yes          


5/23          
1887          
46          
ASP          
Yes/Yes          













Airport map






Aerial View