KPVD








Theodore Francis Green State Airport





Airport

ICAO code


  KPVD






Summary

ICAO Region

NAM



ICAO Territory





United States






 








Location

Providence/Warwick, Rhode Island,




Serving

Providence



Coordinates



    41°
    43'
          29"
        N
  
      ,
    
    71°
    25'
          31"
        W
  




KCC

Dfa



Airport WX

Cumulonimbus




Metar
KPVD 071251Z 02007KT 10SM FEW010 SCT015 BKN250 18/15 A2990 RMK AO2 SLP124 T01780150








Description
The main airport serving Rhode Island is at Providence and is also known as Theodore Francis Green Memorial State Airport.
Climatology
Humid “subtropical”/Continental climate (Köppen climate classification Cfa/Dfa) - characterized by hot, humid summers and cool/cold winters. Significant amounts of precipitation occur in all seasons in most areas. Winter rainfall (and snowfall) is associated with large storms that the westerlies steer from west to east. Most summer rainfall occurs during thunderstorms.






Runways






Designator
Length
Width
Surface
Rops




16/34          
1853          
46          
ASP          
Yes/Yes          


5/23          
2184          
46          
ASP          
Yes/Yes          













Airport map






Aerial View








Airport accidents



CRJ2, Providence RI USA, 2007
B752/B722, Providence RI USA, 1999