EBLG








Liège





Airport

ICAO code


  EBLG






Summary

ICAO Region

EUR



ICAO Territory





Belgium






 








Location

Liège,




Elevation

659 ft



Coordinates



    50°
    38'
          15"
        N
  
      ,
    
    5°
    26'
          36"
        E
  




KCC

Cfb




Metar
EBLG 071220Z 12005KT 080V180 CAVOK 26/17 Q1011 NOSIG








Description
Liège Airport, also called Liège-Bierset, is a cargo airport in Belgium.
Climatology
Temperate Marine climate/Oceanic climate (Köppen climate classification Cfb) - Moderately cool summer and comparatively warm winter.






Runways






Designator
Length
Width
Surface
Rops




05L/23R          
2340          
45          
ASP          
Yes/Yes          


05R/23L          
3287          
45          
ASP          
Yes/Yes          













Airport map






Aerial View