MMMD








Licenciado Manuel Crescencio Rejon Int Airport





Airport

ICAO code


  MMMD





IATA Code

MID




Summary

ICAO Region

CARSAM



ICAO Territory





Mexico






 








Location

Mérida, Yucatán, Yucatan




Serving

Merida



Elevation

38 ft



Coordinates



    20°
    56'
          13"
        N
  
      ,
    
    89°
    39'
          28"
        W
  




KCC

Aw



Airport BS

Bird Strike




Metar
MMMD 071142Z 12006KT 6SM SCT015 BKN300 25/24 A2973 RMK SLP076 52004 985 8/508 HZY LWR SC








International airport serving the city of Mérida, Mexico.
Climatology
Tropical Savanna climate (Köppen climate classification Aw)






Runways






Designator
Length
Width
Surface
Rops




17/35          
2300          
46          
ASP          
Yes/Yes          


10/28          
3200          
46          
ASP          
Yes/Yes          













Airport map






Aerial View