SUCA








Laguna de Los Patos International Airport





Airport

ICAO code


  SUCA





IATA Code

CYR




Summary

ICAO Region

CARSAM



ICAO Territory





Uruguay






 








Location

, Colonia




Serving

Colonia



Elevation

66 ft



Coordinates



    34°
    27'
          23"
        S
  
      ,
    
    57°
    46'
          14"
        W
  





Metar
SUCA 071400Z 16004KT 130V200 CAVOK 19/08 Q1015









Runways






Designator
Length
Width
Surface
Rops




12/30          
1370          
0          
UNK          
No/No          













Airport map






Aerial View