UBBY








Zaqatala International Airport





Airport

ICAO code


  UBBY





IATA Code

ZTU




Summary

ICAO Region

APAC



ICAO Territory





Azerbaijan






 








Location

Zaqatala, Zaqatala Rayon




Serving

Zaqatala



Elevation

1281 ft



Coordinates



    41°
    33'
          44"
        N
  
      ,
    
    46°
    40'
          2"
        E
  




KCC

Cfa




Metar
UBBY 071500Z 14004KT 9999 NSC 23/11 Q1022 NOSIG








Zaqatala International Airport is an airport serving Zaqatala city in Azerbaijan.
Climatology
Humid subtropical climate (Köppen climate classification Cfa)














Airport map






Aerial View