LFLB








Chambéry





Airport

ICAO code


  LFLB






Summary

ICAO Region

EUR



ICAO Territory





France






 








Location

Voglans, La Motte-Servolex, Le Bourget-du-Lac, Viviers-du-Lac,




Coordinates



    45°
    38'
          19"
        N
  
      ,
    
    5°
    52'
          52"
        E
  





Metar
LFLB 071230Z AUTO 34004KT 310V030 CAVOK 26/17 Q1009 NOSIG








Description
Chambéry Airport or Chambéry-Savoie Airport, also known as Chambéry Aix-les-Bains Airport, is a small international airport near Chambéry, a commune in Savoie, France.
Climatology






Runways






Designator
Length
Width
Surface
Rops




18/36          
2020          
45          
ASP          
Yes/Yes          













Airport map






Aerial View








Airport accidents



B733, Chambery France, 2012
B733, vicinity Chambery France, 2010