LEIB








Ibiza Airport





Airport

ICAO code


  LEIB





IATA Code

IBZ




Summary

ICAO Region

EUR



ICAO Territory





Spain






 








Location

Es Codolá, Ibiza, Balearics,




Serving

Ibiza



Elevation

24 ft



Coordinates



    38°
    52'
          24"
        N
  
      ,
    
    1°
    22'
          24"
        E
  




KCC

Csa




Metar
LEIB 071230Z 21010KT 190V250 CAVOK 28/21 Q1010 NOSIG








International airport serving island of Ibiza.
Climatology
Dry-summer subtropical ”Mediterranean" climate (Köppen climate classification Csa) - characterized by hot, dry summers and mild winters. During the summer, subtropical high pressure cells dominate, making rainfall unlikely except for the occasional thunderstorm. In the winter, periodic storms bring rain.






Runways






Designator
Length
Width
Surface
Rops




6/24          
2800          
45          
ASP          
Yes/Yes          













Airport map






Aerial View








Airport accidents



A319, Ibiza Spain, 2016
GLEX/F2TH, vicinity Ibiza Spain, 2012