FQTT








Tete/Chingozi Airport





Airport

ICAO code


  FQTT





IATA Code

TET




Summary

ICAO Region

AFI



ICAO Territory





Mozambique






 








Location

Tete,




Serving

Tete



Elevation

525 ft



Coordinates



    16°
    6'
          30"
        S
  
      ,
    
    33°
    38'
          23"
        E
  





Metar
FQTT 071400Z 10012KT 080V150 9999 BKN020 33/15 Q1016









Runways






Designator
Length
Width
Surface
Rops




1/19          
2507          
45          
ASP          
No/No          













Airport map






Aerial View