RJEB








Monbetsu Airport





Airport

ICAO code


  RJEB





IATA Code

MBE




Summary

ICAO Region

APAC



ICAO Territory





Japan






 








Location

Monbetsu, Hokkaidō




Serving

Monbetsu



Elevation

58 ft



Coordinates



    44°
    18'
          24"
        N
  
      ,
    
    143°
    24'
          25"
        E
  




KCC

Dfb




Metar
RJEB 070100Z 24012KT 9999 FEW020 BKN/// 23/13 Q1011








Monbetsu Airport or Okhotsk Monbetsu Airport, is an airport located 3.8nm southeast of Monbetsu, a city on the Sea of Okhotsk in Hokkaidō, Japan.
Climatology
Humid continental climate (Köppen climate classification Dfb)






Runways






Designator
Length
Width
Surface
Rops




14/32          
2000          
45          
ASP          
No/No          













Airport map






Aerial View