FZIC








Kisangani/Bangoka International Airport





Airport

ICAO code


  FZIC





IATA Code

FKI




Summary

ICAO Region

AFI



ICAO Territory





Democratic Republic of the Congo






 








Location

Kisangani,




Serving

Kisangani



Elevation

1417 ft



Coordinates



    0°
    29'
          13"
        N
  
      ,
    
    25°
    19'
          58"
        E
  




KCC

Am




Metar
FZIC 061000Z 27004KT 9999 FEW022 30/21 Q1014 NOSIG








International airport serving city of Kisangani, DRC.
Climatology
Tropical Monsoon climate (Köppen climate classification Am) - monthly mean temperatures above 18°C in every month of the year and features wet and dry seasons. A tropical monsoon climate typically features less pronounced dry seasons than a tropical savanna climate and sees less variance in temperatures during the course of the year. The driest month nearly always occurs at or soon after the "winter" solstice.






Runways






Designator
Length
Width
Surface
Rops




13/31          
3500          
45          
ASP          
No/No          













Airport map






Aerial View