KMGM








Montgomery Regional Airport





Airport

ICAO code


  KMGM





IATA Code

MGM




Summary

ICAO Region

NAM



ICAO Territory





United States






 








Location

Montgomery, Alabama




Serving

Montgomery



Elevation

221 ft



Coordinates



    32°
    18'
          19"
        N
  
      ,
    
    86°
    23'
          27"
        W
  




KCC

Cfa



Airport WX

Cumulonimbus




Metar
KMGM 071353Z 04003KT 10SM OVC070 22/21 A2994 RMK AO2 SLP136 T02220206








Civil/Military (ANG) airport serving the city of Montgomery and central Alabama, USA.






Runways






Designator
Length
Width
Surface
Rops




3/21          
1222          
46          
ASP          
Yes/Yes          


10/28          
2746          
46          
ASP          
Yes/Yes          













Airport map






Aerial View