CYRT








Rankin Inlet Airport





Airport

ICAO code


  CYRT






Summary

ICAO Region

NAM



ICAO Territory





Canada






 








Location

Rankin Inlet, Nunavut,




Coordinates



    62°
    48'
          35"
        N
  
      ,
    
    92°
    6'
          40"
        W
  




KCC

ET



Airport BS

Non Avian Wildlife Hazards to Aircraft



Airport CFIT

Altimeter Temperature Error Correction



Airport GND

Aircraft Ground De/Anti Icing




Metar
CYRT 071445Z 18012KT 12SM FEW008 OVC047 07/07 A2971 RMK SC2SC6 BR SLP064








Description
Airport serving Rankin Inlet, Nunavut.
Climatology
Tundra climate (Köppen climate classification ET) - warmest month has an average temperature of 0 - 10 degrees C.






Runways






Designator
Length
Width
Surface
Rops




13T/31T          
1829          
46          
ASP          
No/No          













Airport map






Aerial View