EBCI








Brussels South Charleroi Airport





Airport

ICAO code


  EBCI






Summary

ICAO Region

EUR



ICAO Territory





Belgium






 








Location

Charleroi,




Coordinates



    50°
    27'
          46"
        N
  
      ,
    
    4°
    27'
          42"
        E
  




KCC

Cfb




Metar
EBCI 071250Z VRB04KT CAVOK 25/17 Q1010 NOSIG








Description
Charleroi airport is an international airport located in Gosselies, 46 km south of Brussels.
Climatology
Temperate Marine climate/Oceanic climate (Köppen climate classification Cfb). Moderately cool summer and comparatively warm winter with a temperature range of only 14°C. Prevailing south-westerly winds from the Atlantic Ocean.






Runways






Designator
Length
Width
Surface
Rops




7/25          
2550          
45          
ASP          
Yes/Yes          













Airport map






Aerial View