KIFP








Laughlin/Bullhead International Airport





Airport

ICAO code


  KIFP





IATA Code

IFP




Summary

ICAO Region

NAM



ICAO Territory





United States






 








Location

Bullhead City, Arizona




Serving

Bullhead City



Elevation

707 ft



Coordinates



    35°
    9'
          56"
        N
  
      ,
    
    114°
    33'
          25"
        W
  




KCC

BWh




Metar
KIFP 070135Z AUTO 34006KT 10SM CLR 42/M04 A2978 RMK AO2








International airport serving Bullhead City, Arizona and Laughlin, Nevada.
 














Airport map






Aerial View