NSFA








Faleolo International Airport





Airport

ICAO code


  NSFA





IATA Code

APW




Summary

ICAO Region

APAC



ICAO Territory





Samoa






 








Location

Apia, Upolu Island,




Serving

Apia



Elevation

58 ft



Coordinates



    13°
    49'
          50"
        S
  
      ,
    
    172°
    0'
          29"
        W
  




KCC

Af




Metar
NSFA 071400Z 11012KT 060V160 9999 FEW020 SCT040 OVC100 23/22 Q1011








Description
Faleolo International Airport is an airport located 40 kilometres west of Apia, the capital of Samoa.
Climatology
Tropical Rainforest climate (Köppen climate classification Af) - almost no distinct seasons, average daily temperature around 27°C throughout the year. Extensive cloud cover and heavy rainfall prevent temperatures from rising much over 33°C. The diurnal temperature change is between 2°C and 5°C which is greater than the annual temperature range of 2°C. Rainfall is heavy and is usually convectional and in the afternoon.






Runways






Designator
Length
Width
Surface
Rops




8/26          
3000          
45          
ASP          
Yes/Yes          













Airport map






Aerial View