MMPA








El Tajín National Airport





Airport

ICAO code


  MMPA





IATA Code

PAZ




Summary

ICAO Region

CARSAM



ICAO Territory





Mexico






 








Location

Tihuatlán Municipality, Veracruz-Llave




Serving

Poza Rico



Elevation

497 ft



Coordinates



    20°
    36'
          10"
        N
  
      ,
    
    97°
    27'
          39"
        W
  





Metar
MMPA 071241Z 00000KT 5SM SCT015 OVC070 25/24 A2984 RMK 60322 8/57/ HZY RTS









Runways






Designator
Length
Width
Surface
Rops




8/26          
1800          
45          
ASP          
No/No          













Airport map






Aerial View