EGYP








RAF Mount Pleasant





Airport

ICAO code


  EGYP





IATA Code

MPN




Summary

ICAO Region

CARSAM



ICAO Territory





Falkland Islands






 








Location

Mount Pleasant, Falkland Islands




Serving

Mount Pleasant



Elevation

243 ft



Coordinates



    51°
    49'
          24"
        S
  
      ,
    
    58°
    26'
          36"
        W
  




KCC

Cfc




Metar
EGYP 071420Z 32021KT CAVOK 11/03 Q0994 NOSIG








The airport is a Royal Air Force base in the Falkland Islands which is avalable for civil transport flights by prior arrangement.
Climatology
Subpolar Oceanic climate (Köppen climate classification Cfc)






Runways






Designator
Length
Width
Surface
Rops




5/23          
1525          
23          
ASP          
Yes/Yes          


10/28          
2590          
46          
ASP          
Yes/Yes          













Airport map






Aerial View