ROIG








Ishigaki Airport





Airport

ICAO code


  ROIG





IATA Code

ISG




Summary

ICAO Region

APAC



ICAO Territory





Japan






 








Location

Shiraho, Okinawa




Serving

Ishigaki



Elevation

86 ft



Coordinates



    24°
    23'
          27"
        N
  
      ,
    
    124°
    14'
          45"
        E
  




KCC

Cwa




Metar
ROIG 071300Z AUTO 31003KT 9999 //////TCU 27/26 Q1011








New Ishigaki Airport, also branded as Painushima Ishigaki Airport, is a regional airport located in the Shiraho district of Ishigaki, Okinawa Prefecture, Japan.
Climatology
Humid Sub-tropical climate (Köppen climate classification Cwa)






Runways






Designator
Length
Width
Surface
Rops




4/22          
1500          
46          
ASP          
Yes/Yes          













Airport map






Aerial View