DAUL








Laghouat Airport





Airport

ICAO code


  DAUL





IATA Code

LOO




Summary

ICAO Region

AFI



ICAO Territory





Algeria






 








Location

, Laghouat




Serving

Laghouat



Elevation

2510 ft



Coordinates



    33°
    45'
          52"
        N
  
      ,
    
    2°
    55'
          42"
        E
  





Metar
DAUL 071100Z 24018KT 4000 DRSA NSC 32/16 Q1019









Runways






Designator
Length
Width
Surface
Rops




16R/34L          
3803          
45          
ASP          
No/No          


16L/34R          
3806          
45          
ASP          
No/No          













Airport map






Aerial View