KMHV








Mojave Air and Space Port





Airport

ICAO code


  KMHV





IATA Code

MHV




Summary

ICAO Region

NAM



ICAO Territory





United States






 








Location

Mojave, California




Serving

Mojave



Elevation

2801 ft



Coordinates



    35°
    3'
          22"
        N
  
      ,
    
    118°
    9'
          28"
        W
  




KCC

BWk




Metar
KMHV 070140Z AUTO 30018G24KT 10SM CLR 34/06 A2997 RMK AO2








The Mojave Air and Space Port at Rutan Field, also known as the Civilian Aerospace Test Centre, is located in Mojave, California, USA.






Runways






Designator
Length
Width
Surface
Rops




4/22          
1446          
15          
ASP          
Yes/Yes          


8/26          
2149          
30          
ASP          
Yes/Yes          


12/30          
2896          
61          
PEM          
Yes/Yes          













Airport map






Aerial View