KSUN








Friedman Memorial Airport





Airport

ICAO code


  KSUN






Summary

ICAO Region

NAM



ICAO Territory





United States






 








Location

Hailey, Idaho




Serving

Hailey



Elevation

5318 ft



Coordinates



    43°
    30'
          23"
        N
  
      ,
    
    114°
    18'
          2"
        W
  




KCC

BSk



Airport CFIT

Altimeter Temperature Error Correction



Airport RE

Hot and High Operations




Metar
KSUN 071355Z 31015KT 10SM CLR 12/01 A3027








Friedman Memorial Airport is a city-owned public-use airport located 1 nm southeast of the central business district of Hailey, a city in Blaine County, Idaho, USA.






Runways






Designator
Length
Width
Surface
Rops




13/31          
2119          
30          
ASP          
Yes/Yes          













Airport map






Aerial View