LRIA








Iaşi Airport





Airport

ICAO code


  LRIA





IATA Code

IAS




Summary

ICAO Region

EUR



ICAO Territory





Romania






 








Location

, Iasi




Serving

Iasi



Elevation

397 ft



Coordinates



    47°
    10'
          43"
        N
  
      ,
    
    27°
    37'
          14"
        E
  





Metar
LRIA 071200Z 09009KT 050V110 CAVOK 27/05 Q1022









Runways






Designator
Length
Width
Surface
Rops




15/33          
1780          
30          
CON          
No/No          













Airport map






Aerial View