WAOO








Banjarmasin/Syamsudin Noor Airport





Airport

ICAO code


  WAOO





IATA Code

BDJ




Summary

ICAO Region

APAC



ICAO Territory





Indonesia






 








Location

Banjarbaru, Kalimantan Selatan




Serving

Banjarmasin



Elevation

66 ft



Coordinates



    3°
    26'
          32"
        S
  
      ,
    
    114°
    45'
          45"
        E
  





Metar
WAOO 071400Z 10009KT 9999 FEW020 28/23 Q1011 NOSIG

















Airport map






Aerial View