KAEX








Alexandria/Louisiana





Airport

ICAO code


  KAEX





IATA Code

AEX




Summary

ICAO Region

NAM



ICAO Territory





United States






 








Location

Rapides Parish , Louisiana




Serving

Alexandria



Elevation

88 ft



Coordinates



    31°
    19'
          38"
        N
  
      ,
    
    92°
    32'
          54"
        W
  




KCC

Cfa




Metar
KAEX 071434Z 04008KT 7SM SCT012 23/19 A2998 RMK AO2 T02280194








Description
Alexandria International Airport is a public use airport located 4 nm west of the central business district of Alexandria, in Rapides Parish, Louisiana, United States.














Airport map






Aerial View