ESST








Torsby Airport





Airport

ICAO code


  ESST





IATA Code

TYF




Summary

ICAO Region

EUR



ICAO Territory





Sweden






 








Location

Torsby, Värmland County




Serving

Torsby



Elevation

394 ft



Coordinates



    60°
    9'
          26"
        N
  
      ,
    
    12°
    59'
          28"
        E
  




KCC

Dfc




Metar
ESST 071220Z AUTO 16003KT 100V210 9999 NCD 24/16 Q1021








Description
Airport to the north of Torsby in western Sweden.
Climatology
Subarctic climate (Köppen climate classification Dfc) - long, usually very cold winters, and short, cool to mild summers






Runways






Designator
Length
Width
Surface
Rops




16/34          
1591          
29          
ASP          
No/No          













Airport map






Aerial View








Airport accidents



JS32, Torsby Sweden, 2014