PASD








Sand Point Airport





Airport

ICAO code


  PASD





IATA Code

SDP




Summary

ICAO Region

NAM



ICAO Territory





Alaska






 








Location

, Alaska




Serving

Sand Point



Elevation

21 ft



Coordinates



    55°
    18'
          54"
        N
  
      ,
    
    160°
    31'
          23"
        W
  





Metar
PASD 071229Z AUTO 33011KT 10SM SCT018 09/07 A3010 RMK AO2 PNO $









Runways






Designator
Length
Width
Surface
Rops




13/31          
1219          
46          
ASP          
Yes/Yes          













Airport map






Aerial View