DNKA








Kaduna International Airport





Airport

ICAO code


  DNKA





IATA Code

KAD




Summary

ICAO Region

AFI



ICAO Territory





Nigeria






 








Location

Afaka, Kaduna State




Serving

Kaduna



Elevation

2073 ft



Coordinates



    10°
    41'
          45"
        N
  
      ,
    
    7°
    19'
          15"
        E
  




KCC

Aw




Metar
DNKA 071200Z 15004KT 9999 BKN011 27/22 Q1017 NOSIG








Kaduna Airport is an airport serving Kaduna, the capital of Kaduna State in Nigeria. The airport is around 14nm northwest of the city.
Climatology
Tropical savanna climate (Köppen climate classification Aw)






Runways






Designator
Length
Width
Surface
Rops




5/23          
3000          
60          
ASP          
No/No          













Airport map






Aerial View