EGCK








Caernarfon Airport





Airport

ICAO code


  EGCK






Summary

ICAO Region

EUR



ICAO Territory





United Kingdom






 








Location

,




Serving

Caernarfon



Elevation

1 ft



Coordinates



    53°
    6'
          15"
        N
  
      ,
    
    4°
    20'
          25"
        W
  





Metar
EGCK 071420Z 25006KT 9999 FEW014 BKN027 20/17 Q1010









Runways






Designator
Length
Width
Surface
Rops




8/26          
880          
23          
ASP          
No/No          


2/20          
1077          
23          
ASP          
No/No          













Airport map






Aerial View