SVBM








Jacinto Lara International Airport





Airport

ICAO code


  SVBM





IATA Code

BRM




Summary

ICAO Region

CARSAM



ICAO Territory





Venezuela






 








Location

Barquisimeto, Lara




Serving

Barquisimeto



Elevation

2042 ft



Coordinates



    10°
    2'
          34"
        N
  
      ,
    
    69°
    21'
          30"
        W
  




KCC

BSh




Metar
SVBM 071503Z AUTO 09010KT NCD 26/20 Q1014








Jacinto Lara International Airport is an airport in Barquisimeto, Venezuela. It serves the city of Barquisimeto and others such as Acarigua, Yaritagua, and Carora, the main cities in the west-central area of Venezuela.
Climatology
Hot semi-arid climate (Köppen climate classification BSh)






Runways






Designator
Length
Width
Surface
Rops




9/27          
2850          
45          
ASP          
No/No          













Airport map






Aerial View