EHGR








Gilze-Rijen Air Base





Airport

ICAO code


  EHGR





IATA Code

GLZ




Summary

ICAO Region

EUR



ICAO Territory





Netherlands






 








Location

Gilze en Rijen, Noord-Brabant




Serving

Gilze en Rijen



Elevation

49 ft



Coordinates



    51°
    34'
          3"
        N
  
      ,
    
    4°
    55'
          55"
        E
  




KCC

Cfb




Metar
EHGR 071425Z AUTO 14007KT 070V170 9999 NCD 27/17 Q1009 BLU








Gilze-Rijen Air Base is a military airbase in the Netherlands located between the cities of Breda and Tilburg, in the Noord-Brabant province. It is mainly, but not exclusively used as a base for attack helicopters.
Climatology
Temperate Marine climate/Oceanic climate (Köppen climate classification Cfb). Moderately cool summer and comparatively warm winter with a temperature range of only 14°C. Prevailing south-westerly winds from the Atlantic Ocean.






Runways






Designator
Length
Width
Surface
Rops




2/20          
1996          
30          
ASP          
No/No          


10/28          
2779          
45          
ASP          
No/No          













Airport map






Aerial View