SCRM








Teniente Rodolfo Marsh Martin Base





Airport

ICAO code


  SCRM





IATA Code

TNM




Summary

ICAO Region

CARSAM



ICAO Territory





United Kingdom






 








Location

King George Island, Antartica commune




Serving

Isla Rey Jorge



Elevation

147 ft



Coordinates



    62°
    11'
          27"
        S
  
      ,
    
    58°
    59'
          12"
        W
  




KCC

EF




Metar
SCRM 071400Z 01016KT 3000 -FZDZ BR BKN004 OVC008 M01/M02 Q0971 NOSIG








Chilean administered airport on King George Island, Antarctica.
Climatology
Polar climate (Köppen climate classification EF)






Runways






Designator
Length
Width
Surface
Rops




11/29          
1292          
38          
GRE          
No/No          













Airport map






Aerial View