LTAF








Adana Şakirpaşa Airport





Airport

ICAO code


  LTAF





IATA Code

ADA




Summary

ICAO Region

EUR



ICAO Territory





Turkey






 








Location

Adana, Adana




Serving

Adana



Elevation

65 ft



Coordinates



    36°
    58'
          57"
        N
  
      ,
    
    35°
    16'
          59"
        E
  




KCC

Csa



Airport GND

Foreign Object Debris




Metar
LTAF 071050Z 21010KT 190V250 CAVOK 35/24 Q1007 NOSIG








Description
Military/Civil airport serving southern Turkey.
Climatology
Dry-summer subtropical ”Mediterranean" climate (Köppen climate classification Csa) - characterized by hot, dry summers and mild winters. During the summer, subtropical high pressure cells dominate, making rainfall unlikely except for the occasional thunderstorm. In the winter, periodic storms bring rain.






Runways






Designator
Length
Width
Surface
Rops




5/23          
2750          
45          
ASP          
Yes/Yes          













Airport map






Aerial View