WMKK








Kuala Lumpur International Airport





Airport

ICAO code


  WMKK





IATA Code

KUL




Summary

ICAO Region

APAC



ICAO Territory





Malaysia






 








Location

Sepang, Selangor




Serving

Kuala Lumpur



Elevation

71 ft



Coordinates



    2°
    45'
          39"
        N
  
      ,
    
    101°
    42'
          42"
        E
  




KCC

Af



Airport LOS

Parallel Runway Operation




Metar
WMKK 071430Z 00000KT 8000 -RA FEW010 FEW017CB SCT030 27/26 Q1011 NOSIG








Kuala Lumpur International Airport (commonly known as KLIA) is one of Southeast Asia's major aviation hubs. It is also Malaysia's main international airport. It is situated in the Sepang district, in the south of the state of Selangor, about 50 km from the capital city, Kuala Lumpur.














Airport map






Aerial View