ROMD








Minami-Daito Airport





Airport

ICAO code


  ROMD





IATA Code

MMD




Summary

ICAO Region

APAC



ICAO Territory





Japan






 








Location

Minamidaito, Okinawa Prefecture




Serving

Minamidaito



Elevation

159 ft



Coordinates



    25°
    50'
          46"
        N
  
      ,
    
    131°
    15'
          56"
        E
  




KCC

Cfa




Metar
ROMD 071300Z AUTO 27003KT 9999 BKN021 OVC190 27/26 Q1011








Minamidaito Airport is an airport in Minamidaitō, Shimajiri District, Okinawa Prefecture, Japan.
Climatology
Humid Sub-tropical climate (Köppen climate classification Cfa)






Runways






Designator
Length
Width
Surface
Rops




2/20          
1500          
45          
ASP          
No/No          













Airport map






Aerial View