RCFN








Taitung Airport





Airport

ICAO code


  RCFN





IATA Code

TTT




Summary

ICAO Region

APAC



ICAO Territory





China






 








Location

,




Serving

Fengnin



Elevation

143 ft



Coordinates



    22°
    45'
          18"
        N
  
      ,
    
    121°
    6'
          6"
        E
  





Metar
RCFN 071300Z 32005KT 250V030 9999 VCSH FEW015 BKN030 BKN060 27/25 Q1012 NOSIG RMK A2991









Runways






Designator
Length
Width
Surface
Rops




4/22          
2438          
45          
PEM          
Yes/Yes          













Airport map






Aerial View