UASP








Pavlodar Airport





Airport

ICAO code


  UASP





IATA Code

PWQ




Summary

ICAO Region

APAC



ICAO Territory





Kazakhstan






 








Location

Pavlodar,




Serving

Pavlodar



Elevation

410 ft



Coordinates



    52°
    11'
          43"
        N
  
      ,
    
    77°
    4'
          23"
        E
  




KCC

BSk



Airport BS

Bird Strike



Airport CFIT

Altimeter Temperature Error Correction




Metar
UASP 071400Z 19003MPS 9999 SCT049 12/07 Q1017 NOSIG RMK QFE752/1002








Description
Regional airport serving the city of Pavlodar.
Climatology
Cold Semi-arid climate (Köppen climate classification BSk). - Hot, sometimes extremely hot summers and cold, sometimes very cold winters. Some snowfall during the winter. Areas featuring cold semi-arid climates are sometimes subject to major temperature swings during a 24 hour period.






Runways






Designator
Length
Width
Surface
Rops




3/21          
2500          
45          
CON          
No/No          













Airport map






Aerial View