TXKF








Bermuda/L.F. Wade International Airport





Airport

ICAO code


  TXKF





IATA Code

BDA




Summary

ICAO Region

NAT



ICAO Territory





Bermuda






 








Location

St. George&#039;s, Bermuda




Serving

Hamilton



Elevation

16 ft



Coordinates



    32°
    21'
          50"
        N
  
      ,
    
    64°
    40'
          43"
        W
  




KCC

Cfa



Airport RE

Crosswind Landings




Metar
TXKF 071355Z 20011KT 9999 SCT014 SCT130 28/25 Q1016








International airport serving island of Bermuda. It is located in the parish of St. George's and is 16 km east of Bermuda's capital city of Hamilton.
Climatology
Humid “subtropical” climate (Köppen climate classification Cfa) - characterized by hot, humid summers and cool winters. Significant amounts of precipitation occur in all seasons in most areas. Winter rainfall (and sometimes snowfall) is associated with large storms that the westerlies steer from west to east. Most summer rainfall occurs during thunderstorms.






Runways






Designator
Length
Width
Surface
Rops




12/30          
2961          
46          
ASP          
Yes/Yes          













Airport map






Aerial View