KMDT








Harrisburg International Airport





Airport

ICAO code


  KMDT





IATA Code

MDT




Summary

ICAO Region

NAM



ICAO Territory





United States






 








Location

Middletown, Pennsylvania




Serving

Harrisburg



Elevation

310 ft



Coordinates



    40°
    11'
          51"
        N
  
      ,
    
    76°
    45'
          49"
        W
  




KCC

Dfa



Airport BS

Bird Strike



Airport WX

Cumulonimbus




Metar
KMDT 071444Z 31012G24KT 1 3/4SM R13/5000VP6000FT +RA BR BKN015 BKN022 OVC038 18/16 A2986 RMK AO2 RAB09 P0007 T01780161








Harrisburg International Airport is a public use airport located 8 nm southeast of Harrisburg, a city in in Lower Swatara Township, Pennsylvania, USA.






Runways






Designator
Length
Width
Surface
Rops




13/31          
3048          
61          
ASP          
Yes/Yes          













Airport map






Aerial View