FACV








Calvinia Airport





Airport

ICAO code


  FACV






Summary

ICAO Region

AFI



ICAO Territory





South Africa






 








Location

, Northern Cape




Serving

Calvinia



Elevation

3250 ft



Coordinates



    31°
    30'
          1"
        S
  
      ,
    
    19°
    43'
          33"
        E
  





Metar
FACV 070855Z 09002KT CAVOK 18/M04 Q1023









Runways






Designator
Length
Width
Surface
Rops




9/27          
1250          
15          
ASP          
No/No          













Airport map






Aerial View