VAJB








Jabalpur Airport





Airport

ICAO code


  VAJB





IATA Code

JLR




Summary

ICAO Region

APAC



ICAO Territory





India






 








Location

Jabalpur, Madhya Pradesh




Serving

Jabalpur



Elevation

1624 ft



Coordinates



    23°
    10'
          40"
        N
  
      ,
    
    80°
    3'
          7"
        E
  





Metar
VAJB 071330Z 06003KT 4000 HZ SCT025 FEW030CB BKN090 29/25 Q1005 TEMPO 3000 -RA








Jabalpur Airport, also known as Dumna Airport, is 25 km east of Jabalpur, Madhya Pradesh, India.






Runways






Designator
Length
Width
Surface
Rops




6/24          
1988          
46          
ASP          
No/No          













Airport map






Aerial View