KOMA








Eppley Airfield





Airport

ICAO code


  KOMA





IATA Code

OMA




Summary

ICAO Region

NAM



ICAO Territory





United States






 








Location

Omaha, Nebraska




Serving

Omaha



Elevation

984 ft



Coordinates



    41°
    18'
          11"
        N
  
      ,
    
    95°
    53'
          45"
        W
  




KCC

Dfa



Airport LOS

Parallel Runway Operation




Metar
KOMA 071352Z 00000KT 10SM CLR 13/11 A3033 RMK AO2 SLP268 T01330106








Eppley Airfield, also known as Omaha Airport, is a public use airport located 3 nm northeast of the central business district of Omaha, in Douglas County, Nebraska, USA.






Runways






Designator
Length
Width
Surface
Rops




18/36          
2485          
46          
PEM          
Yes/Yes          


14L/32R          
2591          
46          
CON          
Yes/Yes          


14R/32L          
2896          
46          
PEM          
Yes/Yes          













Airport map






Aerial View