KTVC








Traverse City





Airport

ICAO code


  KTVC






Summary

ICAO Region

NAM



ICAO Territory





United States






 








Location

Traverse City, Grand Traverse County, Michigan,




Coordinates



    44°
    44'
          29"
        N
  
      ,
    
    85°
    34'
          56"
        W
  




KCC

Dfb




Metar
KTVC 071153Z 01010G18KT 10SM SCT036 BKN050 OVC060 11/06 A3013 RMK AO2 SLP205 60002 70005 T01110056 10122 20100 53005








Description
Cherry Capital Airport is a public airport located 3 km south of the central business district of Traverse City, in Grand Traverse County, Michigan, United States.
Climatology
Humid Continental climate (Köppen climate classification Dfb) - Variable weather patterns and a large seasonal temperature variance. Summers are often warm and humid with frequent thunderstorms and winters can be very cold with frequent snowfall and persistent snow cover.






Runways






Designator
Length
Width
Surface
Rops




5/23          
977          
23          
ASP          
No/No          


18/36          
1640          
46          
ASP          
Yes/Yes          


10/28          
1982          
46          
ASP          
Yes/Yes          













Airport map






Aerial View








Airport accidents



CRJ2, Traverse City MI USA, 2007