LTBR








Yenişehir Airport





Airport

ICAO code


  LTBR





IATA Code

YEI




Summary

ICAO Region

EUR



ICAO Territory





Turkey






 








Location

Yenişehir, Bursa,




Serving

Bursa



Elevation

764 ft



Coordinates



    40°
    15'
          28"
        N
  
      ,
    
    29°
    32'
          38"
        E
  





Metar
LTBR 071220Z 34008KT 300V030 9999 SCT035 BKN180 28/16 Q1014 NOSIG









Runways






Designator
Length
Width
Surface
Rops




07L/25R          
2993          
45          
CON          
Yes/Yes          


07R/25L          
2993          
30          
CON          
Yes/Yes          













Airport map






Aerial View