ZSNB








Ningbo Lishe International





Airport

ICAO code


  ZSNB






Summary

ICAO Region

APAC



ICAO Territory





China






 








Location

Ningbo, Yangtze River,




Coordinates



    29°
    49'
          36"
        N
  
      ,
    
    121°
    27'
          43"
        E
  





Metar
ZSNB 071300Z 12004MPS CAVOK 29/25 Q1013 NOSIG








Ningbo Lishe International Airport (IATA: NGB) is the principal airport serving Ningbo, a major city in the Yangtze River Delta region.














Airport map






Aerial View