OPSK








Sukkur Airport





Airport

ICAO code


  OPSK





IATA Code

SKZ




Summary

ICAO Region

APAC



ICAO Territory





Pakistan






 








Location

Sukkur, Sindh




Serving

Sukkur



Elevation

196 ft



Coordinates



    27°
    43'
          23"
        N
  
      ,
    
    68°
    47'
          44"
        E
  




KCC

BWh




Metar
OPSK 060600Z 13004KT 7000 NSC 35/28 Q1003 NOSIG








Sukkur Airport is a domestic airport situated about 8 km away from the city centre of Sukkur in the Sukkur District in the Sindh province of Pakistan.
Climatology
Mild Desert Climate (Köppen climate classification BWh).






Runways






Designator
Length
Width
Surface
Rops




14/32          
2743          
30          
ASP          
Yes/Yes          













Airport map






Aerial View