SADP








El Palomar Airport





Airport

ICAO code


  SADP





IATA Code

EPA




Summary

ICAO Region

CARSAM



ICAO Territory





Argentina






 








Location

El Palomar, Buenos Aires




Serving

El Palomar



Elevation

59 ft



Coordinates



    34°
    36'
          36"
        S
  
      ,
    
    58°
    36'
          45"
        W
  




KCC

Cfa




Metar
SADP 071300Z VRB01KT CAVOK 18/10 Q1015








Military airport 18km west of Buenos Aires, Argentina.
Climatology
Humid subtropical climate (Köppen climate classification Cfa).






Runways






Designator
Length
Width
Surface
Rops




16/34          
2110          
50          
CON          
No/No          













Airport map






Aerial View