LESA








Salamanca Airport





Airport

ICAO code


  LESA





IATA Code

SLM




Summary

ICAO Region

EUR



ICAO Territory





Spain






 








Location

, Castilla y Leon




Serving

Salamanca



Elevation

2595 ft



Coordinates



    40°
    57'
          8"
        N
  
      ,
    
    5°
    30'
          7"
        W
  





Metar
LESA 071400Z 30009KT 240V340 9999 FEW047 23/08 Q1012









Runways






Designator
Length
Width
Surface
Rops




8/26          
2010          
122          
GRE          
No/No          


3/21          
2500          
60          
ASP          
No/No          













Airport map






Aerial View