LESB








Son Bonet Aerodrome





Airport

ICAO code


  LESB






Summary

ICAO Region

EUR



ICAO Territory





Spain






 








Location

Palma de Mallorca, Baleariac Islands,




Serving

Palma de Mallorca



Elevation

135 ft



Coordinates



    39°
    35'
          56"
        N
  
      ,
    
    2°
    42'
          10"
        E
  




KCC

Csa




Metar
LESB 071400Z AUTO 20016KT CAVOK 28/20 Q1010








Description
Son Bonet Aerodrome, primarily used for general and leisure aviation.
Climatology
Dry-summer subtropical ”Mediterranean" climate (Köppen climate classification Csa) - characterized by hot, dry summers and mild winters. During the summer, subtropical high pressure cells dominate, making rainfall unlikely except for the occasional thunderstorm. In the winter, periodic storms bring rain (snow at higher elevations).






Runways






Designator
Length
Width
Surface
Rops




6/24          
1000          
22          
ASP          
No/No          













Airport map






Aerial View








Airport accidents



P46T, vicinity Son Bonet Palma de Mallorca Spain, 2002