SVMT








José Tadeo Monagas International Airport





Airport

ICAO code


  SVMT





IATA Code

MUN




Summary

ICAO Region

CARSAM



ICAO Territory





Venezuela






 








Location

Maturin, Monagas




Serving

Maturin



Elevation

224 ft



Coordinates



    9°
    44'
          55"
        N
  
      ,
    
    63°
    9'
          15"
        W
  




KCC

Aw




Metar
SVMT 071503Z AUTO 21001KT NCD 30/30 Q1012








José Tadeo Monagas International Airport is an airport serving Maturín, the capital of the state of Monagas in Venezuela.
Climatology
Tropical savanna climate (Köppen climate classification Aw)






Runways






Designator
Length
Width
Surface
Rops




6/24          
2100          
45          
ASP          
No/No          













Airport map






Aerial View