KALM








Alamogordo-White Sands Regional Airport





Airport

ICAO code


  KALM





IATA Code

ALM




Summary

ICAO Region

NAM



ICAO Territory





United States






 








Location

Alamogordo, New Mexico




Serving

Alamogordo



Elevation

4200 ft



Coordinates



    32°
    50'
          24"
        N
  
      ,
    
    105°
    59'
          26"
        W
  




KCC

BSk



Airport RE

Hot and High Operations




Metar
KALM 071435Z AUTO 00000KT 10SM CLR 22/10 A3032 RMK AO2








Description
Alamogordo–White Sands Regional Airport is a public use airport located 5 nm southwest of the central business district of Alamogordo, a city in Otero County, New Mexico.














Airport map






Aerial View