ZYHB








Harbin Taiping International Airport





Airport

ICAO code


  ZYHB





IATA Code

HRB




Summary

ICAO Region

APAC



ICAO Territory





China






 








Location

Harbin, Heilongjiang




Serving

Harbin



Elevation

457 ft



Coordinates



    45°
    37'
          24"
        N
  
      ,
    
    126°
    15'
          1"
        E
  




KCC

Dwb




Metar
ZYHB 071300Z 21004MPS CAVOK 20/15 Q1011 NOSIG








Description
Harbin Taiping International Airport is the international airport serving the city of and region around Harbin, Heilongjiang, China.
Climatology
Within the Köppen Climate Classification System, (Köppen climate classification Dwb) moist continental mid-latitude climates have warm to cool summers and cold winters. The location of this Köppen climate type is pole ward of the C climates. The average temperature of the warmest month is greater than 10°C (50°F), while the coldest month is less than -3°C (27°F). Winters are severe with snowstorms, strong winds, and bitter cold from Continental Polar or Arctic air masses. Average temperature of the coldest month is -3°C (27°F) or lower. Average temperature of the warmest month is greater than 10°C (50°F). Precipitation is equally spread across the year.














Airport map






Aerial View