KRNO








Reno-Tahoe International Airport





Airport

ICAO code


  KRNO






Summary

ICAO Region

NAM



ICAO Territory





United States






 








Location

Reno, Nevada,




Coordinates



    39°
    30'
          21"
        N
  
      ,
    
    119°
    46'
          30"
        W
  




KCC

BSh



Airport LOS

Parallel Runway Operation



Airport RE

Hot and High Operations



Airport WX

Cumulonimbus




Metar
KRNO 071355Z 00000KT 10SM FEW090 FEW150 SCT250 15/06 A3015 RMK AO2 SLP160 T01500056








Description
Reno–Tahoe International Airport is a joint use civil-military (ANG) airport located 6 km) southeast of downtown Reno, in Washoe County, Nevada.
Climatology
Hot, semi-arid/Steppe climate (Köppen climate classification BSh) - hot, sometimes extremely hot summers and mild to warm winters, with low annual precipitation. Severe thunderstorms are common






Runways






Designator
Length
Width
Surface
Rops




7/25          
1860          
46          
CON          
Yes/Yes          


16L/34R          
2743          
46          
CON          
Yes/Yes          


16R/34L          
3353          
46          
CON          
Yes/Yes          













Airport map






Aerial View