LFAT








Le Touquet-Côte d'Opale Airport





Airport

ICAO code


  LFAT





IATA Code

LTQ




Summary

ICAO Region

EUR



ICAO Territory





France






 








Location

, Nord-Pas-de-Calais




Serving

Le Tourquet



Elevation

36 ft



Coordinates



    50°
    31'
          3"
        N
  
      ,
    
    1°
    37'
          14"
        E
  





Metar
LFAT 071400Z AUTO 12007KT 9999 -RA BKN023 BKN034 BKN047 21/18 Q1008 NOSIG









Runways






Designator
Length
Width
Surface
Rops




6/24          
0          
0          
UNK          
No/No          


14/32          
1850          
40          
ASP          
No/No          













Airport map






Aerial View