FAUP








Pierre Van Ryneveld Airport





Airport

ICAO code


  FAUP





IATA Code

UTN




Summary

ICAO Region

AFI



ICAO Territory





South Africa






 








Location

, Northern Cape




Serving

Upington



Elevation

2782 ft



Coordinates



    28°
    23'
          57"
        S
  
      ,
    
    21°
    15'
          37"
        E
  





Metar
FAUP 071200Z 29003KT CAVOK 25/M03 Q1019 NOSIG









Runways






Designator
Length
Width
Surface
Rops




8/26          
834          
30          
COM          
Yes/Yes          


17/35          
4900          
60          
ASP          
Yes/Yes          













Airport map






Aerial View