KLGA








LaGuardia Airport





Airport

ICAO code


  KLGA





IATA Code

LGA




Summary

ICAO Region

NAM



ICAO Territory





United States






 








Location

East Elmhurst, New York




Serving

New York



Elevation

21 ft



Coordinates



    40°
    46'
          38"
        N
  
      ,
    
    73°
    52'
          21"
        W
  




KCC

Cfa



Airport BS

Bird Strike



Airport RE

Engineered Materials Arresting System




Metar
KLGA 071210Z 13008KT 10SM BKN015 BKN026 OVC035 21/17 A2987 RMK AO2 T02060172 $








Airport serving the city of New York, NY, USA.






Runways






Designator
Length
Width
Surface
Rops




4/22          
2134          
46          
ASP          
Yes/Yes          


13/31          
2134          
46          
ASP          
Yes/Yes          













Airport map






Aerial View








Airport accidents



B737, New York La Guardia USA, 2016
MD88, New York La Guardia USA, 2015
B737, New York La Guardia USA, 2013
A320, vicinity LaGuardia New York USA, 2009
B738 / CRJ1, New York La Guardia USA, 2007
F100, vicinity La Guardia NY USA, 2003