FJDG








Naval Support Facility Diego Garcia





Airport

ICAO code


  FJDG






Summary

ICAO Region

APAC



ICAO Territory





British Indian Ocean Territory






 








Location

Diego Garcia, Chagos Archipelagos




Serving

Diego Garcia



Elevation

13 ft



Coordinates



    7°
    18'
          48"
        S
  
      ,
    
    72°
    24'
          40"
        E
  




KCC

Af




Metar
FJDG 071355Z 13010KT 9999 FEW020 SCT080 BKN220 28/24 A2994 RMK SLP135 T02840244








US military airport on the island of Diego Garcia, British Indian Ocean Territories.
Climatology
Tropical Rainforest climate (Köppen climate classification Af)






Runways






Designator
Length
Width
Surface
Rops




13/31          
3659          
61          
CON          
Yes/Yes          













Airport map






Aerial View