DNIM








Sam Mbakwe International Cargo Airport





Airport

ICAO code


  DNIM





IATA Code

QOW




Summary

ICAO Region

AFI



ICAO Territory





Nigeria






 








Location

Isuobiangwu, Imo State




Serving

Owerri



Elevation

374 ft



Coordinates



    5°
    25'
          35"
        N
  
      ,
    
    7°
    12'
          20"
        E
  




KCC

Am




Metar
DNIM 071100Z 18003KT 8000 DZ BKN010 FEW019CB 27/25 Q1015








Sam Mbakwe International Cargo Airport (IATA: QOW, ICAO: DNIM), also known as Imo State Airport, serves Owerri, the capital city of Imo State in southeastern Nigeria.
Climatology
Tropical monsoon climate (Köppen climate classification Am)






Runways






Designator
Length
Width
Surface
Rops




17/35          
2700          
45          
ASP          
No/No          













Airport map






Aerial View