KHND








Henderson Executive Airport





Airport

ICAO code


  KHND





IATA Code

HSH




Summary

ICAO Region

NAM



ICAO Territory





United States






 








Location

Henderson, Nevada




Serving

Las Vegas



Elevation

2492 ft



Coordinates



    35°
    58'
          38"
        N
  
      ,
    
    115°
    8'
          24"
        W
  




KCC

BWh



Airport LOS

Parallel Runway Operation




Metar
KHND 071356Z 17005KT 10SM CLR 24/M03 A3001 RMK AO2 SLP148 T02391028








Henderson Executive Airport is a public airport located 12 nm south of the central business district of Las Vegas, in Clark County, Nevada, USA.














Airport map






Aerial View