EDDG








Münster Osnabrück Airport





Airport

ICAO code


  EDDG





IATA Code

FMO




Summary

ICAO Region

EUR



ICAO Territory





Germany






 








Location

, Nordrhein-Westfalen




Serving

Munster



Elevation

160 ft



Coordinates



    52°
    8'
          5"
        N
  
      ,
    
    7°
    41'
          5"
        E
  





Metar
EDDG 071420Z AUTO 11004KT 060V210 CAVOK 28/16 Q1011 NOSIG









Runways






Designator
Length
Width
Surface
Rops




7/25          
2170          
45          
ASP          
Yes/Yes          













Airport map






Aerial View








Airport accidents



JS32, Münster/Osnabrück Germany, 2019