KDEC








Decatur Airport





Airport

ICAO code


  KDEC





IATA Code

DEC




Summary

ICAO Region

NAM



ICAO Territory





United States






 








Location

Decatur, Illinois




Serving

Decatur



Elevation

682 ft



Coordinates



    39°
    50'
          2"
        N
  
      ,
    
    88°
    51'
          33"
        W
  




KCC

Dfa




Metar
KDEC 071354Z 36010KT 10SM CLR 15/09 A3023 RMK AO2 SLP234 T01500089








Description
Decatur Airport is a public use airport located 5 nm east of the central business district of Decatur, a city in Macon County, Illinois.














Airport map






Aerial View