LGIR








Iraklion/Nikos Kazantzakis





Airport

ICAO code


  LGIR





IATA Code

HER




Summary

ICAO Region

EUR



ICAO Territory





Greece






 








Location

Nea Alikarnassos, Crete




Serving

Heraklion



Elevation

115 ft



Coordinates



    35°
    20'
          23"
        N
  
      ,
    
    25°
    10'
          49"
        E
  




KCC

Csa




Metar
LGIR 071250Z 33010KT CAVOK 31/23 Q1013 NOSIG








Description
International airport serving Iraklion on the island of Crete.
Climatology
Mediterranean climate (Köppen climate classification Csa) - Hot, dry summer and a mild wet winter.






Runways






Designator
Length
Width
Surface
Rops




18/36          
780          
40          
ASP          
No/No          


12/30          
1566          
50          
ASP          
Yes/Yes          


9/27          
2682          
45          
ASP          
Yes/Yes          













Airport map






Aerial View