OPFA








Faisalabad International Airport





Airport

ICAO code


  OPFA





IATA Code

LYP




Summary

ICAO Region

APAC



ICAO Territory





Pakistan






 








Location

Faisalabad, Punjab




Serving

Faisalabad



Elevation

607 ft



Coordinates



    31°
    21'
          47"
        N
  
      ,
    
    72°
    59'
          15"
        E
  




KCC

BWh




Metar
OPFA 071155Z 31004KT 5000 FU SCT100 34/26 Q1003 NOSIG








International airport 10km southwest of the city centre of Faisalabad, Punjab, Pakistan.
Climatology
Mild Desert Climate (Köppen climate classification BWh).
Arid climate with low average precipitation levels, the bulk of which occurs during the July-August monsoon season. Winters are mild & dry, while the summers are hot & humid.






Runways






Designator
Length
Width
Surface
Rops




3/21          
2826          
46          
CON          
Yes/Yes          













Airport map






Aerial View