PAGL








Golovin Airport





Airport

ICAO code


  PAGL





IATA Code

GLV




Summary

ICAO Region

NAM



ICAO Territory





Alaska






 








Location

, Alaska




Serving

Golovin



Elevation

59 ft



Coordinates



    64°
    33'
          2"
        N
  
      ,
    
    163°
    0'
          26"
        W
  





Metar
PAGL 071256Z AUTO 13009KT 10SM OVC020 08/06 A2988 RMK AO2 SLP112 T00780061









Runways






Designator
Length
Width
Surface
Rops




2/20          
1219          
23          
GRAVEL-G          
No/No          













Airport map






Aerial View