KLUF








Luke Air Force Base





Airport

ICAO code


  KLUF





IATA Code

LUF




Summary

ICAO Region

NAM



ICAO Territory





United States






 








Location

Glendale, Arizona




Serving

Glendale



Elevation

1085 ft



Coordinates



    33°
    32'
          10"
        N
  
      ,
    
    112°
    22'
          55"
        W
  




KCC

BWh



Airport LOS

Parallel Runway Operation




Metar
KLUF 071355Z AUTO 02005KT 10SM FEW160 33/12 A2994 RMK AO2 SLP120 T03290119 $








Luke Air Force Base is a United States Air Force base located in Maricopa County, Arizona approximately 6 nm west of the central business district of Glendale and about 13 nm west of Phoenix.






Runways






Designator
Length
Width
Surface
Rops




03R/21L          
3019          
46          
CON          
No/No          


03L/21R          
3052          
46          
ASP          
No/No          













Airport map






Aerial View