EGPD








Aberdeen Dyce Airport





Airport

ICAO code


  EGPD





IATA Code

ABZ




Summary

ICAO Region

EUR



ICAO Territory





United Kingdom






 








Location

Dyce, Scotland




Serving

Aberdeen



Elevation

215 ft



Coordinates



    57°
    12'
          1"
        N
  
      ,
    
    2°
    12'
          13"
        W
  




KCC

Cfb




Metar
EGPD 071420Z AUTO 08004KT 9999 SCT012 19/17 Q1014 NOSIG








Domestic and international airport serving the City of Aberdeen and eastern Scotland and an important base for helicopters serving the offshore oil and gas industry.






Runways






Designator
Length
Width
Surface
Rops




18/36          
260          
23          
ASP          
Yes/Yes          


5/23          
577          
46          
CON          
Yes/Yes          


14/32          
660          
23          
ASP          
Yes/Yes          


16/34          
1829          
46          
ASP          
Yes/Yes          













Airport map






Aerial View








Airport accidents



B738, vicinity Aberdeen UK, 2021
SW4, vicinity Aberdeen UK, 2002
B734, Aberdeen UK, 2005
AS32 / B734, Aberdeen UK, 2000