ZBSJ








Shijiazhuang Zhengding International





Airport

ICAO code


  ZBSJ






Summary

ICAO Region

APAC



ICAO Territory





China






 








Location

Shijiazhuang, Hebei, Hebei




Serving

Shijiazhuang



Coordinates



    38°
    16'
          51"
        N
  
      ,
    
    114°
    41'
          48"
        E
  




KCC

Cfa



Airport WX

Sand Storm




Metar
ZBSJ 071300Z VRB01MPS CAVOK 22/20 Q1016 NOSIG








Description
Shijiazhuang Zhengding International Airport is an airport serving Shijiazhuang, the capital of Hebei Province, China.
Climatology
WiHumid subtropical climate (Köppen climate classification Cfa.) Hot muggy summers with frequent thunderstorms. Winters are mild and precipitation during this season comes from mid-latitude cyclones. This climate type is quite common on the east coasts of continents.














Airport map






Aerial View