KCKB








North Central West Virginia Airport





Airport

ICAO code


  KCKB






Summary

ICAO Region

NAM



ICAO Territory





United States






 








Location

Clarksburg, West Virginia,




Coordinates



    39°
    17'
          47"
        N
  
      ,
    
    80°
    13'
          41"
        W
  




KCC

Cfa



Airport WX

Cumulonimbus




Metar
KCKB 071353Z 34009KT 10SM FEW020 17/12 A3001 RMK AO2 SLP150 T01720117








Description
North Central West Virginia Airport is a joint use public and military airport located 2 km northeast of the central business district of Bridgeport, a city in Harrison County, West Virginia.
Climatology
Humid “subtropical” climate (Köppen climate classification Cfa) - characterized by hot, humid summers and cool winters. Significant amounts of precipitation occur in all seasons in most areas. Winter rainfall (and sometimes snowfall) is associated with large storms that the westerlies steer from west to east. Most summer rainfall occurs during thunderstorms.














Airport map






Aerial View