KABE








Lehigh Valley International Airport





Airport

ICAO code


  KABE





IATA Code

ABE




Summary

ICAO Region

NAM



ICAO Territory





United States






 








Location

Hanover Township, Pennsylvania




Serving

Allentown



Elevation

393 ft



Coordinates



    40°
    39'
          6"
        N
  
      ,
    
    75°
    26'
          35"
        W
  




KCC

Dfa




Metar
KABE 071251Z 17006KT 10SM BKN017 BKN029 OVC050 20/17 A2985 RMK AO2 SLP105 T02000172








Lehigh Valley, formerly Allentown-Bethlehem-Easton International Airport, is a public airport in Hanover Township, Lehigh County, Pennsylvania, USA.
 














Airport map






Aerial View








Airport accidents



CRJ7 / C172, Allentown PA USA, 2008