ESGT








Trollhättan–Vänersborg Airport





Airport

ICAO code


  ESGT





IATA Code

THN




Summary

ICAO Region

EUR



ICAO Territory





Sweden






 








Location

Trollhättan, Västra Götaland County




Serving

Trollhättan



Elevation

137 ft



Coordinates



    58°
    19'
          27"
        N
  
      ,
    
    12°
    20'
          11"
        E
  




KCC

Dfb




Metar
ESGT 071150Z AUTO 01012KT 9999 NCD 20/16 Q1019








Trollhättan-Vänersborg Airport (IATA: THN, ICAO: ESGT) is a small regional airport situated outside Trollhättan, Sweden.
Climatology
Humid continental climate (Köppen climate classification Dfb)






Runways






Designator
Length
Width
Surface
Rops




15/33          
1710          
30          
ASP          
Yes/Yes          













Airport map






Aerial View








Airport accidents



AT72, Trollhättan Sweden, 2018