LPCS








Cascais Municipal Aerodrome





Airport

ICAO code


  LPCS





IATA Code

CAT




Summary

ICAO Region

EUR



ICAO Territory





Portugal






 








Location

Tires, Greater Lisbon




Serving

Cascais



Elevation

326 ft



Coordinates



    38°
    43'
          32"
        N
  
      ,
    
    9°
    21'
          19"
        W
  




KCC

Csb




Metar
LPCS 071300Z 22011KT 9999 FEW018 22/13 Q1013








Lisbon Cascais-Tejo Regional Airport is a regional airport, situated near the village of Tires, in the civil parish of São Domingos de Rana, in the Portuguese municipality of Cascais.
Climatology
Temperate mediterranean climate (Köppen climate classification Csb)






Runways






Designator
Length
Width
Surface
Rops




17/35          
1190          
30          
ASP          
No/No          













Airport map






Aerial View