EDVK








Kassel-Calden Airport





Airport

ICAO code


  EDVK






Summary

ICAO Region

EUR



ICAO Territory





Germany






 








Location

Kassel, Germany,




Coordinates



    51°
    25'
          2"
        N
  
      ,
    
    9°
    23'
          6"
        E
  




KCC

Cfb



Airport WX

Fog




Metar
EDVK 071350Z 11005KT 070V170 CAVOK 28/16 Q1012








Description
Located 16.7 Km northwest of the German city of Kassel, the airport is home to a flying school.
Climatology
Temperate Marine climate/Oceanic climate (Köppen climate classification Cfb). Moderately cool summer and comparatively warm winter with a temperature range of only 14°C. Prevailing south-westerly winds from the Atlantic Ocean.






Runways






Designator
Length
Width
Surface
Rops




04L/22R          
700          
30          
GRS          
No/No          


4/22          
1500          
30          
ASP          
No/No          













Airport map






Aerial View








Airport accidents



AN26, Kassel Germany, 2007