RJDC








Yamaguchi Ube Airport





Airport

ICAO code


  RJDC





IATA Code

UBJ




Summary

ICAO Region

APAC



ICAO Territory





Japan






 








Location

Ube, Chūgoku




Serving

Ube



Elevation

15 ft



Coordinates



    33°
    55'
          59"
        N
  
      ,
    
    131°
    16'
          30"
        E
  




KCC

Cfa




Metar
RJDC 071300Z AUTO 02004KT 9999 NCD 28/23 Q1014








Domestic airport serving city of Ube, Japan.
Climatology
Humid “subtropical” climate (Köppen climate classification Cfa) - characterized by hot, humid summers and cool winters. Significant amounts of precipitation occur in all seasons in most areas. Winter rainfall (and sometimes snowfall) is associated with large storms that the westerlies steer from west to east. Most summer rainfall occurs during thunderstorms.






Runways






Designator
Length
Width
Surface
Rops




7/25          
2499          
46          
ASP          
Yes/Yes          













Airport map






Aerial View