RCSS








Taipei/Songshan





Airport

ICAO code


  RCSS






Summary

ICAO Region

APAC



ICAO Territory





China






 








Location

Songshan District, Taipei,




Coordinates



    25°
    4'
          10"
        N
  
      ,
    
    121°
    33'
          7"
        E
  




KCC

Cfa




Metar
RCSS 071300Z 15003KT 080V210 9999 FEW020 SCT035 BKN080 27/25 Q1012 NOSIG RMK A2989








Description
Taipei Songshan Airport is a midsize commercial airport and military airbase located in Songshan, Taipei, Taiwan. It is one of three Taiwanese airports with regular international flights.
Climatology
Humid “subtropical” climate (Köppen climate classification Cfa) - characterized by hot, humid summers and cool winters. Significant amounts of precipitation occur in all seasons in most areas. Winter rainfall is associated with large storms.






Runways






Designator
Length
Width
Surface
Rops




10/28          
2605          
60          
ASP          
Yes/Yes          













Airport map






Aerial View








Airport accidents



AT76, vicinity Taipei Songshan Taiwan, 2015