VYYY








Yangon International Airport





Airport

ICAO code


  VYYY





IATA Code

RGN




Summary

ICAO Region

APAC



ICAO Territory





Myanmar






 








Location

Mingaladon, Yangon Region




Serving

Yangon



Elevation

109 ft



Coordinates



    16°
    54'
          35"
        N
  
      ,
    
    96°
    8'
          6"
        E
  




KCC

Am




Metar
VYYY 071230Z 21002KT 7000 BKN016 FEW020CB OVC100 27/26 Q1005








Yangon International Airport, located in Mingaladon, 15 km north of downtown Yangon, Myanmar.
Climatology
Tropical Monsoon climate (Köppen climate classification Am)














Airport map






Aerial View








Airport accidents



A333, Yangon Myanmar, 2019
DH8D, Yangon Myanmar, 2019
A320 / AT76, Yangon Myanmar, 2017