EETN








Tallinn/Ulemiste





Airport

ICAO code


  EETN






Summary

ICAO Region

EUR



ICAO Territory





Estonia






 








Location

Tallinn,




Coordinates



    59°
    24'
          59"
        N
  
      ,
    
    24°
    47'
          57"
        E
  




KCC

Dfb




Metar
EETN 071220Z 22007KT 160V260 9999 FEW048 25/14 Q1025 NOSIG








Description
International airport serving capital city of Estonia.
Climatology
Humid Continental climate (Köppen climate classification Dfb) - Variable weather patterns and a large seasonal temperature variance. Summers are often warm and humid with frequent thunderstorms and winters can be very cold with frequent snowfall and persistent snow cover.






Runways






Designator
Length
Width
Surface
Rops




8/26          
3070          
45          
ASP          
Yes/Yes          













Airport map






Aerial View








Airport accidents



A320, vicinity Tallinn Estonia, 2018