KPLR








St. Clair County Airport





Airport

ICAO code


  KPLR






Summary

ICAO Region

NAM



ICAO Territory





United States






 








Location

Pell City, Alabama,




Coordinates



    33°
    33'
          32"
        N
  
      ,
    
    86°
    14'
          57"
        W
  




KCC

Cfa



Airport WX

Cumulonimbus




Metar
KPLR 071435Z AUTO 02006KT 9SM BKN018 24/20 A2997 RMK A01








Description
General aviation and reliever airport just east of Birmingham Alabama, USA.
Climatology
Humid “subtropical” climate (Köppen climate classification Cfa) - characterized by hot, humid summers and cool winters. Significant amounts of precipitation occur in all seasons in most areas. Winter rainfall (and sometimes snowfall) is associated with large storms that the westerlies steer from west to east. Most summer rainfall occurs during thunderstorms and occasional tropical storms (hurricanes).






Runways






Designator
Length
Width
Surface
Rops




3/21          
1524          
24          
ASPH-E          
No/No          













Airport map






Aerial View