MMMY








General Mariano Escobedo International Airport





Airport

ICAO code


  MMMY





IATA Code

MTY




Summary

ICAO Region

CARSAM



ICAO Territory





Mexico






 








Location

Apodaca, Nuevo Leon




Serving

Monterrey



Elevation

1278 ft



Coordinates



    25°
    46'
          43"
        N
  
      ,
    
    100°
    6'
          25"
        W
  




KCC

BSh




Metar
MMMY 071240Z 30007KT 7SM SCT030 BKN070 24/20 A3004 RMK 8/530 HZY








Monterrey International Airport, also known as General Mariano Escobedo International Airport, is an international airport located in Apodaca, Nuevo León, Mexico.
Climatology
Warm Semi-arid climate (Köppen climate classification BSh)






Runways






Designator
Length
Width
Surface
Rops




16/34          
1801          
30          
ASP          
Yes/Yes          


11/29          
3000          
45          
ASP          
Yes/Yes          













Airport map






Aerial View