KMHK








Manhattan Regional Airport





Airport

ICAO code


  KMHK





IATA Code

MHK




Summary

ICAO Region

NAM



ICAO Territory





United States






 








Location

Manhattan, Kansas




Serving

Manhattan



Elevation

1066 ft



Coordinates



    39°
    8'
          30"
        N
  
      ,
    
    96°
    40'
          8"
        W
  




KCC

Cfa



Airport CFIT

Altimeter Temperature Error Correction




Metar
KMHK 071352Z 04005KT 10SM OVC065 16/09 A3030 RMK AO2 SLP257 T01610094








Manhattan Regional Airport is a public use airport located 5 nm southwest of the central business district of Manhattan, in Riley County, Kansas, USA.
 






Runways






Designator
Length
Width
Surface
Rops




13/31          
1158          
30          
PEM          
Yes/Yes          


3/21          
2134          
46          
CON          
Yes/Yes          













Airport map






Aerial View