LCRA








RAF Akrotiri





Airport

ICAO code


  LCRA





IATA Code

AKT




Summary

ICAO Region

EUR



ICAO Territory





Cyprus






 








Location

RAF Akrotiri, Cyprus, UK Sovereign Base Area




Serving

Akrotiri



Elevation

76 ft



Coordinates



    34°
    35'
          24"
        N
  
      ,
    
    32°
    59'
          18"
        E
  




KCC

Csa




Metar
LCRA 071350Z 25016KT 9999 FEW030 BKN280 30/24 Q1007 NOSIG RMK BLU BLU








British military airport within the UK sovereign base area of Akrotiri, 6 nm south west of Limassol, on the island of Cyprus.
Climatology
Dry-summer subtropical ”Mediterranean" climate (Köppen climate classification Csa) -






Runways






Designator
Length
Width
Surface
Rops




10/28          
2744          
61          
ASP          
Yes/Yes          













Airport map






Aerial View