SCIE








Concepción/Carriel Sur International Airport





Airport

ICAO code


  SCIE





IATA Code

CCP




Summary

ICAO Region

CARSAM



ICAO Territory





Chile






 








Location

Concepción, Bío Bío




Serving

Concepción



Elevation

26 ft



Coordinates



    36°
    46'
          22"
        S
  
      ,
    
    73°
    3'
          47"
        W
  




KCC

Csb



Airport BS

Bird Strike




Metar
SCIE 071300Z 21004KT 190V250 CAVOK 07/05 Q1023








Description
Carriel Sur International Airport is located in Concepción, approximately 500 km southwest of Santiago.
Climatology
Oceanic/Dry-summer subtropical ”Mediterranean" climate (Köppen climate classification Csb) - characterized by warm, dry summers and mild winters.






Runways






Designator
Length
Width
Surface
Rops




2/20          
2298          
45          
ASP          
Yes/Yes          













Airport map






Aerial View