LIPR








Federico Fellini International Airport





Airport

ICAO code


  LIPR





IATA Code

RMI




Summary

ICAO Region

EUR



ICAO Territory





Italy






 








Location

Miramare, Emilia-Romagna




Serving

Rimini



Elevation

40 ft



Coordinates



    44°
    1'
          13"
        N
  
      ,
    
    12°
    36'
          45"
        E
  




KCC

Cfa




Metar
LIPR 071350Z 07008KT 040V100 CAVOK 28/21 Q1015








Federico Fellini International Airport, formerly Rimini Miramare Airport, is an international airport located at Miramare, 3.2 nm to southeast of Rimini, Italy.
Climatology
Humid subtropical climate (Köppen climate classification Cfa)






Runways






Designator
Length
Width
Surface
Rops




13/31          
2996          
45          
ASP          
Yes/Yes          













Airport map






Aerial View