KPNS








Pensacola International Airport





Airport

ICAO code


  KPNS






Summary

ICAO Region

NAM



ICAO Territory





United States






 








Location

Pensacola, Florida,




Coordinates



    30°
    28'
          20"
        N
  
      ,
    
    87°
    11'
          17"
        W
  




KCC

Cfa




Metar
KPNS 071353Z 02006KT 10SM OVC006 22/21 A2988 RMK AO2 RAE38 SLP121 P0000 T02220206








Description
Pensacola International Airport, formerly known as Pensacola Gulf Coast Regional Airport, is a public airport located 4.83 km northeast of the city of Pensacola in Escambia County, Florida.
Climatology
Humid “subtropical” climate (Köppen climate classification Cfa) - characterized by hot, humid summers and cool winters. Significant amounts of precipitation occur in all seasons in most areas. Winter rainfall (and sometimes snowfall) is associated with large storms that the westerlies steer from west to east. Most summer rainfall occurs during thunderstorms and occasional tropical storms (hurricanes).






Runways






Designator
Length
Width
Surface
Rops




8/26          
2134          
46          
ASP          
Yes/Yes          


17/35          
2135          
46          
ASP          
Yes/Yes          













Airport map






Aerial View