EGEO








Oban Airport





Airport

ICAO code


  EGEO





IATA Code

OBN




Summary

ICAO Region

EUR



ICAO Territory





United Kingdom






 








Location

, Scotland




Serving

North Connel



Elevation

20 ft



Coordinates



    56°
    27'
          50"
        N
  
      ,
    
    5°
    24'
          0"
        W
  





Metar
EGEO 070750Z 01005KT CAVOK 14/12 Q1014









Runways






Designator
Length
Width
Surface
Rops




4/22          
900          
30          
ASP          
No/No          


1/19          
1240          
30          
ASP          
No/No          













Airport map






Aerial View