KPGD








Punta Gorda Airport





Airport

ICAO code


  KPGD






Summary

ICAO Region

NAM



ICAO Territory





United States






 








Location

Punta Gorda, Florida,




Coordinates



    26°
    55'
          8"
        N
  
      ,
    
    81°
    59'
          29"
        W
  




KCC

Cfa




Metar
KPGD 071353Z 16007KT 10SM CLR 31/24 A2988 RMK AO2 SLP118 T03060244








Description
Punta Gorda Airport is a public use airport located 6 km southeast of the central business district of Punta Gorda, in Charlotte County, Florida.
Climatology
Humid “subtropical” climate (Köppen climate classification Cfa) - characterized by hot, humid summers and cool winters. Significant amounts of precipitation occur in all seasons in most areas.






Runways






Designator
Length
Width
Surface
Rops




9/27          
1399          
46          
ASP          
Yes/Yes          


15/33          
1446          
46          
ASP          
Yes/Yes          


4/22          
2041          
46          
ASPH-G          
Yes/Yes          













Airport map






Aerial View