CYQA








Muskoka Airport





Airport

ICAO code


  CYQA






Summary

ICAO Region

NAM



ICAO Territory





Canada






 








Location

Muskoka, Ontario, Canada,




Elevation

925 ft



Coordinates



    44°
    58'
          7"
        N
  
      ,
    
    79°
    18'
          26"
        W
  




KCC

Dfa




Metar
CYQA 071406Z AUTO 32011G16KT 9SM SCT014 BKN019 OVC037 10/09 A2984 RMK SLP112








Description
Regional airport in central Ontario Canada, primarily used by general aviation traffic.
Climatology
Humid continental climate (Köppen climate classification Dfa) - characterized by four seasons: cold, windy, snowy winters, mild springs, hot, humid summers, and crisp and relatively short autumns. Precipitation reaches its lowest in January and February and peaks in summer and latter half of spring.






Runways






Designator
Length
Width
Surface
Rops




9/27          
664          
30          
GRS          
No/No          


18/36          
1829          
46          
ASP          
Yes/Yes          













Airport map






Aerial View