PTKK








Chuuk International Airport





Airport

ICAO code


  PTKK





IATA Code

TKK




Summary

ICAO Region

APAC



ICAO Territory





Micronesia






 








Location

Weno, Chuuk




Serving

Chuuk



Elevation

11 ft



Coordinates



    7°
    27'
          43"
        N
  
      ,
    
    151°
    50'
          35"
        E
  




KCC

Aw




Metar
PTKK 071151Z VRB03KT 15SM FEW012 BKN120 OVC280 28/25 A2983 RMK SLP105 70001 8/171 T02770249 10282 20272 52014








Chuuk International Airport is an airport located on Weno (formerly Moen), the main island of the State of Chuuk (formerly Truk) in the Federated States of Micronesia.
Climatology
Tropical Savanna climate (Köppen climate classification Aw)






Runways






Designator
Length
Width
Surface
Rops




4/22          
1831          
46          
ASP          
Yes/Yes          













Airport map






Aerial View








Airport accidents



B738, vicinity Chuuk Micronesia, 2018