KABQ








Albuquerque International Sunport/Kirtland Air Force Base





Airport

ICAO code


  KABQ





IATA Code

ABQ




Summary

ICAO Region

NAM



ICAO Territory





United States






 








Location

Bernalillo County, New Mexico




Serving

Albuquerque



Elevation

5355 ft



Coordinates



    35°
    2'
          34"
        N
  
      ,
    
    106°
    36'
          18"
        W
  




KCC

BWh



Airport RE

Hot and High Operations




Metar
KABQ 071152Z 36006KT 10SM CLR 18/09 A3037 RMK AO2 SLP205 HZ W-N T01780089 10217 20178 55001








Description
Albuquerque International Sunport/Kirtland Air Force Base is a joint public/military (USAF) airport located 3 nm southeast of the central business district of Albuquerque, a city in Bernalillo County, New Mexico.
 














Airport map






Aerial View