SLVR








Viru Viru International Airport





Airport

ICAO code


  SLVR





IATA Code

VVI




Summary

ICAO Region

CARSAM



ICAO Territory





Bolivia






 








Location

Santa Cruz de la Sierra, Santa Cruz




Serving

Santa Cruz



Elevation

1224 ft



Coordinates



    17°
    38'
          41"
        S
  
      ,
    
    63°
    8'
          7"
        W
  




KCC

Aw




Metar
SLVR 071200Z 35010KT 4000 FU NSC 22/15 Q1011








International Airport serving Santa Cruz de la Sierra, Bolivia.
Climatology
Tropical Savanna climate (Köppen climate classification Aw).






Runways






Designator
Length
Width
Surface
Rops




16/34          
3500          
45          
CON          
Yes/Yes          













Airport map






Aerial View