GUCY








Conakry





Airport

ICAO code


  GUCY






Summary

ICAO Region

AFI



ICAO Territory





Guinea






 








Location

Conakry,




Coordinates



    9°
    34'
          37"
        N
  
      ,
    
    13°
    36'
          43"
        W
  




KCC

Am




Metar
GUCY 071400Z 22006KT 8000 -RA BKN013 BKN100 26/24 Q1013 NOSIG








Description
International airport serving Conakry, Guinea.
Climatology
Tropical Monsoon climate (Köppen climate classification Am) - monthly mean temperatures above 18°C in every month of the year and features wet and dry seasons. A tropical monsoon climate typically features less pronounced dry seasons than a tropical savanna climate and see less variance in temperatures during the course of the year. The driest month nearly always occurs at or soon after the "winter" solstice.






Runways






Designator
Length
Width
Surface
Rops




6/24          
3300          
45          
ASP          
Yes/Yes          













Airport map






Aerial View