HKKI








Kisumu Airport





Airport

ICAO code


  HKKI





IATA Code

KIS




Summary

ICAO Region

AFI



ICAO Territory





Kenya






 








Location

Kisumu, Lake Region




Serving

Kisumu



Elevation

3796 ft



Coordinates



    0°
    5'
          10"
        S
  
      ,
    
    34°
    43'
          44"
        E
  




KCC

Af




Metar
HKKI 071300Z 22008KT 9999 FEW028CB 30/10 Q1016








Kisumu International Airport is an airport in Kisumu, Kenya. It is the third-busiest airport in Kenya and the country's fourth international airport.
Climatology
Tropical rainforest climate (Köppen climate classification Af)






Runways






Designator
Length
Width
Surface
Rops




7/25          
1985          
30          
ASP          
No/No          













Airport map






Aerial View