VIJU








Jammu Airport





Airport

ICAO code


  VIJU






Summary

ICAO Region

APAC



ICAO Territory





India






 








Location

Jammu, Jammu and Kashmir,




Coordinates



    32°
    41'
          20"
        N
  
      ,
    
    74°
    50'
          18"
        E
  




KCC

Cfa



Airport BS

Bird Strike



Airport WX

Cumulonimbus




Metar
VIJU 070300Z 05009KT 6000 SCT025 FEW030CB BKN090 25/25 Q1007 TEMPO -RA








Description
Jammu Airport, also known as Satwari Airport, is a public airport located 6 km southwest of Jammu, a city in the state of Jammu and Kashmir, India.
Climatology
Humid “subtropical” climate (Köppen climate classification Cfa) - characterized by hot, humid summers and cool winters. Most precipitation occurs during the monsoon season between late June and late September. Most summer rainfall occurs during thunderstorms.














Airport map






Aerial View