KDXR








Danbury Municipal Airport





Airport

ICAO code


  KDXR





IATA Code

DXR




Summary

ICAO Region

NAM



ICAO Territory





United States






 








Location

Danbury, Connecticut




Serving

Danbury



Elevation

458 ft



Coordinates



    41°
    22'
          18"
        N
  
      ,
    
    73°
    28'
          56"
        W
  




KCC

Dfa



Airport WX

Cumulonimbus




Metar
KDXR 071353Z 16006KT 10SM OVC011 19/16 A2989 RMK AO2 SLP119 T01890156 $








Description
Danbury Municipal Airport is a public use general aviation and designated reliever airport located 5 km southwest of the central business district of Danbury, in Fairfield County, Connecticut.














Airport map






Aerial View