KASH








Nashua Municipal Airport





Airport

ICAO code


  KASH






Summary

ICAO Region

NAM



ICAO Territory





United States






 








Location

Nashua, New Hampshire,




Coordinates



    42°
    46'
          48"
        N
  
      ,
    
    71°
    30'
          58"
        W
  




KCC

Dfa



Airport WX

Cumulonimbus




Metar
KASH 071356Z 00000KT 10SM CLR 19/14 A2990 RMK AO2 SLP130 T01890139








Description
Nashua Municipal Airport, also known as Boire Field, is a public use airport located 5 km northwest of the central business district of Nashua, a city in Hillsborough County, New Hampshire.
Climatology
Humid continental climate (Köppen climate classification Dfa) - characterized by four seasons: cold, windy, snowy winters, mild springs, hot, humid summers, and crisp and relatively short autumns. Precipitation reaches its lowest in January and February and peaks in summer and latter half of spring.














Airport map






Aerial View