EHLE








Lelystad Airport





Airport

ICAO code


  EHLE





IATA Code

LEY




Summary

ICAO Region

EUR



ICAO Territory





Netherlands






 








Location

Lelystad, Flevoland




Serving

Lelystad



Elevation

-13 ft



Coordinates



    52°
    27'
          37"
        N
  
      ,
    
    5°
    31'
          38"
        E
  




KCC

Cfb




Metar
EHLE 071425Z AUTO 11005KT 050V160 9999 NCD 25/15 Q1010








Lelystad Airport is an airport 3.5 nm south southeast of Lelystad, Netherlands.
Climatology
Temperate Marine climate/Oceanic climate (Köppen climate classification Cfb) - Moderately cool summer and comparatively warm winter.






Runways






Designator
Length
Width
Surface
Rops




23/5          
430          
50          
Grass          
No/No          


5/23          
1250          
30          
PEM          
No/No          













Airport map






Aerial View