MMGM








General José María Yáñez International Airport





Airport

ICAO code


  MMGM





IATA Code

GYM




Summary

ICAO Region

CARSAM



ICAO Territory





Mexico






 








Location

Luis Donaldo Colosio, Sonora




Serving

Guaymas



Elevation

59 ft



Coordinates



    27°
    58'
          8"
        N
  
      ,
    
    110°
    55'
          31"
        W
  




KCC

BWh




Metar
MMGM 070140Z 26010KT 10SM SKC 34/30 A2970








General José María Yáñez International airport is an international airport located in Guaymas, Sonora, Mexico.
Climatology
Hot Desert Climate (Köppen climate classification BWh)






Runways






Designator
Length
Width
Surface
Rops




2/20          
2350          
45          
ASP          
No/No          













Airport map






Aerial View