LBBG








Burgas Airport





Airport

ICAO code


  LBBG





IATA Code

BOJ




Summary

ICAO Region

EUR



ICAO Territory





Bulgaria






 








Location

Sarafovo, Northern Thrace




Serving

Burgas



Elevation

135 ft



Coordinates



    42°
    34'
          10"
        N
  
      ,
    
    27°
    30'
          55"
        E
  




KCC

Cfa




Metar
LBBG 071200Z 04014KT 9999 VCSH FEW023 FEW033TCU SCT045 26/18 Q1016 NOSIG








Burgas Airport is an international airport in southeast Bulgaria and the second largest airport in the country. The airport is located near the northern neighbourhood of Sarafovo 10 kilometres from the city centre of Burgas.
Climatology
Humid subtropical climate (Köppen climate classification Cfa)






Runways






Designator
Length
Width
Surface
Rops




4/22          
3200          
45          
CON          
Yes/Yes          













Airport map






Aerial View