YBHM








Hamilton Island Airport





Airport

ICAO code


  YBHM





IATA Code

HTI




Summary

ICAO Region

APAC



ICAO Territory





Australia






 








Location

, Queensland




Serving

Hamilton Island



Elevation

15 ft



Coordinates



    20°
    21'
          29"
        S
  
      ,
    
    148°
    57'
          7"
        E
  





Metar
YBHM 071400Z AUTO 13018KT 9999 // SCT020 21/19 Q1021 RF00.0/000.2

















Airport map






Aerial View