EPSC








Solidarity Szczecin–Goleniów Airport





Airport

ICAO code


  EPSC





IATA Code

SZZ




Summary

ICAO Region

EUR



ICAO Territory





Poland






 








Location

Goleniow, Wes Pomerania




Serving

Szczecin



Elevation

154 ft



Coordinates



    53°
    35'
          5"
        N
  
      ,
    
    14°
    54'
          8"
        E
  




KCC

Cfb




Metar
EPSC 071230Z 11009KT CAVOK 31/13 Q1015








Solidarity Szczecin–Goleniów Airport is the main domestic and international airport serving the city of Szczecin in Poland and is located 45 km northeast of the city, near the town of Goleniów.
Climatology
Oceanic climate (Köppen climate classification Cfb)






Runways






Designator
Length
Width
Surface
Rops




13/31          
2500          
60          
ASP          
Yes/Yes          













Airport map






Aerial View