SPEO








Teniente FAP Jaime A De Montreuil Morales Airport





Airport

ICAO code


  SPEO





IATA Code

CHM




Summary

ICAO Region

CARSAM



ICAO Territory





Peru






 








Location

Chimbote, Ancash




Serving

Chimbote



Elevation

69 ft



Coordinates



    9°
    8'
          59"
        S
  
      ,
    
    78°
    31'
          26"
        W
  




KCC

BWh




Metar
SPEO 071300Z 10005KT 9999 BKN015 BKN100 16/14 Q1014 RMK TX21.0/ TN14.6 PP000








Airport serving Chimbote, in the Ancash Region of Peru.
Climatology
Mild Desert climate (Köppen climate classification BWh).






Runways






Designator
Length
Width
Surface
Rops




1/19          
1800          
30          
ASP          
No/No          













Airport map






Aerial View