LIPL








Ghedi Air Base





Airport

ICAO code


  LIPL






Summary

ICAO Region

EUR



ICAO Territory





Italy






 








Location

Ghedi, Lombardy




Serving

Brescia



Elevation

333 ft



Coordinates



    45°
    25'
          55"
        N
  
      ,
    
    10°
    16'
          4"
        E
  




KCC

Cfa




Metar
LIPL 071355Z 18003KT 9999 FEW040 28/21 Q1015








Ghedi Air Base is a base of the Italian Air Force in Ghedi, about 10 nm from Brescia, northern Italy.
Climatology
Humid subtropical climate (Köppen climate classification Cfa)






Runways






Designator
Length
Width
Surface
Rops




13/31          
2991          
45          
ASP          
No/No          













Airport map






Aerial View