ZSHC








Hangzhou Xiaoshan International Airport





Airport

ICAO code


  ZSHC





IATA Code

HGH




Summary

ICAO Region

APAC



ICAO Territory





China






 








Location

Xiaoshan, Zhejiang




Serving

Hangzhou



Elevation

23 ft



Coordinates



    30°
    13'
          46"
        N
  
      ,
    
    120°
    26'
          4"
        E
  





Metar
ZSHC 071300Z 07003MPS 7000 NSC 29/25 Q1012 NOSIG








Hangzhou Xiaoshan International Airport is the principal airport serving Hangzhou, a major city in the Yangtze River Delta region of the People's Republic of China and the provincial capital of Zhejiang.














Airport map






Aerial View