LICA








Lamezia Terme International Airport





Airport

ICAO code


  LICA





IATA Code

SUF




Summary

ICAO Region

EUR



ICAO Territory





Italy






 








Location

Lamezia Terme, Calabria




Serving

Lamezia Terme



Elevation

46 ft



Coordinates



    38°
    54'
          23"
        N
  
      ,
    
    16°
    14'
          34"
        E
  




KCC

Csa




Metar
LICA 071350Z AUTO 22004KT 190V270 9999 NCD 31/22 Q1014








Lamezia Terme International Airport is an airport in the Sant'Eufemia district of Lamezia Terme, Calabria, Italy. It is the principal airport of Calabria.
Climatology
Warm mediterranean climate (Köppen climate classification Csa)






Runways






Designator
Length
Width
Surface
Rops




10/28          
2414          
45          
ASP          
Yes/Yes          













Airport map






Aerial View