KBKW








Raleigh County Memorial Airport





Airport

ICAO code


  KBKW






Summary

ICAO Region

NAM



ICAO Territory





United States






 








Location

Beckley, West Virginia,




Coordinates



    37°
    47'
          14"
        N
  
      ,
    
    81°
    7'
          26"
        W
  




KCC

Dfa



Airport WX

Cumulonimbus




Metar
KBKW 071432Z AUTO 35009KT 310V010 10SM SCT013 SCT033 BKN060 16/11 A3005 RMK AO2 CIG 033 RWY19 T01560106








Description
Raleigh County Memorial Airport is a public use airport located 6 km east of the central business district of Beckley, a city in Raleigh County, West Virginia.
Climatology
Transition between humid “subtropical” climate (Köppen climate classification Cfa) and humid "continental" climate (Köppen climate classification Dfa) - characterized by hot, humid summers and cool to cold winters. Significant amounts of precipitation occur in all seasons in most areas. Winter snowfall is associated with large storms that the westerlies steer from west to east. Most summer rainfall occurs during thunderstorms.














Airport map






Aerial View