KMBL








Manistee County Blacker Airport





Airport

ICAO code


  KMBL





IATA Code

MBL




Summary

ICAO Region

NAM



ICAO Territory





United States






 








Location

Manistee, Michigan




Serving

Manistee



Elevation

621 ft



Coordinates



    44°
    16'
          20"
        N
  
      ,
    
    86°
    14'
          48"
        W
  




KCC

Dfb



Airport CFIT

Altimeter Temperature Error Correction



Airport GND

Aircraft Ground De/Anti Icing



Airport WX

Lake Effect Snow




Metar
KMBL 071356Z AUTO 36009G18KT 10SM OVC039 11/04 A3018 RMK AO2 SLP224 T01110044








Manistee County Blacker Airport is a public use airport located 3 nm northeast of the central business district of Manistee, a city in Manistee County, Michigan, USA. The airport is mostly used by general aviation.






Runways






Designator
Length
Width
Surface
Rops




18/36          
829          
23          
ASP          
Yes/Yes          


9/27          
1677          
30          
ASP          
Yes/Yes          













Airport map






Aerial View