KNTU








Naval Air Station Oceana





Airport

ICAO code


  KNTU






Summary

ICAO Region

NAM



ICAO Territory





United States






 








Location

Virginia Beach, Virginia,




Coordinates



    36°
    48'
          56"
        N
  
      ,
    
    76°
    1'
          56"
        W
  




KCC

Cfa



Airport LOS

Parallel Runway Operation




Metar
KNTU 071404Z 28003KT 5SM RA BR SCT006 BKN022 OVC120 22/22 A2987 RMK AO2 T02170217 PNO $








Description
Naval Air Station Oceana or NAS Oceana, also known as Apollo Soucek Field, is a military airport located in Virginia Beach, Virginia.
Climatology
Humid “subtropical” climate (Köppen climate classification Cfa) - characterized by hot, humid summers and cool winters. Significant amounts of precipitation occur in all seasons in most areas. Winter rainfall (and sometimes snowfall) is associated with large storms that the westerlies steer from west to east. Most summer rainfall occurs during thunderstorms and occasional tropical storms (hurricanes).






Runways






Designator
Length
Width
Surface
Rops




14R/32L          
2438          
61          
PEM          
Yes/Yes          


14L/32R          
2438          
46          
CON          
Yes/Yes          


05L/23R          
2439          
46          
CON          
Yes/Yes          


05R/23L          
3657          
61          
PEM          
Yes/Yes          













Airport map






Aerial View