RJAF








Matsumoto Airport





Airport

ICAO code


  RJAF





IATA Code

MMJ




Summary

ICAO Region

APAC



ICAO Territory





Japan






 








Location

Matsumoto, Nagano Prefecture




Serving

Matsumoto



Elevation

2157 ft



Coordinates



    36°
    9'
          53"
        N
  
      ,
    
    137°
    55'
          35"
        E
  




KCC

Dfa




Metar
RJAF 070100Z 25003KT 180V350 9999 FEW040 27/20 Q1018








Also known as Shinshu-Matsumoto Airport, is an airport located 9.3 km southwest of central Matsumoto, Nagano Prefecture, Japan.
Climatology
Humid Continental climate (Köppen climate classification Dfa)






Runways






Designator
Length
Width
Surface
Rops




18/36          
1999          
46          
ASP          
No/No          













Airport map






Aerial View