KOSH








Wittman Regional Airport





Airport

ICAO code


  KOSH






Summary

ICAO Region

NAM



ICAO Territory





United States






 








Location

Oshkosh, Wisconsin,




Coordinates



    43°
    59'
          4"
        N
  
      ,
    
    88°
    33'
          25"
        W
  




KCC

Dfa




Metar
KOSH 071353Z 36012KT 10SM BKN042 11/06 A3027 RMK AO2 SLP251 T01110056








Description
Airport serving Oshkosh, Wisconsin, USA.
Climatology
Humid continental climate (Köppen climate classification Dfa) - characterized by four seasons: cold, windy, snowy winters, mild springs, hot, humid summers, and crisp and relatively short autumns. Precipitation reaches its lowest in January and February and peaks in summer and latter half of spring.
The city experiences a full range of precipitation and related weather events, including snow, sleet, ice, rain, thunderstorms, tornadoes, heatwaves, and fog.






Runways






Designator
Length
Width
Surface
Rops




13/31          
933          
23          
ASP          
Yes/Yes          


4/22          
1044          
23          
ASP          
Yes/Yes          


9/27          
1883          
46          
ASP          
Yes/Yes          


18/36          
2439          
46          
CON          
Yes/Yes          













Airport map






Aerial View