HKMO








Moi International Airport





Airport

ICAO code


  HKMO





IATA Code

MBA




Summary

ICAO Region

AFI



ICAO Territory





Kenya






 








Location

Mombasa, Mombasa County




Serving

Mombasa



Elevation

200 ft



Coordinates



    4°
    1'
          37"
        S
  
      ,
    
    39°
    36'
          5"
        E
  




KCC

As




Metar
HKMO 071200Z 14013KT 9999 FEW026 29/21 Q1015 NOSIG








International airport serving Mombasa, Kenya.
Climatology
Tropical Savanna climate (Köppen climate classification As)






Runways






Designator
Length
Width
Surface
Rops




15/33          
1363          
36          
ASP          
Yes/Yes          


3/21          
3350          
46          
ASP          
Yes/Yes          













Airport map






Aerial View