GGOV








Bissau/Osvaldo Vieira International Airport





Airport

ICAO code


  GGOV





IATA Code

OXB




Summary

ICAO Region

AFI



ICAO Territory





Guinea-Bissau






 








Location

Bissau, Bissau Metropolitan Region




Serving

Bissau



Elevation

129 ft



Coordinates



    11°
    53'
          42"
        N
  
      ,
    
    15°
    39'
          13"
        W
  




KCC

Aw




Metar
GGOV 071400Z VRB03KT 9999 BKN014 32/23 Q1011 NOSIG








Osvaldo Vieira International Airport is an airport that serves the city of Bissau, the capital city of Guinea-Bissau. It is the only international airport in the country.
Climatology
Tropical Savannah climate (Köppen climate classification Aw)






Runways






Designator
Length
Width
Surface
Rops




3/21          
3200          
45          
ASP          
No/No          













Airport map






Aerial View