NFFN








Nadi International Airport





Airport

ICAO code


  NFFN





IATA Code

NAN




Summary

ICAO Region

APAC



ICAO Territory





Fiji






 








Location

Nadi, Western




Serving

Nadi



Elevation

59 ft



Coordinates



    17°
    45'
          19"
        S
  
      ,
    
    177°
    26'
          36"
        E
  




KCC

Af




Metar
NFFN 071200Z 14005KT 9999 FEW030 21/15 Q1016 NOSIG








Description
Nadi International Airport is the main international gateway for the islands of Fiji. The airport is 10 km from the city of Nadi.
Climatology
Tropical Rainforest climate (Köppen climate classification Af) - almost no distinct seasons, average daily temperature around 27°C throughout the year. Extensive cloud cover and heavy rainfall prevent temperatures from rising much over 33°C. The diurnal temperature change is between 2°C and 5°C which is greater than the annual temperature range of 2°C. Rainfall is heavy and is usually convectional and in the afternoon.






Runways






Designator
Length
Width
Surface
Rops




9/27          
2136          
46          
ASP          
Yes/Yes          


2/20          
3273          
46          
ASP          
Yes/Yes          













Airport map






Aerial View








Airport accidents



BE20, Nadi Fiji, 2010