LGKC








Kithira Island National Airport





Airport

ICAO code


  LGKC





IATA Code

KIT




Summary

ICAO Region

EUR



ICAO Territory





Greece






 








Location

Kithira, Peloponnese




Serving

Kithira



Elevation

1045 ft



Coordinates



    36°
    16'
          25"
        N
  
      ,
    
    23°
    0'
          59"
        E
  




KCC

Csa




Metar
LGKC 071250Z 12006KT 080V160 9999 FEW025 31/16 Q1016








Kithira Island National Airport "Alexandros Aristotelous Onassis" is an airport in Kithira, Greece.
Climatology
Warm mediterranean climate (Köppen climate classification Csa)






Runways






Designator
Length
Width
Surface
Rops




2/20          
1461          
30          
ASP          
No/No          













Airport map






Aerial View