KCXP








Carson Airport





Airport

ICAO code


  KCXP





IATA Code

CSN




Summary

ICAO Region

NAM



ICAO Territory





United States






 








Location

Carson City, Nevada




Serving

Carson City



Elevation

4697 ft



Coordinates



    39°
    11'
          30"
        N
  
      ,
    
    119°
    44'
          9"
        W
  




KCC

BSk



Airport RE

Hot and High Operations




Metar
KCXP 070235Z AUTO 00000KT 10SM BKN110 25/07 A3020 RMK AO2








Description
Carson Airport, also known as Carson City Airport, is a public use airport located 3 nm northeast of the central business district of Carson City, in Ormsby County, Nevada, USA.














Airport map






Aerial View