PHNG








Kaneohe Bay MCAS (Marion E. Carl Field) Airport





Airport

ICAO code


  PHNG





IATA Code

NGF




Summary

ICAO Region

NAM



ICAO Territory





Hawaii






 








Location

, Hawaii




Serving

Kaneohe Bay



Elevation

24 ft



Coordinates



    21°
    27'
          2"
        N
  
      ,
    
    157°
    46'
          5"
        W
  





Metar
PHNG 071157Z 07009KT 10SM CLR 28/21 A2999 RMK AO2 SLP149 T02780206 10283 20272 58012









Runways






Designator
Length
Width
Surface
Rops




4/22          
2369          
61          
ASP          
Yes/Yes          













Airport map






Aerial View