WIBB








Pekanbaru





Airport

ICAO code


  WIBB






Summary

ICAO Region

APAC



ICAO Territory





Indonesia






 








Location

Pekanbaru,




Coordinates



    0°
    27'
          53"
        N
  
      ,
    
    101°
    26'
          47"
        E
  




KCC

Af



Airport WX

Volcanic Ash




Metar
WIBB 071430Z 00000KT 8000 NSC 28/24 Q1010 NOSIG








Description
International airport serving Pekanbaru, Sumatra, Indonesia.
Climatology
Tropical Rainforest climate (Köppen climate classification Af) - almost no distinct seasons, average daily temperature around 27°C throughout the year. Extensive cloud cover and heavy rainfall prevent temperatures from rising much over 33°C. The diurnal temperature change is between 2°C and 5°C which is greater than the annual temperature range of 2°C. Rainfall is heavy and is usually convectional and in the afternoon.














Airport map






Aerial View








Airport accidents



B739, Pekanbaru Indonesia, 2011
B732, Pekanbaru Indonesia, 2002