MYGF








Freeport/Grand Bahama International





Airport

ICAO code


  MYGF





IATA Code

FPO




Summary

ICAO Region

CARSAM



ICAO Territory





Bahamas






 








Location

Freeport, Grand Bahama




Serving

Grand Bahama



Elevation

8 ft



Coordinates



    26°
    33'
          19"
        N
  
      ,
    
    78°
    41'
          54"
        W
  




KCC

Am



Airport WX

Tropical Revolving Storm




Metar
MYGF 071200Z 15003KT 9999 FEW020 SCT250 28/23 A2989








Grand Bahama International Airport is a privately owned international airport in Freeport, Bahamas.
Climatology
Tropical Monsoon climate (Köppen climate classification Am)






Runways






Designator
Length
Width
Surface
Rops




6/24          
3359          
46          
ASP          
Yes/Yes          













Airport map






Aerial View