KSKA








Fairchild Air Force Base





Airport

ICAO code


  KSKA





IATA Code

SKA




Summary

ICAO Region

NAM



ICAO Territory





United States






 








Location

Airway Heights, Washington




Serving

Spokane



Elevation

2462 ft



Coordinates



    47°
    36'
          54"
        N
  
      ,
    
    117°
    39'
          20"
        W
  




KCC

Dsb



Airport CFIT

Altimeter Temperature Error Correction



Airport WX

Mountain Waves




Metar
KSKA 071355Z 06003KT 10SM CLR 17/08 A3004 RMK AO2A SLP151 T01650079








Fairchild Air Force Base is a United States Air Force installation located approximately 12 nm southwest of the central business district of Spokane, Washington.






Runways






Designator
Length
Width
Surface
Rops




5/23          
4237          
61          
CON          
Yes/Yes          













Airport map






Aerial View