LOXT








Brumowski Air Base





Airport

ICAO code


  LOXT






Summary

ICAO Region

EUR



ICAO Territory





Austria






 








Location

Tulln, Lower Austria




Serving

Tulln



Elevation

594 ft



Coordinates



    48°
    19'
          8"
        N
  
      ,
    
    16°
    6'
          52"
        E
  




KCC

Dfb




Metar
LOXT 071050Z 12019G30KT 090V150 60KM FEW060CU 30/15 Q1014 RMK COTRA/FEW








Fliegerhorst Brumowski (Brumowski Air Base) is an Austrian Air Force base located approximately 3nm east-southeast of Tulln; about 30 km (19 mi) northwest of Vienna.
Climatology
Humid continental climate (Köppen climate classification Dfb)














Airport map






Aerial View