NZQN








Queenstown





Airport

ICAO code


  NZQN






Summary

ICAO Region

APAC



ICAO Territory





New Zealand






 








Location

Frankton, Otago,




Coordinates



    45°
    1'
          16"
        S
  
      ,
    
    168°
    44'
          20"
        E
  




KCC

Cfb




Metar
NZQN 071230Z AUTO 19009KT 9999 FEW060/// BKN100/// 07/00 Q1002








Description
Queenstown Airport is located in Frankton, Otago, New Zealand, and serves the resort town of Queenstown.
Climatology
Temperate Marine climate/Oceanic climate (Köppen climate classification Cfb). Moderately cool summer and comparatively warm winter with a temperature range of only 14°C.






Runways






Designator
Length
Width
Surface
Rops




5/23          
0          
0          
UNK          
Yes/Yes          


05L/23R          
800          
40          
GRS          
No/No          


14/32          
944          
60          
GRS          
Yes/Yes          


05R/23L          
1891          
30          
ASP          
No/No          













Airport map






Aerial View








Airport accidents



B738/B738, vicinity Queenstown New Zealand, 2010
AT72 / B732, vicinity Queenstown New Zealand, 1999