LICC








Catania-Fontanarossa Airport





Airport

ICAO code


  LICC





IATA Code

CTA




Summary

ICAO Region

EUR



ICAO Territory





Italy






 








Location

Catania, Sicilia




Serving

Catania



Elevation

39 ft



Coordinates



    37°
    28'
          0"
        N
  
      ,
    
    15°
    3'
          59"
        E
  




Airport WX

Volcanic Ash




Metar
LICC 071350Z 08010KT 050V110 CAVOK 31/25 Q1014









Runways






Designator
Length
Width
Surface
Rops




8/26          
2435          
45          
ASP          
Yes/Yes          













Airport map






Aerial View