HUEN








Entebbe International Airport





Airport

ICAO code


  HUEN





IATA Code

EBB




Summary

ICAO Region

AFI



ICAO Territory





Uganda






 








Location

Entebbe, Kampala




Serving

Kampala



Elevation

3782 ft



Coordinates



    0°
    2'
          40"
        N
  
      ,
    
    32°
    26'
          33"
        E
  




KCC

Af



Airport BS

Non Avian Wildlife Hazards to Aircraft




Metar
HUEN 070030Z 03003KT 9999 FEW020 21/20 Q1018 NOSIG








Entebbe International Airport is the principal international airport of Uganda. Located near the town of Entebbe, on the shores of Lake Victoria, and approximately 40.5 km by road south-west of the central business district of Kampala, the capital and largest city of Uganda.
Climatology
Tropical Rainforest climate (Köppen climate classification Af)






Runways






Designator
Length
Width
Surface
Rops




12/30          
2408          
46          
ASP          
Yes/Yes          


17/35          
3658          
46          
ASP          
Yes/Yes          













Airport map






Aerial View








Airport accidents



CRJ9, Entebbe Uganda, 2018