LRCL








Cluj-Napoca International Airport





Airport

ICAO code


  LRCL





IATA Code

CLJ




Summary

ICAO Region

EUR



ICAO Territory





Romania






 








Location

Cluj-Napoca, Cluj




Serving

Cluj-Napoca



Elevation

1036 ft



Coordinates



    46°
    47'
          5"
        N
  
      ,
    
    23°
    41'
          20"
        E
  





Metar
LRCL 071200Z AUTO 12008KT 100V160 9999 NCD 29/07 Q1020









Runways






Designator
Length
Width
Surface
Rops




8/26          
0          
0          
UNK          
Yes/Yes          


7/25          
1850          
30          
CON          
Yes/Yes          













Airport map






Aerial View