PAEI








Eielson Air Force Base





Airport

ICAO code


  PAEI






Summary

ICAO Region

NAM



ICAO Territory





Alaska






 








Location

Fairbanks, Alaska,




Coordinates



    64°
    39'
          2"
        N
  
      ,
    
    147°
    4'
          1"
        W
  




KCC

Dfc



Airport BS

Non Avian Wildlife Hazards to Aircraft



Airport CFIT

Altimeter Temperature Error Correction




Metar
PAEI 071255Z 15004KT 10SM OVC050 11/09 A2975 RMK AO2A RAB30E55 SLP078 P0000 T01050094 $








Description
Eilson Air Force Base is a United States Air Force base located near Moose Creek, a town 42 km southeast of Fairbanks, Alaska.
Climatology
Subarctic climate (Köppen climate classification Dfc) - long, usually very cold winters, and short, cool to mild summers.






Runways






Designator
Length
Width
Surface
Rops




14/32          
4429          
46          
CONC          
Yes/Yes          













Airport map






Aerial View