BIGJ








Gjögur Airport





Airport

ICAO code


  BIGJ





IATA Code

GJR




Summary

ICAO Region

NAT



ICAO Territory





Iceland






 








Location

, Vestfiroir




Serving

Gjogur



Elevation

83 ft



Coordinates



    65°
    59'
          43"
        N
  
      ,
    
    21°
    19'
          37"
        W
  





Metar
BIGJ 061200Z 22012KT 9999 SCT020 11/06 Q1012









Runways






Designator
Length
Width
Surface
Rops




5/23          
927          
0          
UNK          
No/No          













Airport map






Aerial View