LIRI








Salerno Costa d'Amalfi Airport





Airport

ICAO code


  LIRI





IATA Code

QSR




Summary

ICAO Region

EUR



ICAO Territory





Italy






 








Location

Bellizzi, Campania




Serving

Salerno



Elevation

131 ft



Coordinates



    40°
    37'
          8"
        N
  
      ,
    
    14°
    54'
          40"
        E
  




KCC

Csa




Metar
LIRI 071150Z 24007KT 210V270 CAVOK 32/15 Q1015








The Salerno - Costa d'Amalfi Airport, located in the municipality of Pontecagnano Faiano and close to Bellizzi, is an airport in southern Italy.
Climatology
Warm mediterranean climate (Köppen climate classification Csa)






Runways






Designator
Length
Width
Surface
Rops




5/23          
1395          
45          
ASP          
No/No          













Airport map






Aerial View