KJAN








Jackson-Medger Wiley Evers International Airport





Airport

ICAO code


  KJAN





IATA Code

JAN




Summary

ICAO Region

NAM



ICAO Territory





United States






 








Location

Flowood, Mississippi




Serving

Jackson



Elevation

346 ft



Coordinates



    32°
    18'
          36"
        N
  
      ,
    
    90°
    4'
          31"
        W
  




KCC

Cfa



Airport LOS

Parallel Runway Operation




Metar
KJAN 071354Z 03007KT 10SM CLR 24/19 A2997 RMK AO2 SLP146 T02390194








Jackson-Medger Wiley Evers International Airport is a public-use, joint civil-military (ANG) airport located 6 nm east of the central business district of Jackson, Mississippi, USA.
 














Airport map






Aerial View