LROD








Oradea International Airport





Airport

ICAO code


  LROD





IATA Code

OMR




Summary

ICAO Region

EUR



ICAO Territory





Romania






 








Location

, Bihor




Serving

Oradea



Elevation

465 ft



Coordinates



    47°
    1'
          31"
        N
  
      ,
    
    21°
    54'
          9"
        E
  





Metar
LROD 071200Z 34007KT CAVOK 30/12 Q1018









Runways






Designator
Length
Width
Surface
Rops




1/19          
1800          
30          
CON          
Yes/Yes          













Airport map






Aerial View