LSMD








Dubendorf Airport





Airport

ICAO code


  LSMD






Summary

ICAO Region

EUR



ICAO Territory





Switzerland






 








Location

Dübendorf, Zurich




Serving

Dübendorf



Elevation

1470 ft



Coordinates



    47°
    23'
          55"
        N
  
      ,
    
    8°
    38'
          54"
        E
  





Metar
LSMD 071420Z AUTO VRB04KT 9999NDV NCD 28/16 Q1011 RMK








Militärflugplatz Dübendorf is a military airfield northeast of Dübendorf in Switzerland, located east of Zürich.
Climatology
Temperate oceanic climate (Köppen climate classification Cfb)






Runways






Designator
Length
Width
Surface
Rops




11R/29L          
649          
30          
GRS          
No/No          


11/29          
2355          
40          
ASP          
No/No          













Airport map






Aerial View