VLSK








Savannakhet Airport





Airport

ICAO code


  VLSK





IATA Code

ZVK




Summary

ICAO Region

APAC



ICAO Territory





Laos






 








Location

Savannakhet, Khoueng Savannakhet




Serving

Savannakhet



Elevation

509 ft



Coordinates



    16°
    33'
          24"
        N
  
      ,
    
    104°
    45'
          34"
        E
  




KCC

Aw




Metar
VLSK 071200Z 18004KT 3000 BR FEW040 BKN100 29/23 Q1005 NOSIG








Savannakhet Airport is an airport near Savannakhet, Laos.
Climatology
Tropical savannah climate (Köppen climate classification Aw)














Airport map






Aerial View