PHKO








Kona International Airport at Keahole





Airport

ICAO code


  PHKO






Summary

ICAO Region

NAM



ICAO Territory





Hawaii






 








Location

Kailua-Kona,




Coordinates



    19°
    44'
          20"
        N
  
      ,
    
    156°
    2'
          44"
        W
  




KCC

BSh




Metar
PHKO 071153Z AUTO 06006KT 10SM CLR 26/17 A2996 RMK AO2 SLP144 60002 70002 T02560167 10278 20239 58015








Description
Kona International Airport at Keāhole is an international airport on the Island of Hawaii.
Climatology
Tropical, semi-arid climate (Köppen climate classification BSh) with warm temperatures year-round - monthly mean temperature above 18°C in every month of the year.






Runways






Designator
Length
Width
Surface
Rops




17/35          
3353          
46          
ASP          
Yes/Yes          













Airport map






Aerial View