SPJR








Mayor General FAP Armando Revoredo Iglesias Airport





Airport

ICAO code


  SPJR





IATA Code

CJA




Summary

ICAO Region

CARSAM



ICAO Territory





Peru






 








Location

Cajamarca, Cajamarca




Serving

Cajamarca



Elevation

8781 ft



Coordinates



    7°
    8'
          21"
        S
  
      ,
    
    78°
    29'
          22"
        W
  




KCC

Cwb




Metar
SPJR 071330Z 12004KT 070V150 CAVOK 16/05 Q1028








Airport serving Cajamarca, capital of the Cajamarca Region in Peru.
Climatology
Subtropical Highland climate (Köppen climate classification Cwb).






Runways






Designator
Length
Width
Surface
Rops




16/34          
2500          
45          
ASP          
No/No          













Airport map






Aerial View