ESNQ








Kiruna





Airport

ICAO code


  ESNQ






Summary

ICAO Region

EUR



ICAO Territory





Sweden






 








Location

Kiruna,




Elevation

1508 ft



Coordinates



    67°
    49'
          19"
        N
  
      ,
    
    20°
    20'
          12"
        E
  




KCC

Dfc




Metar
ESNQ 071520Z 24007KT CAVOK 16/06 Q1018








Description
Kiruna Airport is the northernmost airport in Sweden. The airport lies around 10 km from the town centre of Kiruna.
Climatology
Subarctic climate (Köppen climate classification Dfc) - long, usually very cold winters, and short, cool to mild summers.






Runways






Designator
Length
Width
Surface
Rops




3/21          
2502          
45          
ASP          
Yes/Yes          













Airport map






Aerial View








Airport accidents



MD81, Kiruna Sweden, 1997