KWRB








Robins Air Force Base





Airport

ICAO code


  KWRB






Summary

ICAO Region

NAM



ICAO Territory





United States






 








Location

Warner Robins, Georgia,




Coordinates



    32°
    38'
          24"
        N
  
      ,
    
    83°
    35'
          30"
        W
  




KCC

Cfa




Metar
KWRB 071411Z AUTO 00000KT 10SM FEW006 OVC060 22/20 A2994 RMK AO2 SLP139








Description
Robins Air Force Base is a United States Air Force installation located in Houston County, Georgia, just east of the city of Warner Robins which is located 29 km southeast of Macon, Georgia.
Climatology
Humid “subtropical” climate (Köppen climate classification Cfa) - characterized by hot, humid summers and cool winters. Significant amounts of precipitation occur in all seasons in most areas.






Runways






Designator
Length
Width
Surface
Rops




15/33          
3658          
91          
PEM          
Yes/Yes          













Airport map






Aerial View