KMSN








Dane County Regional Airport





Airport

ICAO code


  KMSN





IATA Code

MSN




Summary

ICAO Region

NAM



ICAO Territory





United States






 








Location

Madison, Wisconsin




Serving

Madison



Elevation

887 ft



Coordinates



    43°
    8'
          11"
        N
  
      ,
    
    89°
    20'
          45"
        W
  




KCC

Dfa



Airport WX

Cumulonimbus




Metar
KMSN 071353Z 33006KT 10SM FEW250 09/06 A3029 RMK AO2 SLP261 T00940056 $








Description
Dane County Regional Airport, formerly known as Truax Field, is a joint civil-military (ANG) public use airport located 6 nm northeast of the central business district of Madison, Wisconsin.






Runways






Designator
Length
Width
Surface
Rops




14/32          
1782          
46          
CON          
Yes/Yes          


3/21          
2195          
46          
CON          
Yes/Yes          


18/36          
2745          
46          
CON          
Yes/Yes          













Airport map






Aerial View