RORY








Yoron Airport





Airport

ICAO code


  RORY





IATA Code

RNJ




Summary

ICAO Region

APAC



ICAO Territory





Japan






 








Location

Yoron, Kagoshima Prefecture




Serving

Yoronjima



Elevation

47 ft



Coordinates



    27°
    2'
          35"
        N
  
      ,
    
    128°
    24'
          0"
        E
  




KCC

Cfa




Metar
RORY 071300Z AUTO 07004KT 9999 FEW019 29/26 Q1012








Yoron Airport is an airport located on Yoronjima in Kagoshima Prefecture Japan.
Climatology
Humid Sub-tropical climate (Köppen climate classification Cfa)






Runways






Designator
Length
Width
Surface
Rops




14/32          
1323          
30          
ASP          
Yes/Yes          













Airport map






Aerial View