SBIZ








Imperatriz Airport





Airport

ICAO code


  SBIZ





IATA Code

IMP




Summary

ICAO Region

CARSAM



ICAO Territory





Brazil






 








Location

Imperatriz, Maranhao




Serving

Imperatriz



Elevation

431 ft



Coordinates



    5°
    31'
          50"
        S
  
      ,
    
    47°
    27'
          30"
        W
  




KCC

Aw




Metar
SBIZ 071100Z 08007KT CAVOK 28/14 Q1012








Imperatriz-Prefeito Renato Moreira Airport is the airport serving Imperatriz, Brazil.
Climatology
Tropical savanna climate (Köppen climate classification Aw)






Runways






Designator
Length
Width
Surface
Rops




7/25          
1798          
45          
ASP          
Yes/Yes          













Airport map






Aerial View