ZSOF








Hefei Luogang International





Airport

ICAO code


  ZSOF





IATA Code

HFE




Summary

ICAO Region

APAC



ICAO Territory





China






 








Location

Gaoliu, Anhui,




Serving

Hefei



Elevation

33 ft



Coordinates



    31°
    46'
          47"
        N
  
      ,
    
    117°
    18'
          27"
        E
  




KCC

Cfa




Metar
ZSOF 071300Z 07004MPS CAVOK 29/26 Q1012 NOSIG








Description
Hefei Xinqiao International Airport is the main airport serving Hefei, the capital of Anhui Province, China. It is located near the town of Gaoliu in Feixi County, 31.8 kilometers from the city center.
Climatology
Humid subtropical climate (Köppen climate classification Cfa.) Hot muggy summers with frequent thunderstorms. Winters are mild and precipitation during this season comes from mid-latitude cyclones. This climate type is quite common on the east coasts of continents.














Airport map






Aerial View