UAAH








Balkhash Airport





Airport

ICAO code


  UAAH





IATA Code

BXH




Summary

ICAO Region

APAC



ICAO Territory





Kazakhstan






 








Location

Balkhash,




Serving

Balkhash



Elevation

1447 ft



Coordinates



    46°
    53'
          36"
        N
  
      ,
    
    75°
    0'
          18"
        E
  





Metar
UAAH 071300Z 34004MPS CAVOK 15/00 Q1023 NOSIG RMK QFE728/0971








Description
Balkhash Airport or Balqash Airport is an airport 6 km northeast the city of Balqash in Kazakhstan.






Runways






Designator
Length
Width
Surface
Rops




5/23          
2502          
40          
CON          
No/No          













Airport map






Aerial View