EGPO








Stornoway Airport





Airport

ICAO code


  EGPO





IATA Code

SYY




Summary

ICAO Region

EUR



ICAO Territory





United Kingdom






 








Location

Stornoway, Outer Hebrides, Scotland




Serving

Stornoway



Elevation

26 ft



Coordinates



    58°
    12'
          50"
        N
  
      ,
    
    6°
    19'
          50"
        W
  




KCC

Cfb




Metar
EGPO 071350Z 05005KT 0700 R36/0950 FG BKN000 OVC002 14/13 Q1014








Description
Small airport serving the Islands of Harris and Lewis in the Scottish Western Isles.
Climatology
Temperate Marine climate/Oceanic climate (Köppen climate classification Cfb). Moderately cool summer and comparatively warm winter with a temperature range of only 14°C. Prevailing south-westerly winds from the Atlantic Ocean.






Runways






Designator
Length
Width
Surface
Rops




7/25          
1000          
23          
ASP          
No/No          


18/36          
2200          
46          
ASP          
Yes/Yes          













Airport map






Aerial View








Airport accidents



SF34/SF34, vicinity Stornoway UK, 2011
BE20/SF34, vicinity Stornoway UK, 2011
SF34, Stornoway UK, 2015