LFBM








Mont-de-Marsan (BA 118) Air Base





Airport

ICAO code


  LFBM






Summary

ICAO Region

EUR



ICAO Territory





France






 








Location

, Aquitaine




Serving

Mont-de-marsan



Elevation

203 ft



Coordinates



    43°
    54'
          42"
        N
  
      ,
    
    0°
    30'
          27"
        W
  





Metar
LFBM 071400Z AUTO 27016KT 240V310 CAVOK 23/11 Q1010 NOSIG









Runways






Designator
Length
Width
Surface
Rops




9/27          
3603          
45          
PEM          
No/No          













Airport map






Aerial View