KBAD








Barksdale Air Force Base





Airport

ICAO code


  KBAD





IATA Code

BAD




Summary

ICAO Region

NAM



ICAO Territory





United States






 








Location

Bossier City, Louisiana




Serving

Bossier City



Elevation

165 ft



Coordinates



    32°
    30'
          7"
        N
  
      ,
    
    93°
    39'
          26"
        W
  




KCC

Cfa




Metar
KBAD 071355Z AUTO 36012G17KT 10SM CLR 22/14 A3003 RMK AO2 SLP172 T02220138








Description
Barksdale Air Force Base is a United States Air Force installation located to the east and southeast of Bossier City, Louisiana.














Airport map






Aerial View