LIRQ








Florence/Peretola Airport





Airport

ICAO code


  LIRQ





IATA Code

FLR




Summary

ICAO Region

EUR



ICAO Territory





Italy






 








Location

Florence, Toscana




Serving

Florence



Elevation

144 ft



Coordinates



    43°
    48'
          35"
        N
  
      ,
    
    11°
    12'
          18"
        E
  




KCC

Cfa




Metar
LIRQ 071350Z 07003KT 020V160 9999 FEW050 33/17 Q1014








Peretola Airport, Florence Airport or Amerigo Vespucci Airport is an airport located close to Florence, Italy. It is one of two main airports in the Tuscany region, the other being Galileo Galilei International Airport near Pisa.
Climatology
Humid “subtropical” climate (Köppen climate classification Cfa) - characterized by hot, humid summers and cool winters. Significant amounts of precipitation occur in all seasons in most areas. Winter rainfall (and sometimes snowfall) is associated with large storms that the westerlies steer from west to east. Most summer rainfall occurs during thunderstorms.






Runways






Designator
Length
Width
Surface
Rops




5/23          
1654          
30          
ASP          
Yes/Yes          













Airport map






Aerial View