VIDP








Delhi/Indira Gandhi International (IGI) Airport





Airport

ICAO code


  VIDP





IATA Code

DEL




Summary

ICAO Region

APAC



ICAO Territory





India






 








Location

Palam, National Capitol Region of Delhi




Serving

New Delhi



Elevation

777 ft



Coordinates



    28°
    33'
          30"
        N
  
      ,
    
    77°
    5'
          38"
        E
  




KCC

Cwa



Airport BS

Bird Strike



Airport LOS

Parallel Runway Operation



Airport WX

Fog




Metar
VIDP 071330Z 23003KT 3000 -RA BKN025 FEW030CB OVC080 26/25 Q1004 TEMPO 24010G20KT 1500 TSRA








International airport serving the city of New Delhi.
Climatology
Humid “subtropical” climate (Köppen climate classification Cwa) - characterized by hot, humid summers and cool winters.
Overnight radiation fog in winter is a well-recognised problem.














Airport map






Aerial View








Airport accidents



A320 / A320, vicinity Delhi India, 2020
B789 / B773, Delhi India, 2017
A320 / B738, vicinity Delhi India, 2016
A320, vicinity Delhi India, 2017
B763 / A320, Delhi India, 2017
B738, Delhi India, 2014
A320/B738, vicinity Delhi India, 2013