LTBY








Eskişehir Anadolu Airport





Airport

ICAO code


  LTBY





IATA Code

AOE




Summary

ICAO Region

EUR



ICAO Territory





Turkey






 








Location

Eskişehir,




Serving

Eskişehir



Elevation

2588 ft



Coordinates



    39°
    48'
          35"
        N
  
      ,
    
    30°
    31'
          10"
        E
  





Metar
LTBY 071150Z 31011KT 270V350 9999 SCT040 BKN200 26/11 Q1016









Runways






Designator
Length
Width
Surface
Rops




9/27          
2518          
30          
ASP          
No/No          













Airport map






Aerial View