OIKQ








Qeshm International Airport





Airport

ICAO code


  OIKQ





IATA Code

GSM




Summary

ICAO Region

MID



ICAO Territory





Iran






 








Location

Direstan, Hormuzgan Province




Serving

Qeshm Island



Elevation

45 ft



Coordinates



    26°
    45'
          22"
        N
  
      ,
    
    55°
    53'
          43"
        E
  




KCC

BWh




Metar
OIKQ 071400Z 18004KT 7000 NSC 35/28 Q1000 NOSIG








Also known as Dayrestan Airport, this airport serves the island of Qeshm in the straights of Hormuz, off the south coast of Iran.
Climatology
Warm Desert climate (Köppen climate classification BWh).






Runways






Designator
Length
Width
Surface
Rops




5/23          
4226          
45          
ASP          
No/No          













Airport map






Aerial View