SKEJ








Yariguíes Airport





Airport

ICAO code


  SKEJ





IATA Code

EJA




Summary

ICAO Region

CARSAM



ICAO Territory





Colombia






 








Location

Los Laureles, Santander Department




Serving

Barrancacabermeja



Elevation

412 ft



Coordinates



    7°
    1'
          29"
        N
  
      ,
    
    73°
    48'
          26"
        W
  




KCC

Am




Metar
SKEJ 071200Z 17006KT 9999 SCT015 25/24 Q1009








Yariguíes Airport is an airport serving Barrancabermeja, a city in the Santander Department of Colombia. The airport is 6km southeast of the city.
Climatology
Tropical monsoon climate (Köppen climate classification Am)






Runways






Designator
Length
Width
Surface
Rops




4/22          
1800          
45          
ASP          
No/No          













Airport map






Aerial View