KFKL








Venango Regional Airport





Airport

ICAO code


  KFKL






Summary

ICAO Region

NAM



ICAO Territory





United States






 








Location

Franklin, Pennsylvania,




Elevation

1540 ft



Coordinates



    41°
    22'
          40"
        N
  
      ,
    
    79°
    51'
          37"
        W
  




KCC

Dfa



Airport GND

Aircraft Ground De/Anti Icing



Airport RE

Landing on Contaminated Runways



Airport WX

Cumulonimbus




Metar
KFKL 071414Z AUTO 29008KT 10SM -RA SCT014 BKN022 OVC030 14/11 A2997 RMK AO2 RAB11 P0000








Description
Venango Regional Airport, also known as Chess Lamberton Field, is a public use airport located 4 km southwest of the central business district of Franklin, a city in Venango County, Pennsylvania.
Climatology
Humid continental climate (Köppen climate classification Dfa) - characterized by four seasons: cold, windy, snowy winters, mild springs, hot, humid summers, and crisp and relatively short autumns. Precipitation reaches its lowest in January and February and peaks in summer and latter half of spring.














Airport map






Aerial View