KHOU








William P. Hobby Airport





Airport

ICAO code


  KHOU






Summary

ICAO Region

NAM



ICAO Territory





United States






 








Location

Houston, Texas,




Elevation

46 ft



Coordinates



    29°
    39'
          15"
        N
  
      ,
    
    95°
    16'
          36"
        W
  




KCC

Cfa




Metar
KHOU 071353Z 04017G25KT 10SM FEW021 24/19 A2994 RMK AO2 PK WND 03031/1337 SLP143 T02390189 $








Description
William P. Hobby Airport is a public use airport located 11km from the central business district of Houston, Texas.
Climatology
Humid “subtropical” climate (Köppen climate classification Cfa) - characterized by hot, humid summers and cool winters. Significant amounts of precipitation occur in all seasons in most areas. Winter rainfall (and sometimes snowfall) is associated with large storms that the westerlies steer from west to east. Most summer rainfall occurs during thunderstorms and occasional tropical storms (hurricanes).














Airport map






Aerial View