KRIC








Richmond International Airport





Airport

ICAO code


  KRIC






Summary

ICAO Region

NAM



ICAO Territory





United States






 








Location

Richmond, Virginia,




Coordinates



    37°
    30'
          27"
        N
  
      ,
    
    77°
    20'
          1"
        W
  




KCC

Cfa




Metar
KRIC 071354Z 17005KT 10SM SCT007 BKN180 22/19 A2986 RMK AO2 SLP116 T02220194








Description
Richmond International Airport is a joint civil-military public airport, located in Henrico County, 11 km southeast of the central business district of Richmond, Virginia.
Climatology
Humid “subtropical” climate (Köppen climate classification Cfa) - characterized by hot, humid summers and cool winters. Significant amounts of precipitation occur in all seasons in most areas. Winter rainfall (and sometimes snowfall) is associated with large storms that the westerlies steer from west to east. Most summer rainfall occurs during thunderstorms and occasional tropical storms (hurricanes).






Runways






Designator
Length
Width
Surface
Rops




7/25          
1623          
30          
ASP          
Yes/Yes          


2/20          
2014          
46          
ASP          
Yes/Yes          


16/34          
2744          
46          
ASP          
Yes/Yes          













Airport map






Aerial View