KDCA








Ronald Reagan Washington National





Airport

ICAO code


  KDCA





IATA Code

DCA




Summary

ICAO Region

NAM



ICAO Territory





United States






 








Location

Washington, D.C., Arlington County, Virginia, District of Colombia




Serving

Washington D.C.



Elevation

15 ft



Coordinates



    38°
    51'
          7"
        N
  
      ,
    
    77°
    2'
          15"
        W
  




KCC

Cfa




Metar
KDCA 071221Z 17009KT 10SM BKN007 BKN250 21/19 A2985 RMK AO2 T02110189








Description
Ronald Reagan Washington National Airport (IATA: DCA) is a public airport located 4.8 km south of downtown Washington, D.C., in Arlington County, Virginia.
Climatology
Humid “subtropical” climate (Köppen climate classification Cfa) - characterized by hot, humid summers and cool winters. Significant amounts of precipitation occur in all seasons in most areas. Winter rainfall (and sometimes snowfall) is associated with large storms that the westerlies steer from west to east. Most summer rainfall occurs during thunderstorms and occasional tropical storms (hurricanes).














Airport map






Aerial View








Airport accidents



B732, vicinity Washington National DC USA, 1982