WBGB








Bintulu Airport





Airport

ICAO code


  WBGB





IATA Code

BTU




Summary

ICAO Region

APAC



ICAO Territory





Malaysia






 








Location

Bintulu, Sarawak




Serving

Bintulu



Elevation

74 ft



Coordinates



    3°
    7'
          26"
        N
  
      ,
    
    113°
    1'
          14"
        E
  




KCC

Af




Metar
WBGB 071200Z 00000KT 9999 SCT016 29/28 Q1009








Airport located 3 nm southwest of the town of Bintulu, Sarawak, Malaysia.














Airport map






Aerial View