GVAC








Sal/Amílcar Cabral International Airport





Airport

ICAO code


  GVAC





IATA Code

SID




Summary

ICAO Region

AFI



ICAO Territory





Cape Verde






 








Location

Espargos, Sal Island, Ilhas de Barlavento




Serving

Espargos



Elevation

177 ft



Coordinates



    16°
    44'
          30"
        N
  
      ,
    
    22°
    56'
          54"
        W
  




KCC

BSh




Metar
GVAC 071500Z 05011KT 9999 FEW011 BKN014 28/20 Q1012 NOSIG








Description
International airport serving Sal, Cape Verde islands.
Climatology
Hot, semi-arid/Steppe climate (Köppen climate classification BSh) - hot, sometimes extremely hot summers and mild to warm winters, with low annual precipitation.






Runways






Designator
Length
Width
Surface
Rops




7/25          
1500          
45          
ASP          
Yes/Yes          


1/19          
3272          
45          
ASP          
Yes/Yes          













Airport map






Aerial View