SPTU








Padre Aldamiz International Airport





Airport

ICAO code


  SPTU





IATA Code

PEM




Summary

ICAO Region

CARSAM



ICAO Territory





Peru






 








Location

Puerto Maldonado, Madre de Dios




Serving

Puerto Maldonado



Elevation

659 ft



Coordinates



    12°
    36'
          49"
        S
  
      ,
    
    69°
    13'
          43"
        W
  




KCC

Aw




Metar
SPTU 071300Z 00000KT 5000 BR NSC 22/22 Q1011 RMK BIRD HAZARD RWY 01/19 PP000








Airport serving the city of Puerto Maldonado in the Madre de Dios Region of Peru.
Climatology
Tropical Savannah climate (Köppen climate classification Aw).






Runways






Designator
Length
Width
Surface
Rops




1/19          
3500          
45          
CON          
No/No          













Airport map






Aerial View