KGEG








Spokane International Airport





Airport

ICAO code


  KGEG






Summary

ICAO Region

NAM



ICAO Territory





United States






 








Location

Spokane, Washington,




Elevation

2376 ft



Coordinates



    47°
    37'
          32"
        N
  
      ,
    
    117°
    32'
          12"
        W
  




KCC

Dsb



Airport CFIT

Altimeter Temperature Error Correction



Airport WX

Mountain Waves




Metar
KGEG 071353Z 05006KT 7SM CLR 17/09 A3004 RMK AO2 SLP153 T01670094








Description
Spokane International Airport is a public use airport located 8 km west of the central business district of Spokane, in Spokane county, Washington.
Climatology
Dry-summer, humid continental climate (Köppen climate classification Dsb), with long, snowy winters and warm, dry summers.














Airport map






Aerial View