KCSG








Columbus Airport





Airport

ICAO code


  KCSG





IATA Code

CSG




Summary

ICAO Region

NAM



ICAO Territory





United States






 








Location

Columbus, Georgia




Serving

Columbus



Elevation

397 ft



Coordinates



    32°
    30'
          54"
        N
  
      ,
    
    84°
    56'
          26"
        W
  




KCC

Cfa




Metar
KCSG 071429Z VRB03KT 10SM BKN013 BKN110 23/19 A2995 RMK AO2 T02280194








Description
Columbus Airport is a public use airport located 4 nm northeast of the central business district of Columbus, a city in Muscogee County, Georgia, USA.














Airport map






Aerial View