FBMN








Maun Airport





Airport

ICAO code


  FBMN





IATA Code

MUB




Summary

ICAO Region

AFI



ICAO Territory





Botswana






 








Location

Maun, North West District




Serving

Maun



Elevation

3093 ft



Coordinates



    19°
    58'
          32"
        S
  
      ,
    
    23°
    25'
          41"
        E
  




KCC

BSh




Metar
FBMN 071500Z 02004KT 340V100 CAVOK 32/02 Q1017








Airport serving Maun in northern Botswana; an important gateway to the Okavango Delta and Moremi Game Reserve.
Climatology
Hot, semi-arid/Steppe climate (Köppen climate classification BSh)






Runways






Designator
Length
Width
Surface
Rops




8/26          
2000          
30          
ASP          
No/No          













Airport map






Aerial View