EHWO








Woensdrecht Air Base





Airport

ICAO code


  EHWO





IATA Code

WOE




Summary

ICAO Region

EUR



ICAO Territory





Netherlands






 








Location

Woensdrecht, Noord-Brabant




Serving

Woensdrecht



Elevation

63 ft



Coordinates



    51°
    26'
          57"
        N
  
      ,
    
    4°
    20'
          31"
        E
  




KCC

Cfb




Metar
EHWO 071425Z AUTO 10006KT 050V150 9999 NCD 26/17 Q1009 BLU








Woensdrecht Air Base is a military airport between the villages of Woensdrecht and Huijbergen, about 10 km south of the city of Bergen op Zoom in the Netherlands.
Climatology
Temperate Marine climate/Oceanic climate (Köppen climate classification Cfb). Moderately cool summer and comparatively warm winter with a temperature range of only 14°C. Prevailing south-westerly winds from the Atlantic Ocean.






Runways






Designator
Length
Width
Surface
Rops




7/25          
2437          
45          
ASP          
Yes/Yes          













Airport map






Aerial View