KCNY








Canyonlands Regional Airport





Airport

ICAO code


  KCNY





IATA Code

CNY




Summary

ICAO Region

NAM



ICAO Territory





United States






 








Location

Moab, Utah




Serving

Moab



Elevation

4590 ft



Coordinates



    38°
    45'
          17"
        N
  
      ,
    
    109°
    45'
          17"
        W
  




KCC

BSh



Airport RE

Hot and High Operations




Metar
KCNY 071353Z AUTO 15003KT 10SM CLR 17/05 A3022 RMK AO2 SLP183 T01670050








Description
Canyonlands Regional Airport, also known as Canyonlands Field, is a public use airport in Grand County, Utah, located 21 nm northwest of the central business district of Moab, Utah.














Airport map






Aerial View