LEST








Santiago de Compostela





Airport

ICAO code


  LEST






Summary

ICAO Region

EUR



ICAO Territory





Spain






 








Location

Lavacolla,




Coordinates



    42°
    53'
          51"
        N
  
      ,
    
    8°
    25'
          14"
        W
  




KCC

Csa




Metar
LEST 071300Z 12004KT 090V160 9999 SCT019 SCT025 BKN035 17/12 Q1013 NOSIG








Description
Santiago de Compostela Airport is one of the three international airports in Galicia, Spain. It is located in Lavacolla, a town 16 km from Galicia's capital city, Santiago de Compostela.
Climatology
Dry-summer subtropical ”Mediterranean" climate (Köppen climate classification Csa) - characterized by hot, dry summers and mild winters. During the summer, subtropical high pressure cells dominate, making rainfall unlikely except for the occasional thunderstorm. In the winter, periodic storms bring rain (snow at higher elevations).






Runways






Designator
Length
Width
Surface
Rops




17/35          
3200          
45          
ASP          
Yes/Yes          













Airport map






Aerial View








Airport accidents



A319, Santiago de Compostela Spain, 2016
C500, vicinity Santiago Spain, 2012