LFOE








Évreux-Fauville (BA 105) Air Base





Airport

ICAO code


  LFOE






Summary

ICAO Region

EUR



ICAO Territory





France






 








Location

, Haute-Normandie




Serving

Evreux



Elevation

464 ft



Coordinates



    49°
    1'
          43"
        N
  
      ,
    
    1°
    13'
          12"
        E
  





Metar
LFOE 071400Z AUTO 15005KT 9999 FEW020 OVC056 20/16 Q1008 TEMPO VRB20G35KT 1200 TSRAGR BKN008 BKN020CB









Runways






Designator
Length
Width
Surface
Rops




4/22          
2995          
45          
ASP          
No/No          













Airport map






Aerial View