KDRO








Durango-La Plata County Airport





Airport

ICAO code


  KDRO





IATA Code

DRO




Summary

ICAO Region

NAM



ICAO Territory





United States






 








Location

Durango, Colorado




Serving

Durango



Elevation

6685 ft



Coordinates



    37°
    9'
          39"
        N
  
      ,
    
    107°
    45'
          4"
        W
  




KCC

BSk



Airport RE

Hot and High Operations




Metar
KDRO 071353Z AUTO 02003KT 10SM CLR 12/06 A3046 RMK AO2 SLP242 T01220056








Description
Durango–La Plata County Airport is a public airport located 12 nm southeast of the central business district of Durango, a city in La Plata County, Colorado.














Airport map






Aerial View