LEVD








Valladolid Airport





Airport

ICAO code


  LEVD





IATA Code

VLL




Summary

ICAO Region

EUR



ICAO Territory





Spain






 








Location

, Castilla y Leon




Serving

Valladolid



Elevation

2776 ft



Coordinates



    41°
    42'
          22"
        N
  
      ,
    
    4°
    51'
          7"
        W
  





Metar
LEVD 071400Z 25011KT 220V290 CAVOK 20/06 Q1012 NOSIG









Runways






Designator
Length
Width
Surface
Rops




15/33          
907          
60          
GRE          
No/No          


5/23          
3000          
60          
ASP          
Yes/Yes          













Airport map






Aerial View