ETHN








Niederstetten Air Base





Airport

ICAO code


  ETHN






Summary

ICAO Region

EUR



ICAO Territory





Germany






 








Location

Niederstetten, Baden-Württemberg,




Coordinates



    49°
    23'
          26"
        N
  
      ,
    
    9°
    57'
          41"
        E
  





Metar
ETHN 071420Z 10007KT 9999 FEW050 28/16 Q1012 BLU+








Description
Niederstetten Air Base is located 4 km east of the city of Niederstetten in Northern Baden-Württemberg, Germany.






Runways






Designator
Length
Width
Surface
Rops




7/25          
1012          
30          
ASP          
No/No          













Airport map






Aerial View