PAGK








Gulkana Airport





Airport

ICAO code


  PAGK





IATA Code

GKN




Summary

ICAO Region

NAM



ICAO Territory





Alaska






 








Location

, Alaska




Serving

Gulkana



Elevation

1586 ft



Coordinates



    62°
    9'
          18"
        N
  
      ,
    
    145°
    27'
          24"
        W
  





Metar
PAGK 071253Z AUTO 20004KT 10SM OVC055 08/05 A2988 RMK AO2 SLP122 T00780050 TSNO









Runways






Designator
Length
Width
Surface
Rops




15/33          
1524          
30          
ASPH-G          
No/No          













Airport map






Aerial View