WMKD








Kuantan/Sultan Haji Ahmad Shah Airport





Airport

ICAO code


  WMKD





IATA Code

KUA




Summary

ICAO Region

APAC



ICAO Territory





Malaysia






 








Location

Kuantan, Pahang




Serving

Kuantan



Elevation

55 ft



Coordinates



    3°
    46'
          31"
        N
  
      ,
    
    103°
    12'
          32"
        E
  




KCC

Af




Metar
WMKD 071200Z 13004KT 110V220 9999 FEW025 29/26 Q1009 NOSIG








Sultan Ahmad Shah Airport is an airport that serves Kuantan, a city in the state of Pahang in Malaysia. The airport is located 9 nm west of the city.
 














Airport map






Aerial View