EKAH








Aarhus Airport





Airport

ICAO code


  EKAH





IATA Code

AAR




Summary

ICAO Region

EUR



ICAO Territory





Denmark






 








Location

Tirstrup, Central Jutland Region




Serving

Aarhus



Elevation

82 ft



Coordinates



    56°
    18'
          11"
        N
  
      ,
    
    10°
    37'
          4"
        E
  




KCC

Cfb




Metar
EKAH 071220Z AUTO 09009KT 9999 SCT180/// 24/16 Q1016








Description
International airport serving Aarhus, Denmark.
Climatology
Temperate Marine climate/Oceanic climate (Köppen climate classification Cfb). Moderately cool summer and comparatively warm winter with a temperature range of only 14°C. Prevailing south-westerly winds from the Atlantic Ocean.






Runways






Designator
Length
Width
Surface
Rops




10R/28L          
2702          
45          
PEM          
Yes/Yes          


10L/28R          
2777          
23          
PEM          
Yes/Yes          













Airport map






Aerial View








Airport accidents



C56X, Aarhus Denmark, 2019