SEMT








Eloy Alfaro International Airport





Airport

ICAO code


  SEMT





IATA Code

MEC




Summary

ICAO Region

CARSAM



ICAO Territory





Ecuador






 








Location

, Manabi




Serving

Manta



Elevation

48 ft



Coordinates



    0°
    56'
          46"
        S
  
      ,
    
    80°
    40'
          44"
        W
  





Metar
SEMT 071300Z 18009KT 9999 OVC020 22/19 Q1010 RMK A2984









Runways






Designator
Length
Width
Surface
Rops




5/23          
2860          
45          
ASP          
No/No          













Airport map






Aerial View