LSGS








Sion Airport





Airport

ICAO code


  LSGS





IATA Code

SIR




Summary

ICAO Region

EUR



ICAO Territory





Switzerland






 








Location

Sion, Valais




Serving

Sion



Elevation

1585 ft



Coordinates



    46°
    13'
          11"
        N
  
      ,
    
    7°
    19'
          36"
        E
  




KCC

Cfb




Metar
LSGS 071420Z 07017KT 050V110 9999 FEW100 29/12 Q1011








Sion Airport is the airport of the city of Sion, Switzerland and is located 2.5 km SW of Sion in the Rhone Valley.
Climatology
Temperate Marine climate/Oceanic climate (Köppen climate classification Cfb).






Runways






Designator
Length
Width
Surface
Rops




7/25          
0          
0          
UNK          
Yes/Yes          


07L/25R          
555          
30          
GRS          
No/No          


07R/25L          
2000          
40          
ASP          
No/No          













Airport map






Aerial View