CYSJ








Saint John Airport





Airport

ICAO code


  CYSJ





IATA Code

YSJ




Summary

ICAO Region

NAM



ICAO Territory





Canada






 








Location

Saint John, New Brunswick,




Serving

Saint John



Elevation

357 ft



Coordinates



    45°
    19'
          45"
        N
  
      ,
    
    65°
    53'
          25"
        W
  




KCC

Dfb




Metar
CYSJ 071426Z 05007G16KT 2SM R05/5000VP6000FT/U RA BR BKN007 OVC042 17/17 A2985 RMK FG2SF4SC2 SLP112 DENSITY ALT 800FT








Description
Saint John Airport is an airport located 8 nm east northeast of Saint John, New Brunswick, Canada.
Climatology
Humid Continental climate (Köppen climate classification Dfb) - Variable weather patterns and a large seasonal temperature variance. Summers are often warm and humid with frequent thunderstorms and winters can be very cold with frequent snowfall and persistent snow cover.






Runways






Designator
Length
Width
Surface
Rops




14/32          
1554          
61          
ASP          
Yes/Yes          


5/23          
2134          
61          
ASP          
Yes/Yes          













Airport map






Aerial View








Airport accidents



F28, Saint John NB Canada, 2002