DAUI








In Salah Airport





Airport

ICAO code


  DAUI





IATA Code

INZ




Summary

ICAO Region

AFI



ICAO Territory





Algeria






 








Location

, Tamanghasset




Serving

In Salah



Elevation

896 ft



Coordinates



    27°
    15'
          4"
        N
  
      ,
    
    2°
    30'
          43"
        E
  





Metar
DAUI 071200Z 09006KT 040V130 CAVOK 33/23 Q1016









Runways






Designator
Length
Width
Surface
Rops




5/23          
3000          
45          
ASP          
No/No          













Airport map






Aerial View