SERO








Coronel Artilleria Victor Larrea Airport





Airport

ICAO code


  SERO






Summary

ICAO Region

CARSAM



ICAO Territory





Ecuador






 








Location

, El Oro




Serving

Santa Rosa



Elevation

170 ft



Coordinates



    3°
    26'
          7"
        S
  
      ,
    
    79°
    58'
          40"
        W
  





Metar
SERO 071300Z 09002KT 9999 SCT010 OVC015 22/19 Q1012









Runways






Designator
Length
Width
Surface
Rops




9/27          
992          
18          
ASP          
No/No          













Airport map






Aerial View