LFKB








Bastia - Poretta Airport





Airport

ICAO code


  LFKB





IATA Code

BIA




Summary

ICAO Region

EUR



ICAO Territory





France






 








Location

Lucciana, Haute-Corse




Serving

Bastia



Elevation

26 ft



Coordinates



    42°
    33'
          9"
        N
  
      ,
    
    9°
    29'
          1"
        E
  




KCC

Csa



Airport BS

Bird Strike




Metar
LFKB 071400Z AUTO 13014KT 9999 FEW012 SCT020 28/25 Q1013 TEMPO 14015G25KT








Description
International airport serving northern Corsica.
Climatology
Dry-summer subtropical ”Mediterranean" climate (Köppen climate classification Csa) - characterized by hot, dry summers and mild winters. During the summer, subtropical high pressure cells dominate, making rainfall unlikely except for the occasional thunderstorm. In the winter, periodic storms bring rain (snow at higher elevations).






Runways






Designator
Length
Width
Surface
Rops




16/34          
2519          
45          
ASP          
Yes/Yes          













Airport map






Aerial View