KHGR








Hagerstown Regional Airport





Airport

ICAO code


  KHGR





IATA Code

HGR




Summary

ICAO Region

NAM



ICAO Territory





United States






 








Location

Hagerstown, Maryland




Serving

Hagerstown



Elevation

703 ft



Coordinates



    39°
    42'
          18"
        N
  
      ,
    
    77°
    43'
          53"
        W
  




KCC

Dfa



Airport WX

Cumulonimbus




Metar
KHGR 071433Z 33006KT 7SM -RA FEW023 BKN045 OVC055 16/14 A2993 RMK AO2 P0004 T01610144








Hagerstown Regional Airport, also known as Richard A. Henson Field, is a public-use airport located 7 km north of the central business district of Hagerstown, in Washington County, Maryland.














Airport map






Aerial View