SVBC








General José Antonio Anzoátegui International Airport





Airport

ICAO code


  SVBC





IATA Code

BLA




Summary

ICAO Region

CARSAM



ICAO Territory





Venezuela






 








Location

Barcelona, Anzoategui




Serving

Barcelona



Elevation

26 ft



Coordinates



    10°
    6'
          26"
        N
  
      ,
    
    64°
    41'
          21"
        W
  




KCC

Aw




Metar
SVBC 071503Z AUTO 16009KT NCD 30/25 Q1012








General José Antonio Anzoátegui International Airport is an airport serving Barcelona, Venezuela.
Climatology
Tropical rainforest climate (Köppen climate classification Aw)






Runways






Designator
Length
Width
Surface
Rops




2/20          
2499          
38          
ASP          
Yes/Yes          


15/33          
2999          
40          
ASP          
Yes/Yes          













Airport map






Aerial View