CYYJ








Victoria International





Airport

ICAO code


  CYYJ






Summary

ICAO Region

NAM



ICAO Territory





Canada






 








Location

North Saanich, British Columbia,




Coordinates



    48°
    38'
          49"
        N
  
      ,
    
    123°
    25'
          34"
        W
  




KCC

Cfb




Metar
CYYJ 071400Z 27003KT 30SM FEW150 FEW250 15/13 A2993 RMK AC1CI2 AC TR FU SLP137








Description
Victoria International Airport serves Victoria, British Columbia, Canada. It is 12 nm north northwest of the city, in North Saanich, quite close to the town of Sidney on the Saanich Peninsula.
Climatology
Temperate Marine climate/Oceanic climate (Köppen climate classification Cfb). Moderately cool summer and comparatively warm winter.






Runways






Designator
Length
Width
Surface
Rops




13/31          
1525          
61          
ASP          
Yes/Yes          


2/20          
1532          
61          
ASP          
Yes/Yes          


9/27          
2134          
61          
ASP          
Yes/Yes          













Airport map






Aerial View