LCLK








Larnaca International Airport





Airport

ICAO code


  LCLK





IATA Code

LCA




Summary

ICAO Region

EUR



ICAO Territory





Cyprus






 








Location

Larnaca, Larnaca




Serving

Larnaca



Coordinates



    34°
    52'
          24"
        N
  
      ,
    
    33°
    37'
          24"
        E
  




KCC

Csa




Metar
LCLK 071400Z 21013KT 9999 FEW040 33/24 Q1007 NOSIG








Description
Larnaca International Airport is an international airport located 4 km southwest of Larnaca, Cyprus. Larnaca International Airport is Cyprus' main international gateway and the larger of the country's two commercial airports, the other being Paphos International Airport on the island's southwestern coast. Larnaca serves Larnaca, Nicosia and Famagusta.
Climatology
Dry-summer subtropical ”Mediterranean" climate (Köppen climate classification Csa) - characterized by hot, dry summers and mild winters. During the summer, subtropical high pressure cells dominate, making rainfall unlikely except for the occasional thunderstorm. In the winter, periodic storms bring rain (snow at higher elevations).






Runways






Designator
Length
Width
Surface
Rops




4/22          
2980          
45          
ASP          
Yes/Yes          













Airport map






Aerial View