EDDS








Stuttgart Airport





Airport

ICAO code


  EDDS





IATA Code

STR




Summary

ICAO Region

EUR



ICAO Territory





Germany






 








Location

Echterdingen, Stuttgart,




Serving

Stuttgart



Elevation

1276 ft



Coordinates



    48°
    41'
          17"
        N
  
      ,
    
    9°
    12'
          37"
        E
  




KCC

Cfb




Metar
EDDS 071420Z AUTO 06006KT 040V110 CAVOK 28/14 Q1011








Description
International airport serving Stuttgart, Germany.
Climatology
Temperate Marine climate/Oceanic climate (Köppen climate classification Cfb) - Moderately cool summer and comparatively warm winter.






Runways






Designator
Length
Width
Surface
Rops




7/25          
3345          
45          
CON          
Yes/Yes          













Airport map






Aerial View








Airport accidents



A319 / WT9, vicinity Stuttgart Germany, 2017
E145, Stuttgart Germany, 2009
B738, Stuttgart Germany, 2005