FNHU








Huambo/Albano Machado Airport





Airport

ICAO code


  FNHU





IATA Code

NOV




Summary

ICAO Region

AFI



ICAO Territory





Angola






 








Location

Huambo, Huambo




Serving

Huambo



Elevation

5587 ft



Coordinates



    12°
    48'
          32"
        S
  
      ,
    
    15°
    45'
          38"
        E
  





Metar
FNHU 071400Z 03007KT 9000 FU 30/02 Q1020 NSC








The Albano Machado Airport is a public airport located southeast of Huambo, a city in Angola. It used to be named the Nova Lisboa Airport, since in colonial times the city was called Nova Lisboa, or New Lisbon.






Runways






Designator
Length
Width
Surface
Rops




1/19          
1000          
0          
UNK          
No/No          


11/29          
2660          
45          
ASP          
No/No          













Airport map






Aerial View