FQIN








Inhambane Airport





Airport

ICAO code


  FQIN





IATA Code

INH




Summary

ICAO Region

AFI



ICAO Territory





Mozambique






 








Location

Inhambane,




Serving

Inhambane



Elevation

30 ft



Coordinates



    23°
    52'
          35"
        S
  
      ,
    
    35°
    24'
          30"
        E
  





Metar
FQIN 071400Z 06010KT 9999 SCT020 27/23 Q1019









Runways






Designator
Length
Width
Surface
Rops




6/24          
800          
30          
SAN          
No/No          


16/34          
1500          
30          
ASP          
No/No          













Airport map






Aerial View