YPDN








Darwin International Airport





Airport

ICAO code


  YPDN





IATA Code

DRW




Summary

ICAO Region

APAC



ICAO Territory





Australia






 








Location

Marrara, Northern Territory




Serving

Darwin



Elevation

103 ft



Coordinates



    12°
    24'
          54"
        S
  
      ,
    
    130°
    52'
          40"
        E
  




KCC

Aw




Metar
YPDN 071330Z AUTO 18003KT 9999 // NCD 27/22 Q1015 RF00.0/000.0








Darwin International Airport serves the city of Darwin and the rest of the Australian Northern Territory. It is classified as a joint (civil/military) use aerodrome and is located in the northern Darwin suburb of Marrara,13 km from the city centre, .
Climatology
Tropical Savanna climate (Köppen climate classification Aw).














Airport map






Aerial View








Airport accidents



DH8C, Darwin NT Australia, 2019
B738, Darwin Australia, 2016