SAWC








Comandante Armando Tola International Airport





Airport

ICAO code


  SAWC





IATA Code

FTE




Summary

ICAO Region

CARSAM



ICAO Territory





Argentina






 








Location

El Calafate, Santa Cruz




Serving

El Calafate



Elevation

669 ft



Coordinates



    50°
    16'
          49"
        S
  
      ,
    
    72°
    3'
          11"
        W
  




KCC

BSk




Metar
SAWC 071300Z 35004KT 290V020 9999 FEW030 07/01 Q0996








Airport 21nm east of the city of El Calafate, Santa Cruz province, Argentina.
Climatology
Cold, semi-arid climate (Köppen climate classification BSk).






Runways






Designator
Length
Width
Surface
Rops




7/25          
2550          
45          
CON          
Yes/Yes          













Airport map






Aerial View