VTBD








Bangkok/Don Mueang International Airport





Airport

ICAO code


  VTBD





IATA Code

DMK




Summary

ICAO Region

APAC



ICAO Territory





Thailand






 








Location

Don Mueang, Bangkok,




Serving

Bangkok



Elevation

9 ft



Coordinates



    13°
    54'
          50"
        N
  
      ,
    
    100°
    36'
          14"
        E
  




KCC

Aw




Metar
VTBD 071230Z 30006KT 240V330 9999 FEW020 31/23 Q1006 NOSIG








Don Mueang International Airport is one of two international airports serving the Bangkok Metropolitan Region, the other one being Suvarnabhumi Airport (BKK). Before Suvarnabhumi opened in 2006, Don Mueang was previously known as Bangkok International Airport.
Climatology
Tropical Savanna climate (Köppen climate classification Aw)














Airport map






Aerial View








Airport accidents



B744, Bangkok Thailand, 1999