MRPV








Tobías Bolaños International Airport





Airport

ICAO code


  MRPV





IATA Code

SYQ




Summary

ICAO Region

CARSAM



ICAO Territory





Costa Rica






 








Location

San José, Alajuela Province




Serving

San José



Elevation

3287 ft



Coordinates



    9°
    57'
          27"
        N
  
      ,
    
    84°
    8'
          25"
        W
  




KCC

Aw




Metar
MRPV 071400Z 35002KT 9999 FEW015 BKN200 23/19 A2999 NOSIG








Tobías Bolaños International Airport is an international airport in Costa Rica and the secondary airport serving the city capital of San José after Juan Santamaría International Airport.
Climatology
Tropical savannah climate (Köppen climate classification Aw)






Runways






Designator
Length
Width
Surface
Rops




9/27          
1600          
18          
ASP          
No/No          













Airport map






Aerial View