LELO








Logroño-Agoncillo Airport





Airport

ICAO code


  LELO





IATA Code

RJL




Summary

ICAO Region

EUR



ICAO Territory





Spain






 








Location

,




Serving

Logroño-Agoncillo



Elevation

1161 ft



Coordinates



    42°
    27'
          15"
        N
  
      ,
    
    2°
    19'
          15"
        W
  





Metar
LELO 071400Z AUTO 29006KT 250V020 CAVOK 24/10 Q1011

















Airport map






Aerial View