PFYU








Fort Yukon Airport





Airport

ICAO code


  PFYU





IATA Code

FYU




Summary

ICAO Region

NAM



ICAO Territory





Alaska






 








Location

, Alaska




Serving

Fort Yukon



Elevation

433 ft



Coordinates



    66°
    34'
          17"
        N
  
      ,
    
    145°
    15'
          2"
        W
  





Metar
PFYU 071256Z AUTO 00000KT 5SM BR SCT065 OVC080 10/09 A2967 RMK AO2 RAB11E31 SLP057 P0000 T01000094









Runways






Designator
Length
Width
Surface
Rops




4/22          
1771          
46          
GRVL-G          
No/No          













Airport map






Aerial View