RCNN








Tainan Airport





Airport

ICAO code


  RCNN





IATA Code

TNN




Summary

ICAO Region

APAC



ICAO Territory





China






 








Location

Tainan, Tainan




Serving

Tainan



Elevation

63 ft



Coordinates



    22°
    57'
          1"
        N
  
      ,
    
    120°
    12'
          21"
        E
  





Metar
RCNN 071300Z 11003KT 9999 FEW012 SCT030 BKN050 27/25 Q1012 RMK A2989









Runways






Designator
Length
Width
Surface
Rops




18L/36R          
3050          
45          
CON          
Yes/Yes          


18R/36L          
3050          
45          
CON          
Yes/Yes          













Airport map






Aerial View