YBCS








Cairns Airport





Airport

ICAO code


  YBCS





IATA Code

CNS




Summary

ICAO Region

APAC



ICAO Territory





Australia






 








Location

Cairns, Queensland




Serving

Cairns



Elevation

10 ft



Coordinates



    16°
    52'
          36"
        S
  
      ,
    
    145°
    45'
          15"
        E
  




KCC

Cfa




Metar
YBCS 071400Z AUTO 16011KT 9999 // FEW033 OVC065 22/18 Q1019








Description
Cairns Airport is an international airport in Cairns, Queensland, Australia.
Climatology
Humid “subtropical” climate (Köppen climate classification Cfa) - characterized by hot, humid summers and cool winters. Significant amounts of precipitation occur in all seasons in most areas. Most summer rainfall occurs during thunderstorms and occasional tropical storms.














Airport map






Aerial View