KECP








Northwest Florida Beaches International Airport





Airport

ICAO code


  KECP






Summary

ICAO Region

NAM



ICAO Territory





United States






 








Location

Panama City Beach, Florida,




Elevation

69 ft



Coordinates



    30°
    21'
          18"
        N
  
      ,
    
    85°
    47'
          58"
        W
  




KCC

Cfa




Metar
KECP 071253Z 05003KT 5SM BR BKN002 BKN085 OVC100 24/24 A2987 RMK AO1 RAB11E40 SLP125 P0000 T02390239








Description
The Northwest Florida Beaches International Airport is an international airport located north of Panama City Beach, Florida.
Climatology
Humid “subtropical” climate (Köppen climate classification Cfa) - characterized by hot, humid summers and cool winters. Significant amounts of precipitation occur in all seasons in most areas.














Airport map






Aerial View