LFMI








Istres Le Tubé/Istres Air Base (BA 125) Airport





Airport

ICAO code


  LFMI






Summary

ICAO Region

EUR



ICAO Territory





France






 








Location

, Provence-Alpes-Cote d&#039;Azur




Serving

Istres



Elevation

82 ft



Coordinates



    43°
    31'
          22"
        N
  
      ,
    
    4°
    55'
          26"
        E
  





Metar
LFMI 071400Z AUTO 15024KT CAVOK 31/20 Q1009 BECMG 14020G35KT









Runways






Designator
Length
Width
Surface
Rops




15/33          
3750          
60          
ASP          
Yes/Yes          













Airport map






Aerial View