DTTJ








Djerba-Zarzis





Airport

ICAO code


  DTTJ






Summary

ICAO Region

AFI



ICAO Territory





Tunisia






 








Location

Djerba, Tunisia,




Coordinates



    33°
    52'
          30"
        N
  
      ,
    
    10°
    46'
          32"
        E
  




KCC

BSh




Metar
DTTJ 071200Z 34007KT 310V010 CAVOK 36/22 Q1013








Description
Djerba - Zarzis International Airport is an airport serving Djerba in Tunisia.
Climatology
(Köppen climate classification BSh)






Runways






Designator
Length
Width
Surface
Rops




9/27          
3100          
45          
ASP          
Yes/Yes          













Airport map






Aerial View