OIMB








Birjand International Airport





Airport

ICAO code


  OIMB





IATA Code

XBJ




Summary

ICAO Region

MID



ICAO Territory





Iran






 








Location

Birjand, South Khorasan




Serving

Birjand



Elevation

4952 ft



Coordinates



    32°
    53'
          22"
        N
  
      ,
    
    59°
    17'
          23"
        E
  




KCC

BWk




Metar
OIMB 071400Z 05014KT CAVOK 32/M10 Q1015 A2998








Airport 5km northeast of Birjand, in eastern Iran.
Climatology
Cold desert climate (Köppen climate classification BWk).






Runways






Designator
Length
Width
Surface
Rops




8/26          
2162          
25          
ASP          
No/No          


10/28          
2902          
45          
ASP          
No/No          













Airport map






Aerial View