KCMX








Houghton County Memorial Airport





Airport

ICAO code


  KCMX





IATA Code

CMX




Summary

ICAO Region

NAM



ICAO Territory





United States






 








Location

Calumet, Michigan




Serving

Houghton County



Elevation

1095 ft



Coordinates



    47°
    10'
          6"
        N
  
      ,
    
    88°
    29'
          20"
        W
  




KCC

Dfb



Airport CFIT

Altimeter Temperature Error Correction



Airport WX

Lake Effect Snow




Metar
KCMX 071353Z AUTO 34008G17KT 10SM BKN026 11/04 A3027 RMK AO2 SLP258 T01060044








Houghton County Memorial Airport is a public use airport located 4 nm southwest of the central business district of Calumet, a village in Houghton County, Michigan, USA.














Airport map






Aerial View