ULLI








St Petersburg/Pulkovo





Airport

ICAO code


  ULLI






Summary

ICAO Region

EUR



ICAO Territory





Russian Federation






 








Location

St Petersburg, Russia,




Coordinates



    59°
    48'
          1"
        N
  
      ,
    
    30°
    15'
          45"
        E
  




KCC

Dfb




Metar
ULLI 071230Z 20004MPS 160V220 CAVOK 23/11 Q1027 R88/090060 NOSIG








Description
International airport serving city of St Petersburg, Russia.
Climatology
Humid Continental climate (Köppen climate classification Dfb) - Variable weather patterns and a large seasonal temperature variance. Summers are often warm and humid with frequent thunderstorms and winters can be very cold with frequent snowfall and persistent snow cover.






Runways






Designator
Length
Width
Surface
Rops




10L/28R          
3397          
60          
CON          
Yes/Yes          


10R/28L          
3780          
60          
CON          
Yes/Yes          













Airport map






Aerial View