RJTT








Tokyo Haneda International Airport





Airport

ICAO code


  RJTT





IATA Code

HND




Summary

ICAO Region

APAC



ICAO Territory





Japan






 








Location

Ōta, Tokyo Metropolis




Serving

Tokyo



Elevation

21 ft



Coordinates



    35°
    32'
          56"
        N
  
      ,
    
    139°
    47'
          2"
        E
  




KCC

Cfa



Airport LOS

Parallel Runway Operation



Airport WX

Tropical Revolving Storm




Metar
RJTT 071300Z 19012KT 9999 FEW030 28/25 Q1013 NOSIG








The primary international airport serving the Greater Tokyo Area. It is located in Ōta, Tokyo, 14 km south of Tokyo Station, Japan.
Climatology
Humid subtropical climate (Köppen climate classification Cfa).






Runways






Designator
Length
Width
Surface
Rops




4/22          
2499          
61          
ASP          
Yes/Yes          


16L/34R          
2999          
61          
ASP          
Yes/Yes          


16R/34L          
2999          
61          
ASP          
Yes/Yes          













Airport map






Aerial View








Airport accidents



A320 / Vehicle, Tokyo Haneda Japan, 2019
A320, vicinity Tokyo Haneda Japan, 2016
B773, Tokyo Haneda Japan, 2016