SEST








San Cristóbal Airport





Airport

ICAO code


  SEST





IATA Code

SCY




Summary

ICAO Region

CARSAM



ICAO Territory





Ecuador






 








Location

San Cristóbal, Galapagos




Serving

San Cristóbal



Elevation

62 ft



Coordinates



    0°
    54'
          37"
        S
  
      ,
    
    89°
    37'
          3"
        W
  





Metar
SEST 062200Z 18011KT 9999 SCT013 24/22 Q1008 RMK A2977








San Cristóbal Airport is an airport on the island of San Cristóbal, on the Galápagos Islands, Ecuador.






Runways






Designator
Length
Width
Surface
Rops




16/34          
1894          
20          
ASP          
No/No          













Airport map






Aerial View