KMOD








Modesto City - County Airport





Airport

ICAO code


  KMOD





IATA Code

MOD




Summary

ICAO Region

NAM



ICAO Territory





United States






 








Location

Modesto, California




Serving

Modesto



Elevation

97 ft



Coordinates



    37°
    37'
          33"
        N
  
      ,
    
    120°
    57'
          11"
        W
  




KCC

Csb



Airport LOS

Parallel Runway Operation




Metar
KMOD 071353Z 00000KT 10SM CLR 21/09 A2986 RMK AO2 SLP111 T02110089








Modesto City-County Airport, also known as Harry Sham Field, is located 2 nm southeast of the central business district of Modesto, a city in Stanislaus County, California, USA.






Runways






Designator
Length
Width
Surface
Rops




10R/28L          
1054          
30          
ASP          
Yes/Yes          


10L/28R          
1802          
46          
ASP          
Yes/Yes          













Airport map






Aerial View