TJSJ








San Juan





Airport

ICAO code


  TJSJ






Summary

ICAO Region

CARSAM



ICAO Territory





Puerto Rico






 








Location

Carolina,




Coordinates



    18°
    26'
          22"
        N
  
      ,
    
    66°
    0'
          6"
        W
  




KCC

Am




Metar
TJSJ 071156Z 10004KT 10SM FEW029 SCT095 SCT120 29/27 A2988 RMK AO2 SLP115 60008 70041 T02940267 10294 20267 51015 $








Description
Luis Muñoz Marín International Airport is a joint civil-military public airport located in Carolina, Puerto Rico, 5 km southeast of San Juan.
Climatology
Tropical Monsoon climate (Köppen climate classification Am) - monthly mean temperatures above 18°C in every month of the year and features wet and dry seasons. A tropical monsoon climate typically features less pronounced dry seasons than a tropical savanna climate and see less variance in temperatures during the course of the year. The driest month nearly always occurs at or soon after the "winter" solstice.






Runways






Designator
Length
Width
Surface
Rops




10/28          
2443          
46          
CON          
Yes/Yes          


8/26          
3049          
61          
ASP          
Yes/Yes          













Airport map






Aerial View








Airport accidents



CVLP, vicinity San Juan Puerto Rico, 2012