KOTH








Southwest Oregon Regional Airport





Airport

ICAO code


  KOTH






Summary

ICAO Region

NAM



ICAO Territory





United States






 








Location

North Bend, Oregon,




Coordinates



    43°
    24'
          59"
        N
  
      ,
    
    124°
    14'
          48"
        W
  




KCC

Csb



Airport BS

Bird Strike




Metar
KOTH 071356Z 01004KT 1SM BR OVC003 15/15 A2994 RMK AO2 SLP137 T01500150 RVRNO








Description
Southwest Oregon Regional Airport, formerly North Bend Municipal Airport, is a public use airport located in North Bend, Coos County, Oregon.
Climatology
Oceanic/Dry-summer subtropical ”Mediterranean" climate (Köppen climate classification Csb) - characterized by warm, dry summers and mild winters.






Runways






Designator
Length
Width
Surface
Rops




13/31          
1363          
46          
ASP          
Yes/Yes          


4/22          
1622          
46          
ASP          
Yes/Yes          













Airport map






Aerial View