HEAT








Assiut International Airport





Airport

ICAO code


  HEAT





IATA Code

ATZ




Summary

ICAO Region

AFI



ICAO Territory





Egypt






 








Location

Asyut, Al Wadi al Jadid




Serving

Asyut



Elevation

772 ft



Coordinates



    27°
    2'
          47"
        N
  
      ,
    
    31°
    0'
          43"
        E
  





Metar
HEAT 071200Z 28015KT CAVOK 37/15 Q1013 NOSIG









Runways






Designator
Length
Width
Surface
Rops




13/31          
3019          
45          
ASP          
No/No          













Airport map






Aerial View