RJOR








Tottori Airport





Airport

ICAO code


  RJOR





IATA Code

TTJ




Summary

ICAO Region

APAC



ICAO Territory





Japan






 








Location

Tottori, Tottori Prefecture




Serving

Tottori



Elevation

48 ft



Coordinates



    35°
    31'
          36"
        N
  
      ,
    
    134°
    10'
          5"
        E
  




KCC

Cfa




Metar
RJOR 071200Z 18003KT 150V220 9999 FEW025 SCT060 27/24 Q1014








Tottori Airport is an airport serving the city of Tottori, Tottori Prefecture, Japan.
Climatology
Humid Sub-tropical climate (Köppen climate classification Cfa)






Runways






Designator
Length
Width
Surface
Rops




10/28          
2000          
46          
ASP          
Yes/Yes          













Airport map






Aerial View