LFBX








Périgueux-Bassillac Airport





Airport

ICAO code


  LFBX





IATA Code

PGX




Summary

ICAO Region

EUR



ICAO Territory





France






 








Location

, Aquitaine




Serving

Perigueux



Elevation

328 ft



Coordinates



    45°
    11'
          53"
        N
  
      ,
    
    0°
    48'
          56"
        E
  





Metar
LFBX 071400Z AUTO 24007KT 210V290 9999 FEW020 SCT026 BKN088 22/16 Q1009









Runways






Designator
Length
Width
Surface
Rops




12/30          
1750          
30          
ASP          
No/No          













Airport map






Aerial View