EGHE








Isles of Scilly Airport





Airport

ICAO code


  EGHE





IATA Code

ISC




Summary

ICAO Region

EUR



ICAO Territory





United Kingdom






 








Location

Hugh Town, Cornwall




Serving

St Mary's



Elevation

116 ft



Coordinates



    49°
    54'
          48"
        N
  
      ,
    
    6°
    17'
          30"
        W
  




KCC

Cfb




Metar
EGHE 071420Z 01008KT 9999 FEW010 17/14 Q1010








St Mary's Airport or Isles of Scilly Airport is located 1 nm east of Hugh Town on the island of St Mary's in the Isles of Scilly, Cornwall, UK. It is the only airport serving the islands.






Runways






Designator
Length
Width
Surface
Rops




18/36          
400          
45          
Grass          
No/No          


9/27          
523          
18          
Grass/Asph          
No/No          


14/32          
600          
23          
ASPHALT          
No/No          













Airport map






Aerial View