EYPA








Palanga International Airport





Airport

ICAO code


  EYPA





IATA Code

PLQ




Summary

ICAO Region

EUR



ICAO Territory





Lithuania






 








Location

Palanga, Palanga municipality




Serving

Palanga



Elevation

33 ft



Coordinates



    55°
    58'
          23"
        N
  
      ,
    
    21°
    5'
          37"
        E
  




KCC

Dfb




Metar
EYPA 071250Z 13008KT 080V160 CAVOK 28/09 Q1022








Palanga International Airport is an international airport located in the western part of Lithuania near the Baltic Sea.
Climatology
Humid continental climate (Köppen climate classification Dfb)






Runways






Designator
Length
Width
Surface
Rops




1/19          
2000          
40          
ASP          
No/No          













Airport map






Aerial View