LIPB








Bolzano Airport





Airport

ICAO code


  LIPB





IATA Code

BZO




Summary

ICAO Region

EUR



ICAO Territory





Italy






 








Location

St Jakob, South Tyrol




Serving

Bolzano



Elevation

787 ft



Coordinates



    46°
    27'
          36"
        N
  
      ,
    
    11°
    19'
          34"
        E
  




KCC

Cfa




Metar
LIPB 071350Z 19006KT 140V230 9999 FEW055 28/13 Q1015








Bolzano Airport is a small regional airport near Bolzano in the province of South Tyrol in northern Italy.
Climatology
Humid subtropical climate (Köppen climate classification Cfa)






Runways






Designator
Length
Width
Surface
Rops




01R/19L          
698          
20          
GRS          
No/No          


1/19          
1297          
30          
ASP          
No/No          













Airport map






Aerial View