KMVY








Martha's Vineyard Airport





Airport

ICAO code


  KMVY





IATA Code

MVY




Summary

ICAO Region

NAM



ICAO Territory





United States






 








Location

Vineyard Haven, Massachusetts




Serving

Martha's Vineyard



Elevation

67 ft



Coordinates



    41°
    23'
          27"
        N
  
      ,
    
    70°
    36'
          51"
        W
  




KCC

Dfb



Airport BS

Bird Strike



Airport WX

Cumulonimbus




Metar
KMVY 071353Z 32009KT 10SM SCT013 21/16 A2988 RMK AO2 SLP115 T02110161








Martha's Vineyard Airport is a public airport located in the middle of the island of Martha's Vineyard, 3 nm south of the central business district of Vineyard Haven, in Dukes County, Massachusetts, USA.






Runways






Designator
Length
Width
Surface
Rops




1/19          
968          
23          
ASP          
No/No          


15/33          
1005          
23          
ASP          
Yes/Yes          


6/24          
1678          
30          
ASP          
Yes/Yes          













Airport map






Aerial View