ENAL








Alesund/Vigra





Airport

ICAO code


  ENAL






Summary

ICAO Region

EUR



ICAO Territory





Norway






 








Location

Alesund/Vigra,




Elevation

69 ft



Coordinates



    62°
    33'
          45"
        N
  
      ,
    
    6°
    7'
          11"
        E
  




KCC

Cfb




Metar
ENAL 071350Z 06005KT CAVOK 23/14 Q1018








Description
Airport serving Alesund, Norway.
Climatology
Temperate Marine climate/Oceanic climate (Köppen climate classification Cfb). Moderately cool summer and comparatively warm winter with a temperature range of only 14°C. Prevailing south-westerly winds from the Atlantic Ocean.






Runways






Designator
Length
Width
Surface
Rops




7/25          
2314          
45          
ASP          
Yes/Yes          













Airport map






Aerial View