SPJC








Jorge Chávez International Airport





Airport

ICAO code


  SPJC





IATA Code

LIM




Summary

ICAO Region

CARSAM



ICAO Territory





Peru






 








Location

Callao, Lima




Serving

Lima



Elevation

113 ft



Coordinates



    12°
    1'
          18"
        S
  
      ,
    
    77°
    6'
          51"
        W
  




KCC

BWh




Metar
SPJC 071300Z 25005KT 5000 -DZ BR OVC008 15/13 Q1014 NOSIG RMK PPTRZ








Peru's main international and domestic airport. It is located in Callao, 11 km from the Historic Centre of Lima.
 














Airport map






Aerial View








Airport accidents



A20N / Vehicle, Lima Peru, 2022