KERI








Erie International Airport





Airport

ICAO code


  KERI





IATA Code

ERI




Summary

ICAO Region

NAM



ICAO Territory





United States






 








Location

Erie, Pennsylvania




Serving

Erie



Elevation

732 ft



Coordinates



    42°
    4'
          55"
        N
  
      ,
    
    80°
    10'
          34"
        W
  




KCC

Dfa



Airport GND

Aircraft Ground De/Anti Icing



Airport RE

Landing on Contaminated Runways




Metar
KERI 071351Z 30011G20KT 10SM SCT028 BKN039 BKN070 16/10 A2993 RMK AO2 SLP135 T01610100








Erie International Airport, also known as Tom Ridge Field, is a public use airport located 5 nm southwest of the central business district of Erie, a city in Erie County, Pennsylvania, USA.














Airport map






Aerial View