ETMN








Nordholz Naval Airbase





Airport

ICAO code


  ETMN






Summary

ICAO Region

EUR



ICAO Territory





Germany






 








Location

Nordholz, Lower Saxony,




Coordinates



    53°
    46'
          2"
        N
  
      ,
    
    8°
    39'
          30"
        E
  





Metar
ETMN 071420Z 14005KT 9999 SCT180 BKN320 27/15 Q1012 BLU+








Description
Nordholz Naval Airbase is a German Naval Air base located near the town of Nordholz in Lower Saxony, 25 km north of Bremerhaven, and 12 km southwest of Cuxhaven.






Runways






Designator
Length
Width
Surface
Rops




8/26          
2439          
45          
CON          
No/No          













Airport map






Aerial View