LFLP








Annecy-Haute-Savoie-Mont Blanc Airport





Airport

ICAO code


  LFLP





IATA Code

NCY




Summary

ICAO Region

EUR



ICAO Territory





France






 








Location

, Rhone-Alpes




Serving

Annecy



Elevation

1521 ft



Coordinates



    45°
    55'
          45"
        N
  
      ,
    
    6°
    5'
          56"
        E
  





Metar
LFLP 071400Z AUTO 34003KT 310V070 CAVOK 27/17 Q1010 NOSIG









Runways






Designator
Length
Width
Surface
Rops




4/22          
1630          
30          
ASP          
Yes/Yes          













Airport map






Aerial View