OIMJ








Shahroud Airport





Airport

ICAO code


  OIMJ





IATA Code

RUD




Summary

ICAO Region

MID



ICAO Territory





Iran






 








Location

Shahroud, Semnan Province




Serving

Shahroud



Elevation

4197 ft



Coordinates



    36°
    25'
          28"
        N
  
      ,
    
    55°
    6'
          11"
        E
  




KCC

BSk




Metar
OIMJ 071400Z 02027KT 9999 FEW020 22/12 Q1019








Airport 10km east of Shahroud, Iran.
Climatology
Cold Desert climate (Köppen climate classification BSk).






Runways






Designator
Length
Width
Surface
Rops




7/25          
2791          
45          
ASP          
No/No          













Airport map






Aerial View