KSHR








Sheridan County Airport





Airport

ICAO code


  KSHR






Summary

ICAO Region

NAM



ICAO Territory





United States






 








Location

Sheridan, Wyoming,




Coordinates



    44°
    46'
          9"
        N
  
      ,
    
    106°
    58'
          50"
        W
  




KCC

BSk



Airport CFIT

Altimeter Temperature Error Correction



Airport WX

Mountain Waves




Metar
KSHR 071353Z AUTO 00000KT 10SM CLR 14/09 A3017 RMK AO2 SLP194 T01390089








Description
Sheridan County Airport is a public use airport located 4 km southwest of the central business district of Sheridan, in Sheridan County, Wyoming.
Climatology
Semi-arid climate (Köppen climate classification BSk). - Hot, sometimes extremely hot summers and cold, sometimes very cold winters. Some snowfall during the winter. Areas featuring cold semi-arid climates are sometimes subject to major temperature swings during a 24 hour period.






Runways






Designator
Length
Width
Surface
Rops




5/23          
1536          
23          
ASP          
Yes/Yes          


13/31          
2026          
46          
ASP          
No/No          


14/32          
2530          
30          
ASP          
Yes/Yes          













Airport map






Aerial View