SARC








Doctor Fernando Piragine Niveyro International Airport





Airport

ICAO code


  SARC





IATA Code

CNQ




Summary

ICAO Region

CARSAM



ICAO Territory





Argentina






 








Location

, Corrientes




Serving

Corrientes



Elevation

202 ft



Coordinates



    27°
    26'
          44"
        S
  
      ,
    
    58°
    45'
          43"
        W
  




KCC

Cfa




Metar
SARC 071300Z 12006KT 6000 NSC 20/15 Q1012








Airport serving city of Corrientes, Corrientes province, Argentina.
Climatology
Humid, sub-tropical climate (Köppen climate classification Cfa). Wide variation in temperatures during the winter due to effects of close proximity to Andes.






Runways






Designator
Length
Width
Surface
Rops




2/20          
2100          
45          
CON          
No/No          













Airport map






Aerial View