SAWE








Hermes Quijada International Airport





Airport

ICAO code


  SAWE





IATA Code

RGA




Summary

ICAO Region

CARSAM



ICAO Territory





Argentina






 








Location

Rio Grande, Tierra del Fuego




Serving

Rio Grande



Elevation

65 ft



Coordinates



    53°
    46'
          40"
        S
  
      ,
    
    67°
    44'
          58"
        W
  




KCC

Cfc




Metar
SAWE 071300Z 30018KT CAVOK 04/01 Q0988








Airport 2km northwest of Rio Grande, Tierra del Fuego, Argentina.
Climatology
Cool oceanic climate (Köppen climate classification Cfc).






Runways






Designator
Length
Width
Surface
Rops




7/25          
2000          
40          
ASP          
Yes/Yes          













Airport map






Aerial View