CYOO








Oshawa Municipal Airport





Airport

ICAO code


  CYOO





IATA Code

YOO




Summary

ICAO Region

NAM



ICAO Territory





Canada






 








Location

Oshawa, Ontario,




Serving

Oshawa



Elevation

459 ft



Coordinates



    43°
    55'
          20"
        N
  
      ,
    
    78°
    53'
          43"
        W
  





Metar
CYOO 071453Z AUTO 28013KT 9SM BKN022 OVC029 14/10 A2985 RMK SLP110








Description
Oshawa Municipal Airport is a municipal airport adjacent to the north end of the city of Oshawa, Ontario, Canada. Oshawa Airport is one of the major general aviation airports in the Greater Toronto Area.
Climatology






Runways






Designator
Length
Width
Surface
Rops




5/23          
809          
30          
ASP          
No/No          


12/30          
1219          
30          
ASP          
No/No          













Airport map






Aerial View








Airport accidents



SH36, vicinity Oshawa ON Canada, 2004