LGZA








Zakynthos International Airport





Airport

ICAO code


  LGZA





IATA Code

ZTH




Summary

ICAO Region

EUR



ICAO Territory





Greece






 








Location

Kalamaki, Zakynthos




Serving

Zakynthos



Elevation

15 ft



Coordinates



    37°
    45'
          5"
        N
  
      ,
    
    20°
    53'
          4"
        E
  




KCC

Csa




Metar
LGZA 071350Z 15006KT 9999 FEW020 31/22 Q1014








Description
International airport serving the island of Zakynthos, Greece.
Climatology
Mediterranean climate (Köppen climate classification Csa) - Hot, dry summer and a mild wet winter.






Runways






Designator
Length
Width
Surface
Rops




16/34          
2228          
45          
ASP          
Yes/Yes          













Airport map






Aerial View