GVNP








Praia International Airport





Airport

ICAO code


  GVNP





IATA Code

RAI




Summary

ICAO Region

AFI



ICAO Territory





Cape Verde






 








Location

Praia, Santiago Island, Ilhas de Sotavento




Serving

Praia



Elevation

230 ft



Coordinates



    14°
    56'
          43"
        N
  
      ,
    
    23°
    29'
          11"
        W
  





Metar
GVNP 071500Z 05008KT 9999 SCT016 BKN020 30/22 Q1012 NOSIG









Runways






Designator
Length
Width
Surface
Rops




3/21          
0          
0          
UNK          
No/No          


03L/21R          
1283          
30          
ASP          
No/No          


03R/21L          
2096          
45          
ASP          
No/No          













Airport map






Aerial View