SKNV








Benito Salas Airport





Airport

ICAO code


  SKNV





IATA Code

NVA




Summary

ICAO Region

CARSAM



ICAO Territory





Colombia






 








Location

La Manguita, Huila Department




Serving

Neiva



Elevation

1464 ft



Coordinates



    2°
    56'
          49"
        N
  
      ,
    
    75°
    17'
          34"
        W
  




KCC

Am




Metar
SKNV 071200Z VRB02KT 9999 FEW100 25/15 Q1012








Benito Salas Airport, locally known as La Manguita airport, is an airport that serves the city of Neiva, the capital of the Huila Department in Colombia.
Climatology
Tropical monsoon climate (Köppen climate classification Am)






Runways






Designator
Length
Width
Surface
Rops




2/20          
1792          
40          
ASP          
No/No          













Airport map






Aerial View