LWSK








Skopje





Airport

ICAO code


  LWSK






Summary

ICAO Region

EUR



ICAO Territory





North Macedonia






 








Location

Skopje,




Coordinates



    41°
    57'
          42"
        N
  
      ,
    
    21°
    37'
          20"
        E
  




KCC

Cfa



Airport WX

Fog




Metar
LWSK 071420Z 31005KT 210V360 9999 SCT050 35/13 Q1014 NOSIG








Description
Skopje Airport, or Skopje "Alexander the Great" Airport is the largest and busiest international airport in the Republic of Macedonia. Located 17 km southeast of the national capital, Skopje.
Climatology
Humid “subtropical” climate (Köppen climate classification Cfa) - characterized by hot, humid summers and cool winters. Significant amounts of precipitation occur in all seasons in most areas. Winter rainfall (and sometimes snowfall) is associated with large storms that the westerlies steer from west to east. Most summer rainfall occurs during thunderstorms.






Runways






Designator
Length
Width
Surface
Rops




16/34          
2450          
43          
ASP          
Yes/Yes          













Airport map






Aerial View