YCFS








Coffs Harbour Airport





Airport

ICAO code


  YCFS





IATA Code

CFS




Summary

ICAO Region

APAC



ICAO Territory





Australia






 








Location

Boambee, New South Wales




Serving

Coff's Harbour



Elevation

18 ft



Coordinates



    30°
    19'
          14"
        S
  
      ,
    
    153°
    6'
          59"
        E
  




KCC

Cfa




Metar
YCFS 071400Z AUTO 00000KT 9999 // NCD 14/12 Q1020 RF00.0/000.0








Airport serving Coffs Harbour, New South Wales, Australia. ICAO code was YSCH until November 2007.














Airport map






Aerial View