LTAT








Malatya Erhaç Airport





Airport

ICAO code


  LTAT





IATA Code

MLX




Summary

ICAO Region

EUR



ICAO Territory





Turkey






 








Location

Malatya,




Serving

Malatya



Elevation

2828 ft



Coordinates



    38°
    26'
          22"
        N
  
      ,
    
    38°
    6'
          18"
        E
  





Metar
LTAT 071220Z 12006KT 080V140 9999 FEW040 BKN100 32/10 Q1010 NOSIG









Runways






Designator
Length
Width
Surface
Rops




3/21          
3350          
45          
ASP          
No/No          













Airport map






Aerial View