KALO








Waterloo Regional Airport





Airport

ICAO code


  KALO






Summary

ICAO Region

NAM



ICAO Territory





United States






 








Location

Waterloo, Iowa,




Coordinates



    42°
    33'
          29"
        N
  
      ,
    
    92°
    24'
          4"
        W
  




KCC

Dfa



Airport CFIT

Altimeter Temperature Error Correction




Metar
KALO 071354Z 05006KT 10SM CLR 11/07 A3034 RMK AO2 SLP274 T01110067








Description
Waterloo Regional Airport (Livingston Betsworth Field) is a public-use airport located 6 km northwest of the central business district of Waterloo, a city in Black Hawk County, Iowa.
Climatology
Humid continental climate (Köppen climate classification Dfa) - characterized by four seasons: cold, windy, snowy winters, mild springs, hot, humid summers, and crisp and relatively short autumns. Precipitation reaches its lowest in January and February and peaks in summer and latter half of spring.














Airport map






Aerial View