SCGE








María Dolores Airport





Airport

ICAO code


  SCGE





IATA Code

LSQ




Summary

ICAO Region

CARSAM



ICAO Territory





Chile






 








Location

Los Angeles, Bio-Bio




Serving

Los Angeles



Elevation

374 ft



Coordinates



    37°
    24'
          6"
        S
  
      ,
    
    72°
    25'
          32"
        W
  




KCC

Csb




Metar
SCGE 071300Z 19002KT 9999 SCT025 08/06 Q1023








Airport to the northwest of Los Angeles, Bio Bio, Chile.
Climatology
Mediterranean climate (Köppen climate classification Csb)






Runways






Designator
Length
Width
Surface
Rops




18/36          
1700          
30          
ASP          
No/No          













Airport map






Aerial View