KDSM








Des Moines International Airport





Airport

ICAO code


  KDSM





IATA Code

DSM




Summary

ICAO Region

NAM



ICAO Territory





United States






 








Location

Des Moines, Iowa




Serving

Des Moines



Elevation

958 ft



Coordinates



    41°
    31'
          49"
        N
  
      ,
    
    93°
    38'
          60"
        W
  




KCC

Dfa



Airport CFIT

Altimeter Temperature Error Correction




Metar
KDSM 071354Z 09005KT 10SM FEW250 14/09 A3033 RMK AO2 SLP269 T01440089








Description
Des Moines International Airport is a joint civil-military (ANG) public-use airport located 5 nm southwest of the central business district of Des Moines, a city in Polk County, Iowa.














Airport map






Aerial View