VLPS








Pakse International Airport





Airport

ICAO code


  VLPS





IATA Code

PKZ




Summary

ICAO Region

APAC



ICAO Territory





Laos






 








Location

Pakse, Champasak




Serving

Pakse



Elevation

351 ft



Coordinates



    15°
    7'
          60"
        N
  
      ,
    
    105°
    46'
          50"
        E
  




KCC

Aw




Metar
VLPS 071200Z 14002KT 9999 FEW020 FEW050 BKN200 29/26 Q1004 NOSIG








Pakse International Airport is one of the few international airports in Laos.
Climatology
Tropical Savanna climate (Köppen climate classification Aw)














Airport map






Aerial View








Airport accidents



AT72, vicinity Pakse Laos, 2013