EYVI








Vilnius International Airport





Airport

ICAO code


  EYVI





IATA Code

VNTO




Summary

ICAO Region

EUR



ICAO Territory





Lithuania






 








Location

Porubanek, Vilnius District




Serving

Vilnius



Elevation

646 ft



Coordinates



    54°
    38'
          13"
        N
  
      ,
    
    25°
    17'
          16"
        E
  




KCC

Dfb




Metar
EYVI 071250Z 15011KT CAVOK 24/07 Q1026 NOSIG








Vilnius Airport is the largest civil airport in Lithuania. It is located 5.9 km south of Vilnius, the capital of Lithuania.
Climatology
Humid continental climate (Köppen climate classification Dfb)






Runways






Designator
Length
Width
Surface
Rops




2/20          
2515          
50          
ASP          
Yes/Yes          













Airport map






Aerial View