KSTS








Charles M. Schulz - Sonoma County Airport





Airport

ICAO code


  KSTS





IATA Code

STS




Summary

ICAO Region

NAM



ICAO Territory





United States






 








Location

Windsor, California




Serving

Santa Rosa



Elevation

129 ft



Coordinates



    38°
    30'
          34"
        N
  
      ,
    
    122°
    48'
          48"
        W
  




KCC

Csb




Metar
KSTS 071353Z 00000KT 1/4SM FG VV002 11/11 A2994 RMK AO2 SLP131 T01110111








Description
Charles M. Schulz–Sonoma County Airport is a county-owned public-use airport located 6 nm northwest of downtown Santa Rosa, a city in Sonoma County, California, USA.






Runways






Designator
Length
Width
Surface
Rops




1/19          
1525          
30          
ASP          
Yes/Yes          


14/32          
1559          
46          
ASP          
Yes/Yes          













Airport map






Aerial View