MGMM








Mundo Maya International Airport





Airport

ICAO code


  MGMM





IATA Code

FRS




Summary

ICAO Region

CARSAM



ICAO Territory





Guatemala






 








Location

Santa Elena, Peten Department




Serving

Flores



Elevation

387 ft



Coordinates



    16°
    54'
          53"
        N
  
      ,
    
    89°
    52'
          38"
        W
  




KCC

Af




Metar
MGMM 071300Z 11004KT 9999 FEW010 SCT090 24/23 Q1008 A2977








Mundo Maya International Airport (Spanish: Aeropuerto Internacional Mundo Maya), formerly Flores International Airport, is an international airport located in the suburb of Santa Elena, in the city of Flores, Guatemala.
Climatology
Tropical rainforest climate (Köppen climate classification Af)














Airport map






Aerial View