MUCM








Ignacio Agramonte International Airport





Airport

ICAO code


  MUCM





IATA Code

CMW




Summary

ICAO Region

CARSAM



ICAO Territory





Cuba






 








Location

Camagüey, Camaguey




Serving

Camaguey



Elevation

413 ft



Coordinates



    21°
    25'
          7"
        N
  
      ,
    
    77°
    50'
          59"
        W
  




KCC

Aw



Airport BS

Bird Strike




Metar
MUCM 071250Z 07008KT 9000 FEW020 27/26 Q1012








International airport serving Camagüey, Cuba.
Climatology
Tropical Savanna climate (Köppen climate classification Aw)






Runways






Designator
Length
Width
Surface
Rops




7/25          
3000          
45          
ASP          
Yes/Yes          













Airport map






Aerial View