LFQQ








Lille-Lesquin Airport





Airport

ICAO code


  LFQQ





IATA Code

LIL




Summary

ICAO Region

EUR



ICAO Territory





France






 








Location

, Nord-Pas-de-Calais




Serving

Lille



Elevation

157 ft



Coordinates



    50°
    33'
          43"
        N
  
      ,
    
    3°
    5'
          22"
        E
  





Metar
LFQQ 071400Z AUTO 14004KT 090V190 CAVOK 25/18 Q1009 NOSIG









Runways






Designator
Length
Width
Surface
Rops




2/20          
1580          
30          
ASP          
Yes/Yes          


8/26          
2825          
45          
ASP          
Yes/Yes          













Airport map






Aerial View








Airport accidents



CRJ7, Lyon St Exupery France, 2020