FQVL








Vilankulo Airport





Airport

ICAO code


  FQVL





IATA Code

VNX




Summary

ICAO Region

AFI



ICAO Territory





Mozambique






 








Location

Vilankulo,




Serving

Vilankulo



Elevation

46 ft



Coordinates



    22°
    0'
          56"
        S
  
      ,
    
    35°
    18'
          44"
        E
  





Metar
FQVL 071400Z 06005KT 9999 FEW020 26/22 Q1019









Runways






Designator
Length
Width
Surface
Rops




10/28          
750          
23          
ASP          
No/No          


17/35          
1470          
30          
ASP          
No/No          













Airport map






Aerial View