KHIF








Hill Air Force Base





Airport

ICAO code


  KHIF





IATA Code

HIF




Summary

ICAO Region

NAM



ICAO Territory





United States






 








Location

Ogden, Utah




Serving

Ogden



Elevation

4789 ft



Coordinates



    41°
    7'
          26"
        N
  
      ,
    
    111°
    58'
          24"
        W
  




KCC

Dsa



Airport CFIT

Altimeter Temperature Error Correction



Airport RE

Hot and High Operations




Metar
KHIF 071355Z AUTO 11017KT 10SM CLR 16/04 A3018 RMK AO2 SLP166 T01640041








Hill Air Force Base is a United States Air Force facility located in northern Utah, just south of the city of Ogden.
 














Airport map






Aerial View