KSJT








San Angelo Regional Airport





Airport

ICAO code


  KSJT






Summary

ICAO Region

NAM



ICAO Territory





United States






 








Location

San Angelo, Texas,




Coordinates



    31°
    21'
          27"
        N
  
      ,
    
    100°
    29'
          46"
        W
  




KCC

BSk



Airport WX

Sand Storm




Metar
KSJT 071351Z 04008KT 10SM CLR 23/17 A3018 RMK AO2 SLP201 T02280172








Description
San Angelo Regional Airport, also known as Mathis Field, is a public use airport serving the city of San Angelo, in Tom Green County, Texas.
Climatology
Semi-arid Steppe climate (Köppen climate classification BSk) - Little precipitation, hot summers and cold winters, sometimes with large changes in temperature in a 24 hour period.






Runways






Designator
Length
Width
Surface
Rops




9/27          
1342          
23          
ASP          
Yes/Yes          


3/21          
1810          
46          
ASP          
Yes/Yes          


18/36          
2453          
46          
ASP          
Yes/Yes          













Airport map






Aerial View