YBTL








Townsville Airport





Airport

ICAO code


  YBTL





IATA Code

TSV




Summary

ICAO Region

APAC



ICAO Territory





Australia






 








Location

, Queensland




Serving

Townsville



Elevation

18 ft



Coordinates



    19°
    15'
          9"
        S
  
      ,
    
    146°
    45'
          55"
        E
  





Metar
YBTL 071200Z AUTO 13006KT 9999 // NCD 21/17 Q1021 RF00.0/000.0

















Airport map






Aerial View