EKSB








Sønderborg Airport





Airport

ICAO code


  EKSB





IATA Code

SGD




Summary

ICAO Region

EUR



ICAO Territory





Denmark






 








Location

Sønderborg, Sønderborg




Serving

Sønderborg



Elevation

24 ft



Coordinates



    54°
    57'
          46"
        N
  
      ,
    
    9°
    47'
          11"
        E
  




KCC

Cfb




Metar
EKSB 071220Z AUTO 13007KT 100V160 9999 NCD 25/17 Q1014








Sønderborg Airport is an airport located in Sønderborg, Denmark.
Climatology
Temperate Marine climate/Oceanic climate (Köppen climate classification Cfb).






Runways






Designator
Length
Width
Surface
Rops




14/32          
1797          
30          
ASP          
Yes/Yes          













Airport map






Aerial View