MRLB








Daniel Oduber Quirós International Airport





Airport

ICAO code


  MRLB





IATA Code

LIR




Summary

ICAO Region

CARSAM



ICAO Territory





Costa Rica






 








Location

Liberia, Guanacaste Province




Serving

Liberia



Elevation

269 ft



Coordinates



    10°
    35'
          40"
        N
  
      ,
    
    85°
    32'
          39"
        W
  




KCC

Aw




Metar
MRLB 071400Z 14003KT 9999 SCT015 SCT100 28/25 A2979








Daniel Oduber Quirós International Airport, also known as Liberia International Airport, is one of four international airports in Costa Rica. The airport is located in the city of Liberia in Guanacaste Province.
Climatology
Tropical savannah climate (Köppen climate classification Aw)






Runways






Designator
Length
Width
Surface
Rops




7/25          
2750          
45          
ASP          
Yes/Yes          













Airport map






Aerial View