LQTZ








Tuzla International Airport





Airport

ICAO code


  LQTZ





IATA Code

TL




Summary

ICAO Region

EUR



ICAO Territory





Bosnia and Herzegovina






 








Location

Gornje Dubrave, Tuzla




Serving

Tuzla



Elevation

765 ft



Coordinates



    44°
    27'
          45"
        N
  
      ,
    
    18°
    43'
          28"
        E
  




KCC

Cfb




Metar
LQTZ 071100Z 31006KT 250V010 9999 FEW040 30/16 Q1016








Tuzla International Airport is an airport near Tuzla, Bosnia and Herzegovina.
Climatology
Temperate oceanic climate (Köppen climate classification Cfb)






Runways






Designator
Length
Width
Surface
Rops




9/27          
2485          
45          
ASP          
No/No          













Airport map






Aerial View