LFBA








Agen-La Garenne Airport





Airport

ICAO code


  LFBA





IATA Code

AGF




Summary

ICAO Region

EUR



ICAO Territory





France






 








Location

Agen, Aquitaine




Serving

Agen



Elevation

204 ft



Coordinates



    44°
    10'
          29"
        N
  
      ,
    
    0°
    35'
          26"
        E
  





Metar
LFBA 071400Z AUTO 30012KT 230V320 9999 SCT036 24/15 Q1010 NOSIG









Runways






Designator
Length
Width
Surface
Rops




11/29          
2165          
30          
ASP          
No/No          













Airport map






Aerial View