KBHB








Hancock County-Bar Harbour Airport





Airport

ICAO code


  KBHB





IATA Code

BHB




Summary

ICAO Region

NAM



ICAO Territory





United States






 








Location

Trenton , Maine




Serving

Bar Harbour



Elevation

83 ft



Coordinates



    44°
    26'
          33"
        N
  
      ,
    
    68°
    21'
          55"
        W
  




KCC

Dfb



Airport CFIT

Altimeter Temperature Error Correction



Airport WX

Cumulonimbus




Metar
KBHB 071356Z AUTO 02009KT 5SM BR OVC010 17/16 A2984 RMK AO2 RAB13E53 CIG 008V013 SLP107 P0000 T01720161








Hancock County-Bar Harbor Airport is a public use airport located 8 nm northwest of the central business district of Bar Harbor, a city in Hancock County, Maine, USA.














Airport map






Aerial View