KSMF








Sacramento International Airport





Airport

ICAO code


  KSMF






Summary

ICAO Region

NAM



ICAO Territory





United States






 








Location

Sacramento, California,




Coordinates



    38°
    41'
          30"
        N
  
      ,
    
    121°
    35'
          11"
        W
  




KCC

Csb




Metar
KSMF 071353Z 16008KT 10SM FEW250 21/08 A2986 RMK AO2 SLP110 T02110083








Description
International airport located 16 km northwest of the central business district of Sacramento, California, United States.
Climatology
Dry-summer subtropical ”Mediterranean" climate (Köppen climate classification Csb) - characterized by warm, dry summers and mild winters.






Runways






Designator
Length
Width
Surface
Rops




16R/34L          
2621          
46          
ASP          
Yes/Yes          


16L/34R          
2622          
46          
CON          
Yes/Yes          













Airport map






Aerial View