UNKL








Yemelyanovo Airport





Airport

ICAO code


  UNKL





IATA Code

KJA




Summary

ICAO Region

EUR



ICAO Territory





Russian Federation






 








Location

Krasnoyarsk, Krasnoyarsk Krai




Serving

Krasnoyarsk



Elevation

942 ft



Coordinates



    56°
    10'
          48"
        N
  
      ,
    
    92°
    28'
          30"
        E
  





Metar
UNKL 071230Z 23003MPS 9999 SCT045CB 10/08 Q1010 R29/190060 NOSIG RMK QFE732









Runways






Designator
Length
Width
Surface
Rops




11/29          
3703          
60          
ASP          
Yes/Yes          













Airport map






Aerial View