KGLH








Greenville Mid Delta Regional Airport





Airport

ICAO code


  KGLH





IATA Code

GLH




Summary

ICAO Region

NAM



ICAO Territory





United States






 








Location

Greenville, Mississippi




Serving

Greenville



Elevation

131 ft



Coordinates



    33°
    28'
          58"
        N
  
      ,
    
    90°
    59'
          8"
        W
  




KCC

Cfa



Airport LOS

Parallel Runway Operation




Metar
KGLH 071353Z 02011G22KT 10SM CLR 22/17 A3001 RMK AO2 SLP168 T02220167








Mid-Delta Regional Airport, formerly Greenville Air Force Base, is a public use airport located 5 nm northeast of the central business district of Greenville, a city in Washington County, Mississippi.














Airport map






Aerial View