GOOY








Léopold Sédar Senghor International Airport





Airport

ICAO code


  GOOY





IATA Code

DKR




Summary

ICAO Region

AFI



ICAO Territory





Senegal






 








Location

Yoff, Dakar




Serving

Dakar



Elevation

85 ft



Coordinates



    14°
    44'
          22"
        N
  
      ,
    
    17°
    29'
          24"
        W
  




KCC

BSh



Airport BS

Bird Strike




Metar
GOOY 071400Z 32006KT 280V360 9999 SCT013 30/23 Q1012








International airport serving the city of Dakar, capital of Senegal.
Climatology
Hot, semi-arid/Steppe climate (Köppen climate classification BSh) - hot, sometimes extremely hot summers and mild to warm winters, with low annual precipitation.






Runways






Designator
Length
Width
Surface
Rops




3/21          
1500          
30          
ASP          
Yes/Yes          


18/36          
3490          
45          
ASP          
Yes/Yes          













Airport map






Aerial View