KGPI








Glacier Park International Airport





Airport

ICAO code


  KGPI





IATA Code

FCA




Summary

ICAO Region

NAM



ICAO Territory





United States






 








Location

Kalispell, Montana




Serving

Flathead County



Elevation

2977 ft



Coordinates



    48°
    18'
          41"
        N
  
      ,
    
    114°
    15'
          17"
        W
  




KCC

Dfb



Airport CFIT

Altimeter Temperature Error Correction



Airport WX

Mountain Waves




Metar
KGPI 071355Z AUTO 27003KT 10SM CLR 11/08 A3012 RMK AO2 SLP187 T01110083








Glacier Park International Airport is a public airport located 6 nm northeast of the central business district of Kalispell, in Flathead County, Montana, USA. It also serves the towns of Evergreen, Columbia Falls and Whitefish as well as Glacier National Park.














Airport map






Aerial View