KHFD








Hartford-Brainard Airport





Airport

ICAO code


  KHFD





IATA Code

HFD




Summary

ICAO Region

NAM



ICAO Territory





United States






 








Location

Hartford, Connecticut




Serving

Hartford



Elevation

18 ft



Coordinates



    41°
    44'
          12"
        N
  
      ,
    
    72°
    38'
          58"
        W
  




KCC

Dfa




Metar
KHFD 071353Z 00000KT 10SM OVC032 20/14 A2989 RMK AO2 SLP121 T02000144








Hartford-Brainard Airport is a public and designated reliever airport located 3 nm southeast of downtown Hartford, in Hartford County, Connecticut, USA.














Airport map






Aerial View