CYBG








Bagotville International Airport





Airport

ICAO code


  CYBG





IATA Code

YBG




Summary

ICAO Region

NAM



ICAO Territory





Canada






 








Location

Bagotville, Quebec




Serving

Saguenay



Elevation

522 ft



Coordinates



    48°
    20'
          6"
        N
  
      ,
    
    70°
    59'
          42"
        W
  




KCC

Dfb



Airport CFIT

Altimeter Temperature Error Correction



Airport GND

Aircraft Ground De/Anti Icing



Airport RE

Crosswind Landings




Metar
CYBG 071500Z 08016KT 25SM FEW038 SCT210 19/14 A2989 RMK SC1CI3 DENSITY ALT 1404FT SLP123








Bagotville International Airport, also known as Canadian Forces Base Bagotville or the Saguenay-Bagotville Airport is located near Saguenay, Quebec, Canada
Climatology
Humid Continental climate (Köppen climate classification Dfb) - Variable weather patterns and a large seasonal temperature variance. Summers are often warm and humid with frequent thunderstorms and winters can be very cold with frequent snowfall and persistent snow cover.






Runways






Designator
Length
Width
Surface
Rops




18/36          
1829          
46          
ASP          
Yes/Yes          


11/29          
3048          
46          
CON          
Yes/Yes          













Airport map






Aerial View