SVVA








Arturo Michelena International Airport





Airport

ICAO code


  SVVA





IATA Code

VLN




Summary

ICAO Region

CARSAM



ICAO Territory





Venezuela






 








Location

Valencia, Carabobo




Serving

Valencia



Elevation

1411 ft



Coordinates



    10°
    9'
          15"
        N
  
      ,
    
    67°
    55'
          21"
        W
  




KCC

Aw




Metar
SVVA 071503Z AUTO 10003KT NCD 28/21 Q1014








Arturo Michelena International Airport is an airport in the city of Valencia in Venezuela.
Climatology
Tropical savanna climate (Köppen climate classification Aw)






Runways






Designator
Length
Width
Surface
Rops




10/28          
3000          
50          
ASP          
Yes/Yes          













Airport map






Aerial View