LTAZ








Nevşehir Kapadokya Airport





Airport

ICAO code


  LTAZ





IATA Code

NAV




Summary

ICAO Region

EUR



ICAO Territory





Turkey






 








Location

Nevşehir,




Serving

Nevşehir



Elevation

2835 ft



Coordinates



    38°
    46'
          15"
        N
  
      ,
    
    34°
    31'
          17"
        E
  





Metar
LTAZ 071220Z VRB05KT 9999 SCT040 31/06 Q1014









Runways






Designator
Length
Width
Surface
Rops




11/29          
3000          
45          
CON          
No/No          













Airport map






Aerial View