MMIO








Plan De Guadalupe International Airport





Airport

ICAO code


  MMIO





IATA Code

SLW




Summary

ICAO Region

CARSAM



ICAO Territory





Mexico






 








Location

Ramos Arizpe, Coahuila de Zaragoza




Serving

Saltillo



Elevation

4778 ft



Coordinates



    25°
    32'
          58"
        N
  
      ,
    
    100°
    55'
          43"
        W
  




KCC

BWh




Metar
MMIO 062346Z 36008KT 8SM BKN030 19/14 A3028 RMK 8/500








Plan de Guadalupe International Airport is an airport located at Ramos Arizpe in the state of Coahuila in Mexico.
Climatology
Hot Desert Climate (Köppen climate classification BWh)






Runways






Designator
Length
Width
Surface
Rops




3/21          
1058          
45          
ASP          
No/No          


17/35          
2897          
45          
ASP          
Yes/Yes          













Airport map






Aerial View