ENHD








Haugesund





Airport

ICAO code


  ENHD






Summary

ICAO Region

EUR



ICAO Territory





Norway






 








Location

Karmøy,




Elevation

86 ft



Coordinates



    59°
    20'
          43"
        N
  
      ,
    
    5°
    12'
          30"
        E
  




KCC

Cfb




Metar
ENHD 071350Z 35007KT CAVOK 24/13 Q1017








Description
Haugesund Airport, Karmøy (IATA: HAU) is the airport serving the city of Haugesund in Norway. It is located on the west side of the island and municipality of Karmøy, southwest of Haugesund.
Climatology
Temperate Marine climate/Oceanic climate (Köppen climate classification Cfb). Moderately cool summer and comparatively warm winter with a temperature range of only 14°C. Prevailing south-westerly winds from the Atlantic Ocean.






Runways






Designator
Length
Width
Surface
Rops




14/32          
2120          
45          
ASP          
Yes/Yes          













Airport map






Aerial View