FZAA








Kinshasa/Ndjili International Airport





Airport

ICAO code


  FZAA





IATA Code

FIH




Summary

ICAO Region

AFI



ICAO Territory





Democratic Republic of the Congo






 








Location

Kinshasa, Kinshasa




Serving

Kinshasa



Elevation

1027 ft



Coordinates



    4°
    23'
          9"
        S
  
      ,
    
    15°
    26'
          40"
        E
  





Metar
FZAA 071100Z 36010KT 8000 FEW020 31/21 Q1014 NOSIG








N'djili Airport, also known as N'Djili International Airport and Kinshasa International Airport, serves the city of Kinshasa






Runways






Designator
Length
Width
Surface
Rops




6/24          
4700          
60          
CON          
Yes/Yes          













Airport map






Aerial View








Airport accidents



CRJ1, Kinshasa Democratic Republic of Congo, 2011