KSLK








Adirondack Regional Airport





Airport

ICAO code


  KSLK





IATA Code

SLK




Summary

ICAO Region

NAM



ICAO Territory





United States






 








Location

Saranac Lake, New York




Serving

Adirondacks



Elevation

1663 ft



Coordinates



    44°
    22'
          51"
        N
  
      ,
    
    74°
    12'
          18"
        W
  




KCC

Dfb



Airport CFIT

Altimeter Temperature Error Correction



Airport GND

Aircraft Ground De/Anti Icing



Airport RE

Landing on Contaminated Runways




Metar
KSLK 071351Z AUTO 18013G20KT 10SM OVC041 19/12 A2978 RMK AO2 SLP083 T01940122








Description
Adirondack Regional Airport is a public use airport located 5 nm northwest of the central business district of Saranac Lake, a town in Franklin County, New York.






Runways






Designator
Length
Width
Surface
Rops




9/27          
1219          
30          
ASP          
Yes/Yes          


5/23          
2003          
46          
ASP          
Yes/Yes          













Airport map






Aerial View