FNUE








Luena Airport





Airport

ICAO code


  FNUE





IATA Code

LUO




Summary

ICAO Region

AFI



ICAO Territory





Angola






 








Location

, Moxico




Serving

Luena



Elevation

4360 ft



Coordinates



    11°
    46'
          5"
        S
  
      ,
    
    19°
    53'
          52"
        E
  





Metar
FNUE 071400Z 10008KT 050V140 9000 BR FEW018 33/14 Q1020









Runways






Designator
Length
Width
Surface
Rops




11/29          
2400          
40          
ASP          
No/No          













Airport map






Aerial View