CYIO








Pond Inlet Airport





Airport

ICAO code


  CYIO






Summary

ICAO Region

NAM



ICAO Territory





Canada






 








Location

Pond Inlet, Nunavut,




Coordinates



    72°
    42'
          0"
        N
  
      ,
    
    77°
    57'
          31"
        W
  




KCC

ET



Airport BS

Non Avian Wildlife Hazards to Aircraft



Airport CFIT

Altimeter Temperature Error Correction



Airport GND

Aircraft Ground De/Anti Icing



Airport WX

Fog




Metar
CYIO 071400Z AUTO 01004KT 9SM OVC043 03/M00 A2999 RMK SLP164








Description
Airport serving Pond Inlet, Nunavut, Canada, operated by the government of Nunavut
Climatology
Tundra climate (Köppen climate classification ET) - warmest month has an average temperature of 0 - 10 degrees C.






Runways






Designator
Length
Width
Surface
Rops




02T/20T          
1219          
30          
GVL          
No/No          













Airport map






Aerial View