LIPE








Bologna/Guglielmo Marconi Airport





Airport

ICAO code


  LIPE





IATA Code

BLQ




Summary

ICAO Region

EUR



ICAO Territory





Italy






 








Location

Borgo Panigale, Emilia-Romagna




Serving

Bologna



Elevation

123 ft



Coordinates



    44°
    31'
          52"
        N
  
      ,
    
    11°
    17'
          16"
        E
  




KCC

Cfa




Metar
LIPE 071350Z VRB04KT 9999 FEW040 29/18 Q1015








Bologna Airport or Guglielmo Marconi Airport is an international airport serving the city of Bologna in Italy. It is approximately 6 km northwest of the town center in the Emilia-Romagna region of Italy, about 200 km south-east of Milan.
Climatology
Humid “subtropical” climate (Köppen climate classification Cfa) - characterized by hot, humid summers and cool winters. Significant amounts of precipitation occur in all seasons in most areas. Winter rainfall (and sometimes snowfall) is associated with large storms that the westerlies steer from west to east. Most summer rainfall occurs during thunderstorms.






Runways






Designator
Length
Width
Surface
Rops




12/30          
2800          
46          
ASP          
Yes/Yes          













Airport map






Aerial View