CYJT








Stephenville





Airport

ICAO code


  CYJT





IATA Code

YJT




Summary

ICAO Region

NAM



ICAO Territory





Canada






 








Location

Stephenville, Newfoundland,




Serving

Stephenville



Elevation

80 ft



Coordinates



    48°
    32'
          43"
        N
  
      ,
    
    58°
    32'
          59"
        W
  




KCC

Dfb




Metar
CYJT 071400Z 10010KT 15SM SCT210 BKN230 20/13 A3023 RMK CI4CC2 SLP238 DENSITY ALT 400FT








Description
International airport serving western Newfoundland.
Climatology
Humid Continental climate (Köppen climate classification Dfb) - Variable weather patterns and a large seasonal temperature variance. Summers are often warm and humid with frequent thunderstorms and winters can be very cold with frequent snowfall and persistent snow cover.
The separate article climate Newfoundland contains more detail on the climate of Newfoundland and associated weather phenomena.






Runways






Designator
Length
Width
Surface
Rops




2/20          
1189          
46          
PEM          
Yes/Yes          


9/27          
3048          
61          
ASP          
Yes/Yes          













Airport map






Aerial View








Airport accidents



DH8C, Stephenville NL Canada, 2018