FCOI








Impfondo Airport





Airport

ICAO code


  FCOI





IATA Code

ION




Summary

ICAO Region

AFI



ICAO Territory





Republic of the Congo






 








Location

Impfondo, Impfondo




Serving

Impfondo



Elevation

1099 ft



Coordinates



    1°
    35'
          32"
        N
  
      ,
    
    18°
    3'
          2"
        E
  





Metar
FCOI 071200Z 22004KT 9999 SCT020 FEW030CB 32/26 Q1012








Impfondo Airport is an airport serving the town of Impfondo, Republic of the Congo.














Airport map






Aerial View