KGRI








Central Nebraska Regional Airport





Airport

ICAO code


  KGRI





IATA Code

GRI




Summary

ICAO Region

NAM



ICAO Territory





United States






 








Location

Grand Island, Nebraska




Serving

Grand Island



Elevation

1847 ft



Coordinates



    40°
    58'
          9"
        N
  
      ,
    
    98°
    19'
          7"
        W
  




KCC

Dfa




Metar
KGRI 071353Z 14004KT 10SM BKN055 16/12 A3032 RMK AO2 SLP268 T01560117








Description
Central Nebraska Regional Airport is a public use airport located 3 nm northeast of Grand Island, in Hall County, Nebraska, USA.














Airport map






Aerial View