SBCR








Corumbá International Airport





Airport

ICAO code


  SBCR





IATA Code

CMG




Summary

ICAO Region

CARSAM



ICAO Territory





Brazil






 








Location

Corumbá, Mato Grosso do Sul




Serving

Corumbá



Elevation

461 ft



Coordinates



    19°
    0'
          43"
        S
  
      ,
    
    57°
    40'
          17"
        W
  




KCC

Aw




Metar
SBCR 071300Z 09008KT 3500 HZ NSC 30/16 Q1013








Corumbá International Airport is the airport serving Corumbá, Brazil.
Climatology
Tropical savanna climate (Köppen climate classification Aw)






Runways






Designator
Length
Width
Surface
Rops




9/27          
1660          
30          
ASP          
Yes/Yes          













Airport map






Aerial View