KLAN








Capital Region International Airport





Airport

ICAO code


  KLAN





IATA Code

LAN




Summary

ICAO Region

NAM



ICAO Territory





United States






 








Location

Lansing, Michigan




Serving

Lansing



Elevation

861 ft



Coordinates



    42°
    46'
          30"
        N
  
      ,
    
    84°
    35'
          22"
        W
  




KCC

Dfb



Airport CFIT

Altimeter Temperature Error Correction



Airport LOS

Parallel Runway Operation



Airport WX

Cumulonimbus




Metar
KLAN 071353Z 31009KT 10SM SCT019 11/08 A3013 RMK AO2 SLP204 T01110078








Description
Capital Region International Airport, formerly known as Lansing Capital City Airport, is a public airport located 3 nm northwest of downtown Lansing in DeWitt Township, Michigan, USA.






Runways






Designator
Length
Width
Surface
Rops




10L/28R          
1098          
23          
ASP          
Yes/Yes          


6/24          
1524          
37          
PEM          
Yes/Yes          


10R/28L          
2210          
46          
ASP          
Yes/Yes          













Airport map






Aerial View