GMMX








Marrakech-Menara Airport





Airport

ICAO code


  GMMX





IATA Code

RAK




Summary

ICAO Region

AFI



ICAO Territory





Morocco






 








Location

Marrakesh, Marrakesh-Safi region




Serving

Marrakesh



Elevation

1545 ft



Coordinates



    31°
    36'
          25"
        N
  
      ,
    
    8°
    2'
          11"
        W
  




KCC

BSh




Metar
GMMX 071300Z 29006KT 240V010 9999 SCT030 SCT100 36/17 Q1008 NOSIG








Marrakesh Menara Airport is an international airport serving Marrakesh, the capital city of the Marrakesh-Safi region in Morocco.
Climatology
Warm semi-arid climate (Köppen climate classification BSh)






Runways






Designator
Length
Width
Surface
Rops




10/28          
3100          
45          
ASP          
Yes/Yes          













Airport map






Aerial View