OPST








Sialkot International Airport





Airport

ICAO code


  OPST





IATA Code

SKT




Summary

ICAO Region

APAC



ICAO Territory





Pakistan






 








Location

Sialkot, Sialkot




Serving

Sialkot



Elevation

837 ft



Coordinates



    32°
    32'
          1"
        N
  
      ,
    
    74°
    21'
          47"
        E
  




KCC

Cwa




Metar
OPST 071200Z 00000KT 5000 FU FEW040 33/24 Q1004 NOSIG RH61








Sialkot International Airport is situated 14 km west of Sialkot in the Sialkot District of Pakistan.
Climatology
Humid subtropical Climate/Winter-rainfall climate (Köppen climate classification Cwa).






Runways






Designator
Length
Width
Surface
Rops




22L/04R          
3600          
46          
'asphalt'          
No/No          













Airport map






Aerial View