FQLC








Lichinga Airport





Airport

ICAO code


  FQLC





IATA Code

VXC




Summary

ICAO Region

AFI



ICAO Territory





Mozambique






 








Location

Lichinga,




Serving

Lichinga



Elevation

4505 ft



Coordinates



    13°
    16'
          28"
        S
  
      ,
    
    35°
    15'
          53"
        E
  





Metar
FQLC 071300Z 11010KT 9999 SCT015 BKN025 23/10 Q1024









Runways






Designator
Length
Width
Surface
Rops




8/26          
2530          
45          
ASP          
No/No          













Airport map






Aerial View