KMEV








Minden-Tahoe Airport





Airport

ICAO code


  KMEV





IATA Code

MEV




Summary

ICAO Region

NAM



ICAO Territory





United States






 








Location

Minden, Nevada




Serving

Carson Valley



Elevation

4722 ft



Coordinates



    39°
    0'
          2"
        N
  
      ,
    
    119°
    45'
          8"
        W
  




KCC

BSk




Metar
KMEV 062335Z AUTO 14008KT 10SM BKN120 30/03 A3017 RMK AO2








General aviation airport serving the communities in the Carson Valley, Nevada, USA. The airport is located 5 nm north of Minden.






Runways






Designator
Length
Width
Surface
Rops




12G/30G          
671          
18          
DIRT-G          
No/No          


12/30          
1615          
23          
ASPH-G          
Yes/Yes          


16/34          
2256          
30          
ASP          
Yes/Yes          













Airport map






Aerial View