OITL








Ardabil Airport





Airport

ICAO code


  OITL





IATA Code

ADU




Summary

ICAO Region

MID



ICAO Territory





Iran






 








Location

Gilan Deh, Ardabil




Serving

Ardabil



Elevation

4315 ft



Coordinates



    38°
    19'
          27"
        N
  
      ,
    
    48°
    25'
          13"
        E
  




KCC

BSk




Metar
OITL 071400Z 06017KT 9000 FEW010 16/10 Q1022 NOSIG








Airport serving Ardabil in north-western Iran.
Climatology
Cold Semi-arid climate (Köppen climate classification BSk).






Runways






Designator
Length
Width
Surface
Rops




15/33          
3299          
45          
PEM          
No/No          













Airport map






Aerial View