KAUG








Augusta State Airport





Airport

ICAO code


  KAUG





IATA Code

AUG




Summary

ICAO Region

NAM



ICAO Territory





United States






 








Location

Augusta, Maine




Serving

Augusta



Elevation

352 ft



Coordinates



    44°
    19'
          6"
        N
  
      ,
    
    69°
    47'
          42"
        W
  




KCC

Dfb



Airport CFIT

Altimeter Temperature Error Correction



Airport WX

Cumulonimbus




Metar
KAUG 071411Z AUTO 02008KT 10SM BKN011 OVC018 18/15 A2989 RMK AO2 T01830150








Description
Augusta State Airport is a public use airport located 1 nm west of the central business district of Augusta, Maine, USA.














Airport map






Aerial View