LIPA








Aviano Air Base





Airport

ICAO code


  LIPA





IATA Code

AVB




Summary

ICAO Region

EUR



ICAO Territory





Italy






 








Location

Aviano, Friuli-Venezia Giulia




Serving

Aviano



Elevation

413 ft



Coordinates



    46°
    1'
          53"
        N
  
      ,
    
    12°
    35'
          58"
        E
  




KCC

Cfa




Metar
LIPA 071355Z 20007KT 9999 FEW050 27/18 Q1015








Aviano Air Base is a base in northeastern Italy, in the Friuli-Venezia Giulia region.
Climatology
Humid subtropical climate (Köppen climate classification Cfa)






Runways






Designator
Length
Width
Surface
Rops




5/23          
2606          
44          
ASP          
No/No          













Airport map






Aerial View