LFBI








Poitiers-Biard Airport





Airport

ICAO code


  LFBI





IATA Code

PIS




Summary

ICAO Region

EUR



ICAO Territory





France






 








Location

, Poitou-Charentes




Serving

Poitiers



Elevation

423 ft



Coordinates



    46°
    35'
          16"
        N
  
      ,
    
    0°
    18'
          24"
        E
  





Metar
LFBI 071400Z AUTO 17008KT 130V200 9999 FEW019 BKN047 BKN054 22/17 Q1008 TEMPO VRB15G30KT 2000 TSRAGR BKN012 BKN020CB









Runways






Designator
Length
Width
Surface
Rops




3/21          
2350          
45          
ASP          
Yes/Yes          













Airport map






Aerial View