LQSA








Sarajevo





Airport

ICAO code


  LQSA





IATA Code

SJJ




Summary

ICAO Region

EUR



ICAO Territory





Bosnia and Herzegovina






 








Location

Butmir, Sarajevo




Serving

Sarajevo



Elevation

1708 ft



Coordinates



    43°
    49'
          29"
        N
  
      ,
    
    18°
    19'
          53"
        E
  




KCC

Dfa




Metar
LQSA 071100Z VRB04KT CAVOK 28/12 Q1018 NOSIG








Description
Sarajevo International Airport, also known as Butmir Airport, is the main international airport in Bosnia and Herzegovina, located 3.3 nm southwest of the capital city of Sarajevo in the suburb of Butmir.
Climatology
Humid continental climate (Köppen climate classification Dfa) - characterized by four seasons: cold, windy, snowy winters, mild springs, hot, humid summers, and crisp and relatively short autumns. Precipitation reaches its lowest in January and February and peaks in summer and latter half of spring.






Runways






Designator
Length
Width
Surface
Rops




12/30          
2641          
46          
ASP          
Yes/Yes          













Airport map






Aerial View