KTUP








Tupelo Regional Airport





Airport

ICAO code


  KTUP






Summary

ICAO Region

NAM



ICAO Territory





United States






 








Location

Tupelo, Mississippi,




Coordinates



    34°
    15'
          55"
        N
  
      ,
    
    88°
    46'
          3"
        W
  




KCC

Cfa




Metar
KTUP 071353Z 02014G21KT 10SM FEW018 22/17 A3002 RMK AO2 SLP163 T02220172 $








Description
Tupelo Regional Airport is a public use airport located 6 km west of the central business district of Tupelo, a city in Lee County, Mississippi.
Climatology
Humid “subtropical” climate (Köppen climate classification Cfa) - characterized by hot, humid summers and cool winters. Significant amounts of precipitation occur in all seasons in most areas. Winter rainfall (and sometimes snowfall) is associated with large storms that the westerlies steer from west to east. Most summer rainfall occurs during thunderstorms and occasional tropical storms (hurricanes).






Runways






Designator
Length
Width
Surface
Rops




18/36          
1981          
30          
ASP          
Yes/Yes          













Airport map






Aerial View