RJSK








Akita Airport





Airport

ICAO code


  RJSK





IATA Code

AXT




Summary

ICAO Region

APAC



ICAO Territory





Japan






 








Location

Akita, Akita Prefecture




Serving

Akita



Elevation

305 ft



Coordinates



    39°
    36'
          55"
        N
  
      ,
    
    140°
    13'
          5"
        E
  




KCC

Cfa




Metar
RJSK 071200Z 33004KT 9999 FEW030 SCT110 23/20 Q1014








Akita Airport is an airport located 14 km southeast of Akita, a city in the Akita Prefecture of Japan.
Climatology
Humid subtropical climate (Köppen climate classification Cfa).






Runways






Designator
Length
Width
Surface
Rops




10/28          
2499          
61          
ASP          
Yes/Yes          













Airport map






Aerial View








Airport accidents



B739, Akita Japan, 2007