KVCT








Victoria Regional Airport





Airport

ICAO code


  KVCT






Summary

ICAO Region

NAM



ICAO Territory





United States






 








Location

Victoria, Texas,




Coordinates



    28°
    50'
          40"
        N
  
      ,
    
    96°
    55'
          15"
        W
  




KCC

Cfa



Airport LOS

Parallel Runway Operation




Metar
KVCT 071351Z 01011G19KT 10SM CLR 24/19 A2996 RMK AO2 SLP142 T02390194








Description
Victoria Regional Airport is a public use airport located 9 km northeast of the central business district of Victoria, a city in Victoria County, Texas.
Climatology
Humid “subtropical” climate (Köppen climate classification Cfa) - characterized by hot, humid summers and cool winters. Significant amounts of precipitation occur in all seasons in most areas. Winter rainfall (and sometimes snowfall) is associated with large storms that the westerlies steer from west to east. Most summer rainfall occurs during thunderstorms and occasional tropical storms (hurricanes).






Runways






Designator
Length
Width
Surface
Rops




6/24          
1280          
23          
ASP          
Yes/Yes          


12R/30L          
1415          
46          
CON          
Yes/Yes          


17/35          
1493          
46          
CON          
Yes/Yes          


12L/30R          
2774          
46          
PEM          
Yes/Yes          













Airport map






Aerial View