LSZB








Bern Belp Airport





Airport

ICAO code


  LSZB





IATA Code

BRN




Summary

ICAO Region

EUR



ICAO Territory





Switzerland






 








Location

Belp, Bern




Serving

Bern



Elevation

1674 ft



Coordinates



    46°
    54'
          51"
        N
  
      ,
    
    7°
    29'
          50"
        E
  




KCC

Cfa




Metar
LSZB 071050Z 30006KT 240V020 CAVOK 24/17 Q1012








Bern Airport is an airport serving Bern, the capital of Switzerland. The airport is located within the town limits of Belp.
Climatology
Humid “subtropical” climate (Köppen climate classification Cfa)






Runways






Designator
Length
Width
Surface
Rops




14R/32L          
648          
30          
GRS          
No/No          


14L/32R          
650          
30          
GRS          
No/No          


14/32          
1510          
30          
ASP          
Yes/Yes          













Airport map






Aerial View








Airport accidents



C25A, Bern Switzerland, 2018
D328 / R44, Bern Switzerland, 2012
F100 / EC45, vicinity Bern Switzerland, 2012