WIDN








Raja Haji Fisabilillah Airport





Airport

ICAO code


  WIDN





IATA Code

TNJ




Summary

ICAO Region

APAC



ICAO Territory





Indonesia






 








Location

Tanjungpinang, Riau Islands




Serving

Batam



Elevation

52 ft



Coordinates



    0°
    55'
          21"
        N
  
      ,
    
    104°
    31'
          56"
        E
  




KCC

Af




Metar
WIDN 070130Z 12011KT 9999 SCT017 30/26 Q1011 NOSIG








Raja Haji Fisabilillah Airport, formerly known as Kijang Airport, is a domestic airport in Tanjungpinang, Riau Islands, Indonesia.














Airport map






Aerial View