OIIE








Tehran/Imam Khomeini International Airport





Airport

ICAO code


  OIIE





IATA Code

IKA




Summary

ICAO Region

MID



ICAO Territory





Iran






 








Location

Salmanabad, Tehran Province




Serving

Tehran



Elevation

3305 ft



Coordinates



    35°
    24'
          60"
        N
  
      ,
    
    51°
    9'
          11"
        E
  




KCC

BSk



Airport RE

Hot and High Operations




Metar
OIIE 071200Z 11012KT CAVOK 32/01 Q1014








Imam Khomeini International Airport is located in Tehran, Iran. The airport is located about 30 km southwest of the city near the localities of Robat-Karim and Eslamshahr.
Climatology
Cold Semi-arid climate (Köppen climate classification BSk).






Runways






Designator
Length
Width
Surface
Rops




11L/29R          
4198          
45          
ASP          
Yes/Yes          


11R/29L          
4249          
45          
ASP          
Yes/Yes          













Airport map






Aerial View








Airport accidents



B738, vicinity Tehran Iran, 2020
A140, vicinity Tehran Mehrabad Iran, 2014