LTCI








Van/Ferit Melen Airport





Airport

ICAO code


  LTCI





IATA Code

VAN




Summary

ICAO Region

EUR



ICAO Territory





Turkey






 








Location

Van,




Serving

Van



Elevation

5480 ft



Coordinates



    38°
    28'
          9"
        N
  
      ,
    
    43°
    20'
          16"
        E
  





Metar
LTCI 071150Z 26008KT 9999 FEW040 SCT080 24/12 Q1018 NOSIG








Istanbul Sabiha Gökçen International Airport is one of three international airports serving Istanbul, the largest city in Turkey.
Climatology
Dry-summer subtropical ”Mediterranean" climate (Köppen climate classification Csa)






Runways






Designator
Length
Width
Surface
Rops




3/21          
2750          
45          
ASP          
Yes/Yes          













Airport map






Aerial View