ENTC








Tromso/Langnes





Airport

ICAO code


  ENTC






Summary

ICAO Region

EUR



ICAO Territory





Norway






 








Location

Tromso, Norway,




Elevation

31 ft



Coordinates



    69°
    40'
          60"
        N
  
      ,
    
    18°
    55'
          8"
        E
  




KCC

Dfc




Metar
ENTC 071220Z VRB02KT 9999 SCT015 SCT019 BKN024 12/09 Q1017 NOSIG RMK WIND 2600FT 26017KT








Description
International airport serving city of Tromso in northern Norway.
Climatology
Borderline Subpolar Oceanic/Continental subarctic climate (because of winter temperatures) (Köppen climate classification Cfc/Dfc) - uniform precipitation distribution, temperatures are moderated by the proximity of the ocean and warm currents - cool summers and comparatively mild winters.
Tromso has a reputation for heavy snowfalls in winter.






Runways






Designator
Length
Width
Surface
Rops




1/19          
2392          
45          
ASP          
Yes/Yes          













Airport map






Aerial View