UMBB








Brest Airport





Airport

ICAO code


  UMBB





IATA Code

BQT




Summary

ICAO Region

EUR



ICAO Territory





Russian Federation






 








Location

Shebrin, Brest Region




Serving

Brest



Elevation

468 ft



Coordinates



    52°
    6'
          30"
        N
  
      ,
    
    23°
    53'
          53"
        E
  




KCC

Dfb




Metar
UMBB 071200Z 12006G09MPS 8000 NSC 28/07 Q1022 NOSIG








Brest Airport is an airport serving Brest, a city in Belarus.
Climatology
Humid continental climate (Köppen climate classification Dfb)






Runways






Designator
Length
Width
Surface
Rops




11/29          
2620          
42          
ASP          
No/No          













Airport map






Aerial View