KHON








Huron Regional Airport





Airport

ICAO code


  KHON





IATA Code

HSV




Summary

ICAO Region

NAM



ICAO Territory





United States






 








Location

Huron, South Dakota




Serving

Huron



Elevation

1289 ft



Coordinates



    44°
    23'
          5"
        N
  
      ,
    
    98°
    13'
          32"
        W
  




KCC

Dfa



Airport CFIT

Altimeter Temperature Error Correction




Metar
KHON 071355Z AUTO 19004KT 10SM CLR 12/08 A3028 RMK AO2 SLP258 T01220083








Huron Regional Airport is a public use airport located in the city of Huron in Beadle County, South Dakota, USA.














Airport map






Aerial View