PAIG








Igiugig Airport





Airport

ICAO code


  PAIG





IATA Code

IGG




Summary

ICAO Region

NAM



ICAO Territory





Alaska






 








Location

, Alaska




Serving

Igiugig



Elevation

90 ft



Coordinates



    59°
    19'
          26"
        N
  
      ,
    
    155°
    54'
          7"
        W
  





Metar
PAIG 071256Z AUTO 22006KT 10SM OVC085 10/10 A2991 RMK AO2 SLP136 T01000100









Runways






Designator
Length
Width
Surface
Rops




5/23          
914          
23          
GRVL-F          
No/No          













Airport map






Aerial View