OICC








Shahid Ashrafi Esfahani Airport





Airport

ICAO code


  OICC





IATA Code

KSH




Summary

ICAO Region

MID



ICAO Territory





Iran






 








Location

Nokan, Kermanshah Province




Serving

Kermanshah



Elevation

4301 ft



Coordinates



    34°
    21'
          17"
        N
  
      ,
    
    47°
    8'
          50"
        E
  




KCC

Csa




Metar
OICC 071400Z 26006KT CAVOK 34/M14 Q1013 A2993








Airport serving the city of Kermanshah and surrounding area in Iran.
Climatology
Hot summer Mediterranean climate (Köppen climate classification Csa).






Runways






Designator
Length
Width
Surface
Rops




11/29          
3418          
45          
ASP          
Yes/Yes          













Airport map






Aerial View