KFSM








Fort Smith Regional Airport





Airport

ICAO code


  KFSM





IATA Code

FSM




Summary

ICAO Region

NAM



ICAO Territory





United States






 








Location

Fort Smith, Arkansas




Serving

Fort Smith



Elevation

469 ft



Coordinates



    35°
    20'
          7"
        N
  
      ,
    
    94°
    22'
          4"
        W
  




KCC

Cfa




Metar
KFSM 071353Z 03009KT 10SM CLR 21/11 A3018 RMK AO2 SLP215 T02060106








Joint use (civil/Air National Guard) regional airport serving Fort Smith, Arkansas, USA, located 3 nm southeast of the city's business district.














Airport map






Aerial View