LIRA








Rome/Ciampino Airport





Airport

ICAO code


  LIRA





IATA Code

CIA




Summary

ICAO Region

EUR



ICAO Territory





Italy






 








Location

Ciampino, Lazio




Serving

Rome



Elevation

427 ft



Coordinates



    41°
    47'
          54"
        N
  
      ,
    
    12°
    35'
          48"
        E
  




KCC

Csa




Metar
LIRA 071220Z 19008KT 130V230 CAVOK 33/14 Q1015








Secondary international airport serving Rome.
Climatology
Dry-summer subtropical ”Mediterranean" climate (Köppen climate classification Csa) - characterized by hot, dry summers and mild winters. During the summer, subtropical high pressure cells dominate, making rainfall unlikely except for the occasional thunderstorm. In the winter, periodic storms bring rain (snow at higher elevations).






Runways






Designator
Length
Width
Surface
Rops




15/33          
2207          
47          
ASP          
Yes/Yes          













Airport map






Aerial View








Airport accidents



B738, Rome Ciampino Italy, 2008