KART








Watertown International Airport





Airport

ICAO code


  KART






Summary

ICAO Region

NAM



ICAO Territory





United States






 








Location

Watertown, New York,




Coordinates



    43°
    59'
          30"
        N
  
      ,
    
    76°
    1'
          18"
        W
  




KCC

Dfb



Airport GND

Aircraft Ground De/Anti Icing



Airport RE

Landing on Contaminated Runways



Airport WX

Lake Effect Snow




Metar
KART 071356Z AUTO 21004KT 8SM -RA FEW018 BKN031 OVC043 16/13 A2977 RMK AO2 SLP080 P0002 T01560133








Description
Watertown International Airport is a public use airport located 9 km west of the central business district of Watertown, in Jefferson County, New York.
Climatology
Humid Continental climate (Köppen climate classification Dfb) - Variable weather patterns and a large seasonal temperature variance. Summers are often warm and humid with frequent thunderstorms and winters can be very cold with frequent snowfall and persistent snow cover.














Airport map






Aerial View