KMHT








Manchester-Boston Regional Airport





Airport

ICAO code


  KMHT





IATA Code

MHT




Summary

ICAO Region

NAM



ICAO Territory





United States






 








Location

Manchester, New Hampshire




Serving

Manchester



Elevation

266 ft



Coordinates



    42°
    55'
          40"
        N
  
      ,
    
    71°
    26'
          19"
        W
  




KCC

Dfa



Airport WX

Cumulonimbus




Metar
KMHT 071353Z 06004KT 10SM FEW030 SCT060 BKN250 21/13 A2988 RMK AO2 SLP130 T02060133








Manchester–Boston Regional Airport, commonly referred to simply as "Manchester Airport", is a public use airport located 3 nm south of the central business district of Manchester, New Hampshire, USA.






Runways






Designator
Length
Width
Surface
Rops




6/24          
2088          
46          
ASP          
Yes/Yes          


17/35          
2819          
46          
ASP          
Yes/Yes          













Airport map






Aerial View