KBJI








Bemidji Regional Airport





Airport

ICAO code


  KBJI





IATA Code

BJI




Summary

ICAO Region

NAM



ICAO Territory





United States






 








Location

Bemidji, Minnesota




Serving

Bemidji



Elevation

1391 ft



Coordinates



    47°
    30'
          34"
        N
  
      ,
    
    94°
    55'
          59"
        W
  




KCC

Dfb



Airport CFIT

Altimeter Temperature Error Correction



Airport GND

Aircraft Ground De/Anti Icing



Airport RE

Landing on Contaminated Runways




Metar
KBJI 071435Z AUTO 19006KT 10SM CLR 13/10 A3028 RMK AO2 T01330095








Description
Bemidji Regional Airport is a public use airport located 3 nm northwest of the central business district of Bemidji, a city in Beltrami County, Minnesota, USA.














Airport map






Aerial View