CYBW








Calgary/Springbank Airport





Airport

ICAO code


  CYBW





IATA Code

YBW




Summary

ICAO Region

NAM



ICAO Territory





Canada






 








Location

Springbank, Alberta




Serving

Calgary



Elevation

3940 ft



Coordinates



    51°
    6'
          17"
        N
  
      ,
    
    114°
    22'
          43"
        W
  




KCC

Dfb




Metar
CYBW 071500Z AUTO 33007KT 9SM CLR 14/06 A3010 RMK SLP190 DENSITY ALT 4600FT








Calgary/Springbank Airport or Springbank Airport, is an airport located in Springbank, Alberta, a large western suburb of Calgary, Alberta, Canada.
Climatology
Humid continental climate (Köppen climate classification Dfb)






Runways






Designator
Length
Width
Surface
Rops




7/25          
1036          
30          
ASP          
No/No          


16/34          
1524          
30          
ASP          
No/No          













Airport map






Aerial View