LECO








A Coruña Airport





Airport

ICAO code


  LECO





IATA Code

LCG




Summary

ICAO Region

EUR



ICAO Territory





Spain






 








Location

Alvedro, Galicia




Serving

La Coruna



Elevation

326 ft



Coordinates



    43°
    18'
          7"
        N
  
      ,
    
    8°
    22'
          38"
        W
  




KCC

Cfb




Metar
LECO 071400Z 29007KT 250V320 9999 SCT035 20/11 Q1012 NOSIG








A Coruña Airport, formerly known as Alvedro Airport, is the airport serving the Galician city of A Coruña in northwestern Spain.
Climatology
humid oceanic climate with drier summers, (Köppen climate classification Cfb), heavily moderated by the Atlantic Ocean. Autumn and winter are often unsettled and unpredictable, with strong winds and abundant rainfall coming from Atlantic depressions, and it is often overcast.






Runways






Designator
Length
Width
Surface
Rops




4/22          
1940          
45          
ASP          
Yes/Yes          













Airport map






Aerial View