CYUT








Naujaat Airport





Airport

ICAO code


  CYUT





IATA Code

YUT




Summary

ICAO Region

NAT



ICAO Territory





Canada






 








Location

Naujaat, Nunavut, Canada





Metar
CYUT 071416Z 17011KT 10SM -RA OVC006 05/05 A2986 RMK SC8 SLP116








Naujaat Airport is located at Naujaat, Nunavut, Canada. It is operated by the government of Nunavut.






Runways






Designator
Length
Width
Surface
Rops




16T/34T          
1036          
30          
GVL          
No/No          















Airport accidents



AT43, Naujaat Canada, 2020