KDMA








Davis–Monthan Air Force Base





Airport

ICAO code


  KDMA





IATA Code

DMA




Summary

ICAO Region

NAM



ICAO Territory





United States






 








Location

Tucson, Arizona




Serving

Tucson



Elevation

2704 ft



Coordinates



    32°
    9'
          41"
        N
  
      ,
    
    110°
    52'
          5"
        W
  




KCC

BWh



Airport RE

Hot and High Operations




Metar
KDMA 071355Z AUTO 11010KT 10SM CLR 29/10 A3006 RMK AO2 SLP171 T02860103 $








Description
Davis–Monthan Air Force Base is a United States Air Force base located 4 nm southeast of the central business district of Tucson, Arizona.














Airport map






Aerial View