UBBL








Lankaran International Airport





Airport

ICAO code


  UBBL





IATA Code

LLK




Summary

ICAO Region

APAC



ICAO Territory





Azerbaijan






 








Location

Shilavar, Lankaran




Serving

Lankaran



Elevation

30 ft



Coordinates



    38°
    45'
          31"
        N
  
      ,
    
    48°
    48'
          23"
        E
  




KCC

Csa




Metar
UBBL 071500Z 00000KT 9000 SCT060 24/16 Q1020 NOSIG








Lankaran International Airport is an airport serving Lankaran, a city in Azerbaijan in the south-east of Azerbaijan.
Climatology
Warm mediterranean climate (Köppen climate classification Csa)






Runways






Designator
Length
Width
Surface
Rops




13/31          
1576          
40          
ASP          
No/No          













Airport map






Aerial View