YSTW








Tamworth Airport





Airport

ICAO code


  YSTW





IATA Code

TMW




Summary

ICAO Region

APAC



ICAO Territory





Australia






 








Location

Tamworth, New South Wales




Serving

Tamworth



Elevation

1334 ft



Coordinates



    31°
    4'
          41"
        S
  
      ,
    
    150°
    50'
          45"
        E
  




KCC

Cfa



Airport WX

Cumulonimbus




Metar
YSTW 071500Z AUTO 13003KT 9999 // BKN088 12/10 Q1022 RF00.0/000.0








A regional airport serving Tamworth, a city in the Australian state of New South Wales. It is located 5 nm west of the city.
 














Airport map






Aerial View








Airport accidents



DH8C / Vehicle, Tamworth SE Australia, 2008