UHMA








Ugolny Airport





Airport

ICAO code


  UHMA





IATA Code

DYR




Summary

ICAO Region

EUR



ICAO Territory





Russian Federation






 








Location

Ugolnye, Siberia




Serving

Anadyr



Elevation

194 ft



Coordinates



    64°
    43'
          57"
        N
  
      ,
    
    177°
    43'
          52"
        E
  




KCC

Dfc




Metar
UHMA 071214Z 13012MPS 9999 OVC005 09/08 Q0990 R02/////// NOSIG RMK MID 14013G17MPS END R02/14012G16MPS QFE739/0985








Civil and military airport serving the city of Anadyr in Siberia. With a long runway and modern terminal, the airport is well-suited as an emergency diversion for northern route, trans-Pacific routes.
Climatology
Subarctic climate (Köppen climate classification Dfc) - long, usually very cold winters, and short, cool to mild summers.






Runways






Designator
Length
Width
Surface
Rops




1/19          
3500          
60          
CON          
Yes/Yes          













Airport map






Aerial View