PACZ








Cape Romanzof LRRS Airport





Airport

ICAO code


  PACZ





IATA Code

CZF




Summary

ICAO Region

NAM



ICAO Territory





Alaska






 








Location

Cape Romanzof, Alaska




Serving

Cape Romanzof



Elevation

464 ft



Coordinates



    61°
    46'
          49"
        N
  
      ,
    
    166°
    2'
          19"
        W
  





Metar
PACZ 071313Z AUTO 20013KT 10SM BKN006 06/06 A2986 RMK AO2 SLP115









Runways






Designator
Length
Width
Surface
Rops




2/20          
1216          
41          
GVL          
No/No          













Airport map






Aerial View