SCGZ








Guardiamarina Zañartu Airport





Airport

ICAO code


  SCGZ





IATA Code

WPU




Summary

ICAO Region

CARSAM



ICAO Territory





Chile






 








Location

Puerto Williams, Magallanes y de la Antartica Chilena




Serving

Puerto Williams



Elevation

88 ft



Coordinates



    54°
    55'
          52"
        S
  
      ,
    
    67°
    37'
          35"
        W
  




KCC

Cfc




Metar
SCGZ 071300Z 32005KT 240V050 9999 FEW030 BKN036 07/M01 Q0985








Airport serving city of Puerto Williams in southern Chile.
Climatology
Sub-polar oceanic climate (Köppen climate classification Cfc)






Runways






Designator
Length
Width
Surface
Rops




8/26          
1440          
29          
ASP          
No/No          













Airport map






Aerial View