DNYO








Yola Airport





Airport

ICAO code


  DNYO





IATA Code

YOL




Summary

ICAO Region

AFI



ICAO Territory





Nigeria






 








Location

Jimeta, Adamawa State




Serving

Yola



Elevation

612 ft



Coordinates



    9°
    15'
          27"
        N
  
      ,
    
    12°
    25'
          49"
        E
  




KCC

Aw




Metar
DNYO 071200Z 32009KT 9999 SCT012 31/24 Q1015








Yola Airport is an airport serving Yola, the capital of the Adamawa State of Nigeria. It is 5nm northwest of Yola.
Climatology
Tropical savanna climate (Köppen climate classification Aw)






Runways






Designator
Length
Width
Surface
Rops




13/31          
1573          
30          
ASP          
No/No          


17/35          
2999          
45          
ASP          
No/No          













Airport map






Aerial View