PAFR








Bryant Army Air Force Airport





Airport

ICAO code


  PAFR





IATA Code

FRN




Summary

ICAO Region

NAM



ICAO Territory





Alaska






 








Location

, Alaska




Serving

Fort Richardson



Elevation

378 ft



Coordinates



    61°
    15'
          59"
        N
  
      ,
    
    149°
    39'
          11"
        W
  





Metar
PAFR 071255Z AUTO 00000KT 10SM OVC055 08/07 A2989 RMK AO2 SLP124 T00810072 $









Runways






Designator
Length
Width
Surface
Rops




17/35          
1273          
30          
ASPH          
No/No          













Airport map






Aerial View