KAZO








Kalamazoo/Battle Creek International Airport





Airport

ICAO code


  KAZO





IATA Code

AZO




Summary

ICAO Region

NAM



ICAO Territory





United States






 








Location

Kalamazoo, Michigan




Serving

Kalamazoo



Elevation

874 ft



Coordinates



    42°
    14'
          2"
        N
  
      ,
    
    85°
    33'
          3"
        W
  




KCC

Dfb



Airport CFIT

Altimeter Temperature Error Correction




Metar
KAZO 071353Z 35011KT 10SM SCT050 13/07 A3016 RMK AO2 SLP217 T01280072








Kalamazoo/Battle Creek International Airport is a public use airport located 3 nm southeast of the central business district of Kalamazoo, a city in Kalamazoo County, Michigan, USA. The airport is also serves the nearby city of Battle Creek.














Airport map






Aerial View