EGUN








RAF Mildenhall





Airport

ICAO code


  EGUN





IATA Code

MHZ




Summary

ICAO Region

EUR



ICAO Territory





United Kingdom






 








Location

Mildenhall, Suffolk, England




Serving

Mildenhall



Elevation

33 ft



Coordinates



    52°
    21'
          43"
        N
  
      ,
    
    0°
    29'
          11"
        E
  





Metar
EGUN 071355Z 14003KT 9999 FEW030 BKN120 BKN200 24/13 A2978 RMK AO2A SLP087 T02410127 $








Royal Air Force Mildenhall is a Royal Air Force station located near Mildenhall in Suffolk, England.






Runways






Designator
Length
Width
Surface
Rops




11/29          
2811          
61          
PEM          
No/No          













Airport map






Aerial View