KMFR








Rogue Valley International-Medford Airport





Airport

ICAO code


  KMFR





IATA Code

MFR




Summary

ICAO Region

NAM



ICAO Territory





United States






 








Location

Medford, Oregon




Serving

Jackson County



Elevation

1335 ft



Coordinates



    42°
    22'
          27"
        N
  
      ,
    
    122°
    52'
          23"
        W
  




KCC

Csa



Airport BS

Non Avian Wildlife Hazards to Aircraft




Metar
KMFR 071253Z 00000KT 10SM CLR 19/11 A2992 RMK AO2 SLP119 T01890106 $








Rogue Valley International-Medford Airport is a public airport located 3 nm north of downtown Medford in Jackson County, Oregon, USA. In addition to Jackson County, the airport serves seven nearby counties in southwest Oregon.






Runways






Designator
Length
Width
Surface
Rops




9/27          
956          
30          
ASP          
Yes/Yes          


14/32          
2682          
46          
ASP          
Yes/Yes          













Airport map






Aerial View








Airport accidents



DH8D, vicinity Medford OR USA, 2003