KCEC








Del Norte County Airport





Airport

ICAO code


  KCEC





IATA Code

CEC




Summary

ICAO Region

NAM



ICAO Territory





United States






 








Location

Crescent City, California




Serving

Crescent City



Elevation

61 ft



Coordinates



    41°
    46'
          48"
        N
  
      ,
    
    124°
    14'
          11"
        W
  




KCC

Csb



Airport WX

Fog




Metar
KCEC 071404Z AUTO 18005KT 1SM BR VV002 14/14 A2994 RMK AO2 T01390139








Description
Del Norte County Regional Airport, also known as Jack McNamara Field, is a public use airport located 3 nm northwest of the central business district of Crescent City, in Del Norte County, California.














Airport map






Aerial View