KGRK








Killeen-Fort Hood Regional Airport





Airport

ICAO code


  KGRK





IATA Code

GRK




Summary

ICAO Region

NAM



ICAO Territory





United States






 








Location

Killeen, Texas




Serving

Killeen



Elevation

1015 ft



Coordinates



    31°
    3'
          43"
        N
  
      ,
    
    97°
    49'
          17"
        W
  




KCC

Cfa



Airport WX

Cumulonimbus




Metar
KGRK 071355Z AUTO 03012KT 10SM CLR 23/18 A3009 RMK AO2 SLP178 T02320183








Killeen–Fort Hood Regional Airport, also known as Robert Gray Army Airfield, is a small military/commercial joint-use airport located inside of the Fort Hood Military Reservation, 6 nm southwest of the central business district of Killeen, in Bell County, Texas, USA.














Airport map






Aerial View