KFTW








Fort Worth Meacham International Airport





Airport

ICAO code


  KFTW





IATA Code

FTW




Summary

ICAO Region

NAM



ICAO Territory





United States






 








Location

Saginaw, Texas




Serving

Fort Worth



Elevation

710 ft



Coordinates



    32°
    49'
          11"
        N
  
      ,
    
    97°
    21'
          45"
        W
  




KCC

Cfa




Metar
KFTW 071353Z 03013G22KT 10SM CLR 22/12 A3013 RMK AO2 SLP194 T02170122








Forth Worth Meacham International Airport, also known as Meacham Field, is a general aviation airport located 4 nm northwest of Forth Worth, Texas, USA.














Airport map






Aerial View