DNPO








Port Harcourt International Airport





Airport

ICAO code


  DNPO





IATA Code

PHC




Summary

ICAO Region

AFI



ICAO Territory





Nigeria






 








Location

Omagwa, Rivers State




Serving

Port Harcourt



Elevation

87 ft



Coordinates



    5°
    0'
          49"
        N
  
      ,
    
    6°
    57'
          3"
        E
  




KCC

Am




Metar
DNPO 071300Z 22004KT 5000 -RA BKN007 FEWCB018 25/24 Q1013 NOSIG








Port Harcourt International Airport is located in Port Harcourt, a city in the Rivers State of Nigeria. It is the main airport serving southeastern Nigeria.
Climatology
Tropical Monsoon climate (Köppen climate classification Am)






Runways






Designator
Length
Width
Surface
Rops




3/21          
3001          
60          
ASP          
Yes/Yes          













Airport map






Aerial View








Airport accidents



B735, vicinity Port Harcourt Nigeria, 2019
A333, Port Harcourt Nigeria, 2019
MD83, Port Harcourt Nigeria, 2018
C56X, Port Harcourt Nigeria, 2013
DC93, vicinity Port Harcourt Nigeria, 2005