LFOB








Beauvais-Tillé Airport





Airport

ICAO code


  LFOB





IATA Code

BVA




Summary

ICAO Region

EUR



ICAO Territory





France






 








Location

Tillé, Picardie




Serving

Beauvais



Elevation

359 ft



Coordinates



    49°
    27'
          12"
        N
  
      ,
    
    2°
    6'
          55"
        E
  




KCC

Cfb




Metar
LFOB 071300Z AUTO 08005KT 050V130 9999 FEW014 SCT058 BKN080 21/17 Q1009 TEMPO BKN009








Description
Airport serving Beauvais.
Climatology
Temperate Marine climate/Oceanic climate (Köppen climate classification Cfb). Moderately cool summer and comparatively warm winter. Prevailing south-westerly winds from the Atlantic Ocean.






Runways






Designator
Length
Width
Surface
Rops




13R/31L          
0          
0          
UNK          
No/No          


4/22          
1105          
30          
ASP          
Yes/Yes          


13/31          
2430          
45          
ASP          
Yes/Yes          













Airport map






Aerial View