LQMO








Mostar International Airport





Airport

ICAO code


  LQMO





IATA Code

OMO




Summary

ICAO Region

EUR



ICAO Territory





Bosnia and Herzegovina






 








Location

Ortijes, Bosnia and Hertzegovina




Serving

Mostar



Elevation

156 ft



Coordinates



    43°
    16'
          55"
        N
  
      ,
    
    17°
    50'
          38"
        E
  




KCC

Cfa




Metar
LQMO 071230Z VRB06KT 9999 FEW050 SCT080 33/13 Q1014








Mostar International Airport is an airport near Mostar, Bosnia and Herzegovina, situated in the village of Ortiješ, 4 NM southeast of Mostar.
Climatology
Humid subtropical climate (Köppen climate classification Cfa)






Runways






Designator
Length
Width
Surface
Rops




16/34          
2400          
48          
ASP          
No/No          













Airport map






Aerial View