ZHHH








Wuhan Tianhe International Airport





Airport

ICAO code


  ZHHH





IATA Code

WUH




Summary

ICAO Region

APAC



ICAO Territory





China






 








Location

Wuhan, Hubei




Serving

Wuhan



Elevation

113 ft



Coordinates



    30°
    47'
          1"
        N
  
      ,
    
    114°
    12'
          29"
        E
  




KCC

Cfa




Metar
ZHHH 071300Z 03003MPS CAVOK 31/25 Q1010 NOSIG








Description
Wuhan Tianhe International Airport serves Wuhan, the capital of the Hubei Province, China. The airport is located around 26 km to the north of Wuhan city center.
Climatology
Humid subtropical climate (Köppen climate classification Cfa.) Hot muggy summers with frequent thunderstorms. Winters are mild and precipitation during this season comes from mid-latitude cyclones. This climate type is quite common on the east coasts of continents.














Airport map






Aerial View