URMM








Mineralnye Vody Airport





Airport

ICAO code


  URMM





IATA Code

MRV




Summary

ICAO Region

EUR



ICAO Territory





Russian Federation






 








Location

Stavropol Krai, North Caucasus




Serving

Mineralnye Vody



Elevation

1053 ft



Coordinates



    44°
    13'
          30"
        N
  
      ,
    
    43°
    4'
          55"
        E
  




KCC

Dfa




Metar
URMM 071230Z 11009MPS 9999 BKN046 21/14 Q1020 R11/090070 NOSIG RMK QFE737/0982








Mineralnye Vody Airport is an airport in Stavropol Krai, Russia
Climatology
Humid Continental climate (Köppen climate classification Dfa)






Runways






Designator
Length
Width
Surface
Rops




12/30          
3900          
60          
CON          
Yes/Yes          













Airport map






Aerial View