EPGD








Gdańsk Lech Wałęsa Airport





Airport

ICAO code


  EPGD





IATA Code

GDN




Summary

ICAO Region

EUR



ICAO Territory





Poland






 








Location

Rebiechowo, Pomorskie




Serving

Gdansk



Elevation

489 ft



Coordinates



    54°
    22'
          39"
        N
  
      ,
    
    18°
    27'
          58"
        E
  





Metar
EPGD 071200Z 05008KT CAVOK 26/14 Q1019









Runways






Designator
Length
Width
Surface
Rops




11/29          
2800          
45          
ASP          
Yes/Yes          













Airport map






Aerial View