LFJL








Metz-Nancy-Lorraine Airport





Airport

ICAO code


  LFJL





IATA Code

ETZ




Summary

ICAO Region

EUR



ICAO Territory





France






 








Location

, Lorraine




Serving

Metz



Elevation

870 ft



Coordinates



    48°
    58'
          56"
        N
  
      ,
    
    6°
    15'
          5"
        E
  





Metar
LFJL 071400Z AUTO 09010KT 060V120 CAVOK 28/17 Q1010 NOSIG









Runways






Designator
Length
Width
Surface
Rops




4/22          
2500          
45          
ASP          
Yes/Yes          













Airport map






Aerial View