NFNM








Matei Airport





Airport

ICAO code


  NFNM





IATA Code

TVU




Summary

ICAO Region

APAC



ICAO Territory





Fiji






 








Location

, Northern




Serving

Matei



Elevation

60 ft



Coordinates



    16°
    41'
          26"
        S
  
      ,
    
    179°
    52'
          37"
        W
  





Metar
NFNM 062300Z 13015KT 9999 -SHRA SCT017TCU BKN045 OVC100 22/21 Q1015









Runways






Designator
Length
Width
Surface
Rops




11/29          
1000          
0          
UNK          
No/No          













Airport map






Aerial View