UACP








Petropavlosk South Airport





Airport

ICAO code


  UACP





IATA Code

PPK




Summary

ICAO Region

APAC



ICAO Territory





Kazakhstan






 








Location

Petropavlosk,




Serving

Petropavlosk



Elevation

413 ft



Coordinates



    54°
    46'
          29"
        N
  
      ,
    
    69°
    11'
          2"
        E
  





Metar
UACP 071400Z 36004MPS 9999 OVC036CB 13/11 Q1016 NOSIG RMK QFE750/1000








Description
Petropavl Airport (also given as Petropavlovsk South) is an airport in Kazakhstan located 11 km south of Petropavl (Petropavlovsk).






Runways






Designator
Length
Width
Surface
Rops




5/23          
2496          
39          
ASP          
No/No          













Airport map






Aerial View