KMFE








McAllen-Miller International Airport





Airport

ICAO code


  KMFE





IATA Code

MFE




Summary

ICAO Region

NAM



ICAO Territory





United States






 








Location

McAllen, Texas




Serving

McAllen



Elevation

107 ft



Coordinates



    26°
    10'
          46"
        N
  
      ,
    
    98°
    14'
          17"
        W
  




KCC

BSh



Airport WX

Tropical Revolving Storm




Metar
KMFE 071353Z 35014G21KT 10SM BKN018 OVC024 25/21 A2993 RMK AO2 SLP135 T02500206








McAllen Miller International Airport is a public use airport located 2 nm south of the central business district of McAllen, a city in Hidalgo County, Texas, USA.






Runways






Designator
Length
Width
Surface
Rops




18/36          
804          
18          
ASP          
Yes/Yes          


13/31          
2170          
46          
ASP          
Yes/Yes          













Airport map






Aerial View