FAOR








O. R. Tambo International Airport





Airport

ICAO code


  FAOR





IATA Code

JNB




Summary

ICAO Region

AFI



ICAO Territory





South Africa






 








Location

Kempton Park, Gauteng




Serving

Johannesburg



Elevation

5558 ft



Coordinates



    26°
    8'
          12"
        S
  
      ,
    
    28°
    14'
          28"
        E
  




KCC

Cwb




Metar
FAOR 071230Z 32010KT 300V360 CAVOK 24/00 Q1025 NOSIG








International airport north east of Johannesburg, South Africa. Originally called Jan Smuts International Airport (former ICAO code FAJS), renamed Johannesburg International Airport in 1994 and then became O R Tambo International Airport in 2005 whereupon the ICAO code changed to FAOR.
Climatology
Sub-tropical highland climate (Köppen climate classification Cwb) characterised by mild, dry winters and warm, rainy summers.














Airport map






Aerial View








Airport accidents



B738/B734, Johannesburg South Africa, 2010
B744, Johannesburg South Africa, 2013