LOWS








Salzburg





Airport

ICAO code


  LOWS





IATA Code

SZG




Summary

ICAO Region

EUR



ICAO Territory





Austria






 








Location

Himmelreich, Salzburg




Serving

Salzburg



Elevation

1411 ft



Coordinates



    47°
    47'
          42"
        N
  
      ,
    
    13°
    0'
          12"
        E
  




KCC

Cfb




Metar
LOWS 071220Z AUTO 01005KT 340V040 9999 NCD 28/16 Q1013 NOSIG








International airport serving Salzburg.
Climatology
Temperate Marine climate/Oceanic climate (Köppen climate classification Cfb). Moderately cool summer and comparatively warm winter.






Runways






Designator
Length
Width
Surface
Rops




16/34          
2750          
45          
CON          
Yes/Yes          













Airport map






Aerial View








Airport accidents



E195, vicinity Salzburg Austria, 2017