LPPS








Porto Santo Airport





Airport

ICAO code


  LPPS





IATA Code

PXO




Summary

ICAO Region

EUR



ICAO Territory





Azores






 








Location

Vila Baleira, Região Autónoma da Madeira




Serving

Porto Santo



Elevation

341 ft



Coordinates



    33°
    4'
          24"
        N
  
      ,
    
    16°
    20'
          59"
        W
  




KCC

Csa




Metar
LPPS 071230Z 07012KT 030V100 9999 SCT015 SCT035 25/17 Q1015








Porto Santo Airport is an airport located in Vila Baleira, the capital of Porto Santo Island, Madeira.
Climatology
Dry-summer subtropical ”Mediterranean" climate (Köppen climate classification Csa)






Runways






Designator
Length
Width
Surface
Rops




1/19          
0          
0          
UNK          
Yes/Yes          


18/36          
3006          
45          
CON          
Yes/Yes          













Airport map






Aerial View