FAPN








Pilanesberg International Airport





Airport

ICAO code


  FAPN





IATA Code

NTY




Summary

ICAO Region

AFI



ICAO Territory





South Africa






 








Location

, North-West




Serving

Pilanesberg



Elevation

3412 ft



Coordinates



    25°
    20'
          2"
        S
  
      ,
    
    27°
    10'
          24"
        E
  





Metar
FAPN 071200Z AUTO 33005G17KT //// // ////// 31/02 Q1021









Runways






Designator
Length
Width
Surface
Rops




5/23          
2750          
30          
ASP          
No/No          













Airport map






Aerial View