LYNI








Niš





Airport

ICAO code


  LYNI





IATA Code

INI




Summary

ICAO Region

EUR



ICAO Territory





Serbia






 








Location

Medosevac, Nisava




Serving

Niš



Elevation

650 ft



Coordinates



    43°
    20'
          14"
        N
  
      ,
    
    21°
    51'
          13"
        E
  




KCC

Cfa



Airport WX

Cumulonimbus




Metar
LYNI 071430Z 04011KT 350V080 9999 FEW050 31/14 Q1016 NOSIG








Description
Niš Constantine the Great Airport, serves southern Serbia and the city of Niš. It is located 4 km from the Niš city centre and is Serbia's second international airport.
Climatology
Humid “subtropical” climate (Köppen climate classification Cfa) - characterized by hot, humid summers and cool winters. Significant amounts of precipitation occur in all seasons in most areas. Winter rainfall (and sometimes snowfall) is associated with large storms that the westerlies steer from west to east. Most summer rainfall occurs during thunderstorms.






Runways






Designator
Length
Width
Surface
Rops




11/29          
2500          
45          
ASP          
No/No          













Airport map






Aerial View