URSS








Sochi International





Airport

ICAO code


  URSS






Summary

ICAO Region

APAC



ICAO Territory





Russian Federation






 








Location

Sochi, Krasnodar Krai,




Coordinates



    43°
    26'
          39"
        N
  
      ,
    
    39°
    56'
          36"
        E
  




KCC

Cfa




Metar
URSS 071200Z 28005MPS 9999 FEW050 28/15 Q1013 WS ALL RWY R02/010070 R06/010070 NOSIG RMK R06/29007MPS QFE758








Description
Airport located in Adler District of the resort city of Sochi situated at the Black Sea coast in Krasnodar Krai, Russia.
Climatology
Humid “subtropical” climate (Köppen climate classification Cfa) - characterized by hot, humid summers and cool winters. Significant amounts of precipitation occur in all seasons in most areas. Winter rainfall (and sometimes snowfall) is associated with large storms that the westerlies steer from west to east. Most summer rainfall occurs during thunderstorms.






Runways






Designator
Length
Width
Surface
Rops




2/20          
2200          
49          
CON          
Yes/Yes          


6/24          
2890          
50          
CON          
Yes/Yes          













Airport map






Aerial View








Airport accidents



B738, Sochi Russia, 2018
A320, vicinity Sochi Russia, 2006