ZSFZ








Fuzhou Changle International





Airport

ICAO code


  ZSFZ





IATA Code

FOC




Summary

ICAO Region

APAC



ICAO Territory





China






 








Location

Changle, Fujian




Serving

Fuzhou



Elevation

46 ft



Coordinates



    25°
    56'
          6"
        N
  
      ,
    
    119°
    39'
          48"
        E
  




KCC

Cwa




Metar
ZSFZ 071300Z 02004MPS 9999 BKN011 BKN019 28/26 Q1012 BECMG TL1430 BKN015








Description
Fuzhou Changle International Airport is an airport serving Fuzhou, the capital of Fujian province, China. The airport is located near the shore of the Taiwan Strait in Zhanggang Subdistrict, Changle, about 50 km east of Fuzhou's city center.
Climatology
Within the Köppen Climate Classification System, ((Koppen climate classification Cwa)) this climate type generally has warm and humid summers with mild winters. Its extent is from 30 to 50° of latitude mainly on the eastern and western borders of most continents. During the winter, the main weather feature is the mid-latitude cyclone. Convective thunderstorms provide precipitation in the summer months.














Airport map






Aerial View