BGTL








USAF Thule Airport





Airport

ICAO code


  BGTL





IATA Code

THU




Summary

ICAO Region

NAT



ICAO Territory





Greenland






 








Location

Thule,




Serving

Thule



Elevation

251 ft



Coordinates



    76°
    31'
          52"
        N
  
      ,
    
    68°
    42'
          24"
        W
  




KCC

ET



Airport WX

Low Level Turbulence




Metar
BGTL 071155Z AUTO 00000KT 9999 CLR 02/M02 A2996 RMK AO2 SLP127 T00181025 10025 21010 52024 TSNO $








Description
Military (USA) and civil airport in northwest Greenland.
Climatology
Tundra climate (Köppen climate classification ET) - warmest month has an average temperature of 0 - 10 degrees C.






Runways






Designator
Length
Width
Surface
Rops




8/26          
3047          
43          
ASPH          
No/No          


08T/26T          
3047          
43          
ASP          
No/No          













Airport map






Aerial View