KMMH








Mammoth Yosemite Airport





Airport

ICAO code


  KMMH





IATA Code

MMH




Summary

ICAO Region

NAM



ICAO Territory





United States






 








Location

Mammoth Lakes, California




Serving

Mammoth Lakes



Elevation

7135 ft



Coordinates



    37°
    37'
          27"
        N
  
      ,
    
    118°
    50'
          19"
        W
  




KCC

Dsb



Airport CFIT

Altimeter Temperature Error Correction



Airport RE

Hot and High Operations



Airport WX

Mountain Waves




Metar
KMMH 071435Z AUTO 00000KT 10SM CLR 09/00 A3037 RMK AO2 T00871003








Mammoth Yosemite Airport, also known as Mammoth Lakes Airport or Mammoth-June Lake Airport, is a town-owned public-use airport located 6 nm east of the central business district of Mammoth Lakes, a town in Mono County, California, USA.






Runways






Designator
Length
Width
Surface
Rops




9/27          
2134          
30          
ASP          
Yes/Yes          













Airport map






Aerial View