OIFM








Isfahan International Airport





Airport

ICAO code


  OIFM





IATA Code

IFN




Summary

ICAO Region

MID



ICAO Territory





Iran






 








Location

Qahjavarestan, Isfahan Province




Serving

Isfahan



Elevation

5059 ft



Coordinates



    32°
    44'
          50"
        N
  
      ,
    
    51°
    52'
          20"
        E
  




KCC

BWk




Metar
OIFM 071130Z 11008KT CAVOK 35/M09 Q1015 A3000








International airport 15km north east of the city of Isfahan, Iran.
Climatology
Cold semi-arid climate (Köppen climate classification BWk).






Runways






Designator
Length
Width
Surface
Rops




08L/26R          
4397          
45          
ASP          
Yes/Yes          


08R/26L          
4397          
45          
ASP          
Yes/Yes          













Airport map






Aerial View








Airport accidents



MD83 / AT76, Isfahan Iran, 2018