KGCK








Garden City Regional Airport





Airport

ICAO code


  KGCK





IATA Code

GCK




Summary

ICAO Region

NAM



ICAO Territory





United States






 








Location

Garden City, Kansas




Serving

Garden City



Elevation

2891 ft



Coordinates



    37°
    55'
          39"
        N
  
      ,
    
    100°
    43'
          20"
        W
  




KCC

BSk



Airport CFIT

Altimeter Temperature Error Correction




Metar
KGCK 071354Z 14012KT 10SM CLR 15/12 A3027 RMK AO2 SLP230 T01500122








Garden City Regional Airport is a public-use airport located 9 nm southeast of the central business district of Garden City, in Finney County, Kansas, USA.














Airport map






Aerial View