LOWL








Linz





Airport

ICAO code


  LOWL





IATA Code

LNZ




Summary

ICAO Region

EUR



ICAO Territory





Austria






 








Location

Horsching, Upper Austria




Serving

Linz



Elevation

977 ft



Coordinates



    48°
    13'
          60"
        N
  
      ,
    
    14°
    11'
          15"
        E
  




KCC

Dfb




Metar
LOWL 071220Z AUTO 07007KT 030V140 9999 NCD 28/14 Q1013 NOSIG








International airport serving Linz, Austria.
Climatology
Humid Continental climate (Köppen climate classification Dfb)






Runways






Designator
Length
Width
Surface
Rops




09L/27R          
660          
45          
GRS          
No/No          


9/27          
3000          
60          
ASP          
Yes/Yes          













Airport map






Aerial View