KEAR








Kearney Regional Airport





Airport

ICAO code


  KEAR





IATA Code

EAR




Summary

ICAO Region

NAM



ICAO Territory





United States






 








Location

Kearney, Nebraska




Serving

Kearney



Elevation

2131 ft



Coordinates



    40°
    43'
          32"
        N
  
      ,
    
    99°
    0'
          31"
        W
  




KCC

Dfa




Metar
KEAR 071356Z AUTO 13005KT 10SM OVC046 14/11 A3032 RMK AO2 SLP264 T01390106








Kearney Regional Airport is a public use airport located 5 nm northeast of the central business district of Kearney, a city in Buffalo County, Nebraska, USA.














Airport map






Aerial View