HTMT








Mtwara Airport





Airport

ICAO code


  HTMT





IATA Code

MYW




Summary

ICAO Region

AFI



ICAO Territory





Tanzania






 








Location

Mtwara, Mtwara Region




Serving

Mtwara



Elevation

371 ft



Coordinates



    10°
    20'
          10"
        S
  
      ,
    
    40°
    10'
          55"
        E
  




KCC

Aw




Metar
HTMT 071200Z 13009KT 9999 SCT024 30/21 Q1017 NOSIG








Mtwara Airport is an airport in southern Tanzania serving the town of Mtwara.
Climatology
Tropical Savanna climate (Köppen climate classification Aw)






Runways






Designator
Length
Width
Surface
Rops




8/26          
1163          
30          
GRE          
No/No          


1/19          
2259          
30          
ASP          
No/No          













Airport map






Aerial View