LIRS








Grosseto Airport





Airport

ICAO code


  LIRS





IATA Code

GRS




Summary

ICAO Region

EUR



ICAO Territory





Italy






 








Location

Grosseto, Tuscany




Serving

Grosseto



Elevation

15 ft



Coordinates



    42°
    45'
          39"
        N
  
      ,
    
    11°
    4'
          17"
        E
  




KCC

Csa




Metar
LIRS 071355Z 20013KT 9999 FEW025 31/22 Q1015








Grosseto Airport is an airport in central Italy, located 1.6 nm west of Grosseto in the Italian region of Tuscany. Grosseto Airport is primarily an Italian Air Force Base, but the facility is used as a commercial airport by civilian charter flights and private aircraft.
Climatology
Warm mediterranean climate (Köppen climate classification Csa)






Runways






Designator
Length
Width
Surface
Rops




03R/21L          
2356          
24          
ASP          
No/No          


3/21          
2994          
45          
ASP          
No/No          













Airport map






Aerial View