RPMZ








Zamboanga International Airport





Airport

ICAO code


  RPMZ





IATA Code

ZAM




Summary

ICAO Region

APAC



ICAO Territory





Philippines






 








Location

Zamboanga City, Mindanao




Serving

Zamboanga City



Elevation

33 ft



Coordinates



    6°
    55'
          20"
        N
  
      ,
    
    122°
    3'
          35"
        E
  




KCC

Am




Metar
RPMZ 070100Z 09007KT 060V130 9999 BKN017 31/26 Q1013 RMK A2991








Zamboanga International Airport is the main airport serving Zamboanga City in the Philippines.
Climatology
Tropical monsoon climate (Köppen climate classification Am)






Runways






Designator
Length
Width
Surface
Rops




9/27          
2609          
44          
ASP          
Yes/Yes          













Airport map






Aerial View