KSCK








Stockton Metropolitan Airport





Airport

ICAO code


  KSCK






Summary

ICAO Region

NAM



ICAO Territory





United States






 








Location

Stockton, California,




Coordinates



    37°
    53'
          35"
        N
  
      ,
    
    121°
    14'
          16"
        W
  




KCC

Csa



Airport LOS

Parallel Runway Operation




Metar
KSCK 071355Z 35003KT 10SM CLR 22/05 A2987 RMK AO2 SLP115 T02170050 $








Description
Stockton Metropolitan Airport is a public airport located 5 km southeast of the central business district) of Stockton, a city in San Joaquin County, California.
Climatology
Mediterranean climate (Köppen climate classification Csa) - hot, dry summers and mild winters.






Runways






Designator
Length
Width
Surface
Rops




11R/29L          
1358          
23          
ASP          
Yes/Yes          


11L/29R          
3246          
46          
ASP          
Yes/Yes          













Airport map






Aerial View