KEWB








New Bedford Regional Airport





Airport

ICAO code


  KEWB






Summary

ICAO Region

NAM



ICAO Territory





United States






 








Location

New Bedford, Massachusetts,




Elevation

80 ft



Coordinates



    41°
    40'
          38"
        N
  
      ,
    
    70°
    57'
          31"
        W
  




KCC

Dfa



Airport BS

Bird Strike



Airport WX

Cumulonimbus




Metar
KEWB 071353Z 35005KT 10SM FEW015 21/16 A2987 RMK AO2 SLP115 T02110161








Description
New Bedford Regional Airport is a public airport located 3 km northwest of the central business district of New Bedford, a city in Bristol County, Massachusetts.
Climatology
Humid continental climate with a maritime influence (Köppen climate classification Dfa/Cfa) - characterized by four seasons: cold, windy, snowy winters, mild springs, hot, humid summers, and crisp and relatively short autumns. Precipitation reaches its lowest in January and February and peaks in summer and latter half of spring.














Airport map






Aerial View