CYRL








Red Lake Airport





Airport

ICAO code


  CYRL





IATA Code

YRL




Summary

ICAO Region

NAM



ICAO Territory





Canada






 








Location

Cochenour, Ontario




Serving

Red Lake



Elevation

1266 ft



Coordinates



    51°
    4'
          2"
        N
  
      ,
    
    93°
    47'
          35"
        W
  




KCC

Dfb



Airport CFIT

Altimeter Temperature Error Correction




Metar
CYRL 071400Z 21008KT 15SM SCT038 BKN120 BKN190 11/08 A3020 RMK SC3AC3AC1 SLP243








Red Lake Airport is located 3 nm (5.6 km; 3.5 mi) north of Red Lake, Ontario, Canada.






Runways






Designator
Length
Width
Surface
Rops




8/26          
1524          
46          
ASP          
No/No          













Airport map






Aerial View