KCPR








Casper-Natrona County International Airport





Airport

ICAO code


  KCPR





IATA Code

CPR




Summary

ICAO Region

NAM



ICAO Territory





United States






 








Location

Casper, Wyoming




Serving

Casper



Elevation

5350 ft



Coordinates



    42°
    53'
          51"
        N
  
      ,
    
    106°
    27'
          51"
        W
  




KCC

BSk



Airport CFIT

Altimeter Temperature Error Correction



Airport RE

Hot and High Operations




Metar
KCPR 071353Z 26005KT 10SM SCT120 13/04 A3026 RMK AO2 SLP195 T01330044








Description
Casper–Natrona County International Airport is a public use airport located 7 nm northwest of the central business district of Casper, a city in Natrona County, Wyoming, USA.














Airport map






Aerial View