DFFD








Ouagadougou International Airport





Airport

ICAO code


  DFFD





IATA Code

OUA




Summary

ICAO Region

AFI



ICAO Territory





Burkina Faso






 








Location

Ouagadougou,




Serving

Ouagadougou



Elevation

1037 ft



Coordinates



    12°
    21'
          13"
        N
  
      ,
    
    1°
    30'
          43"
        W
  





Metar
DFFD 071300Z 11005KT 070V180 9999 SCT020 29/23 Q1014 NOSIG








Description
Ouagadougou International Airport is an airport located in the centre of the city of Ouagadougou in Burkina Faso.






Runways






Designator
Length
Width
Surface
Rops




04R/22L          
1911          
30          
LAT          
Yes/Yes          


04L/22R          
3028          
45          
ASP          
Yes/Yes          













Airport map






Aerial View