FQNP








Nampula Airport





Airport

ICAO code


  FQNP





IATA Code

APL




Summary

ICAO Region

AFI



ICAO Territory





Mozambique






 








Location

Nampula,




Serving

Nampula



Elevation

1444 ft



Coordinates



    15°
    6'
          16"
        S
  
      ,
    
    39°
    16'
          59"
        E
  





Metar
FQNP 071400Z 14010KT 9999 BKN020 30/15 Q1019









Runways






Designator
Length
Width
Surface
Rops




13/31          
1565          
45          
GVL          
No/No          


5/23          
2000          
45          
ASP          
No/No          













Airport map






Aerial View