SCFA








Andres Sabella Galvez International Airport





Airport

ICAO code


  SCFA





IATA Code

ANF




Summary

ICAO Region

CARSAM



ICAO Territory





Chile






 








Location

La Chimba, Antofagasta




Serving

Antofagasta



Elevation

455 ft



Coordinates



    23°
    26'
          40"
        S
  
      ,
    
    70°
    26'
          42"
        W
  




KCC

BWh




Metar
SCFA 071300Z 19009KT 9999 BKN026 15/09 Q1015 NOSIG








International airport 6.2 nm north of Antofagasta, Chile.
Climatology
Mild desert climate (Köppen climate classification BWh)






Runways






Designator
Length
Width
Surface
Rops




1/19          
2599          
50          
ASP          
No/No          













Airport map






Aerial View