HTTB








Tabora Airport





Airport

ICAO code


  HTTB





IATA Code

TBO




Summary

ICAO Region

AFI



ICAO Territory





Tanzania






 








Location

Tabora, Tabora Region




Serving

Tabora



Elevation

3868 ft



Coordinates



    5°
    4'
          37"
        S
  
      ,
    
    32°
    49'
          56"
        E
  




KCC

Aw



Airport BS

Bird Strike




Metar
HTTB 071200Z 12015KT 9999 SCT027 32/11 Q1019 NOSIG








International airport serving Tabora, Tanzania.
Climatology
Tropical Savanna climate (Köppen climate classification Aw)














Airport map






Aerial View