FGBT








Bata





Airport

ICAO code


  FGBT






Summary

ICAO Region

AFI



ICAO Territory





Equatorial Guinea






 








Location

Bata,




Coordinates



    1°
    54'
          19"
        N
  
      ,
    
    9°
    48'
          20"
        E
  





Metar
FGBT 070100Z 15002KT 8000 SCT010 24/24 Q1013








Description
Bata Airport is the second largest airport in Equatorial Guinea, after Malabo Airport, and is the only other paved runway.
Climatology






Runways






Designator
Length
Width
Surface
Rops




5/23          
0          
0          
UNK          
No/No          


4/22          
2134          
45          
ASP          
No/No          













Airport map






Aerial View