KCVX








Charlevoix Municipal Airport





Airport

ICAO code


  KCVX






Summary

ICAO Region

NAM



ICAO Territory





United States






 








Location

Charlevoix, Michigan




Serving

Charlevoix



Elevation

669 ft



Coordinates



    45°
    18'
          14"
        N
  
      ,
    
    85°
    15'
          58"
        W
  




KCC

Dfb



Airport CFIT

Altimeter Temperature Error Correction




Metar
KCVX 071415Z AUTO 35016G22KT 10SM OVC032 10/03 A3017 RMK AO2 T01020032








Description
Charlevoix Municipal Airport is a public use airport located 1 nm southwest of the central business district of Charlevoix, a city in Charlevoix County, Michigan, USA.














Airport map






Aerial View