ZSCN








Nanchang Changbei International Airport





Airport

ICAO code


  ZSCN





IATA Code

KHN




Summary

ICAO Region

APAC



ICAO Territory





China






 








Location

Nanchang, Jiangxi,




Serving

Nanchang



Elevation

143 ft



Coordinates



    28°
    51'
          52"
        N
  
      ,
    
    115°
    54'
          13"
        E
  




KCC

Cfa




Metar
ZSCN 061100Z 35003MPS CAVOK 32/25 Q1007 NOSIG








Description
Nanchang Changbei International Airport is an airport in Nanchang, Jiangxi, People’s Republic of China. It is located 28 km north of Nanchang.
Climatology
Nanchang has a monsoon-influenced humid subtropical climate (Köppen climate classification Cfa) with four distinct seasons. Winters are short and cool with occasional frosts; snow is not unheard of but heavy falls are otherwise rare. Summer is long and humid, with amongst the highest temperatures in China. Rain is greatest from March to June, and least in fall and early winter. Monthly averages in the city range from 5.3 °C in January to 29.2 °C in July, with an annual mean of 17.6 °C.














Airport map






Aerial View