VCCC








Ratmalana Airport





Airport

ICAO code


  VCCC





IATA Code

RML




Summary

ICAO Region

APAC



ICAO Territory





Sri Lanka






 








Location

Ratmalana, Western Province




Serving

Colombo



Elevation

16 ft



Coordinates



    6°
    49'
          19"
        N
  
      ,
    
    79°
    53'
          10"
        E
  




KCC

Am




Metar
VCCC 071200Z 23007KT 9000 SCT016 FEW018TCU 30/25 Q1009 A2982 RMK TCU(NE)








Ratmalana International Airport, is a primarily domestic airport serving the city of Colombo, the capital of Sri Lanka.
Climatology
Tropical monsoon climate (Köppen climate classification Am)






Runways






Designator
Length
Width
Surface
Rops




4/22          
1833          
30          
ASP          
Yes/Yes          













Airport map






Aerial View