EGNR








Hawarden Airport





Airport

ICAO code


  EGNR





IATA Code

CEG




Summary

ICAO Region

EUR



ICAO Territory





United Kingdom






 








Location

,




Serving

Hawarden



Elevation

45 ft



Coordinates



    53°
    10'
          41"
        N
  
      ,
    
    2°
    58'
          40"
        W
  





Metar
EGNR 071220Z VRB02KT 8000 BKN014 20/16 Q1011









Runways






Designator
Length
Width
Surface
Rops




5/23          
2043          
45          
ASP          
Yes/Yes          













Airport map






Aerial View








Airport accidents



C310, Hawarden UK, 2013