KNLC








Naval Air Station Lemoore





Airport

ICAO code


  KNLC






Summary

ICAO Region

NAM



ICAO Territory





United States






 








Location

Lemoore, California,




Coordinates



    36°
    19'
          59"
        N
  
      ,
    
    119°
    57'
          7"
        W
  




KCC

Csa



Airport LOS

Parallel Runway Operation




Metar
KNLC 071356Z AUTO 00000KT 10SM CLR 19/08 A2989 RMK AO2 SLP119 T01940078








Description
Naval Air Station Lemoore, or NAS Lemoore, is a United States Navy base, the Navy's newest and largest Master Jet Base, located at Lemoore Station, California.
Climatology
Fresno is marked by a semi-arid climate (Köppen climate classification BSh), with mild, moderately wet winters and hot and dry summers, thus displaying some Mediterranean (Köppen climate classification CSa) characteristics.






Runways






Designator
Length
Width
Surface
Rops




14L/32R          
4115          
61          
CON          
No/No          


14R/32L          
4115          
61          
CON          
No/No          













Airport map






Aerial View