MMMZ








General Rafael Buelna International Airport





Airport

ICAO code


  MMMZ





IATA Code

MZT




Summary

ICAO Region

CARSAM



ICAO Territory





Mexico






 








Location

El Walamo, Sinaloa




Serving

Mazatlan



Elevation

38 ft



Coordinates



    23°
    9'
          41"
        N
  
      ,
    
    106°
    15'
          58"
        W
  




KCC

Aw




Metar
MMMZ 071247Z 00000KT 10SM FEW020 SCT080 BKN240 26/25 A2977 RMK 8/462 HZY








International airport 10 nm south east of Mazatlan, Mexico.
Climatology
Tropical Savannah climate (Köppen climate classification Aw)






Runways






Designator
Length
Width
Surface
Rops




8/26          
2700          
60          
ASP          
Yes/Yes          













Airport map






Aerial View