MRLM








Limón International Airport





Airport

ICAO code


  MRLM





IATA Code

LIO




Summary

ICAO Region

CARSAM



ICAO Territory





Costa Rica






 








Location

Limón, Limón Province




Serving

Limón



Elevation

7 ft



Coordinates



    9°
    57'
          47"
        N
  
      ,
    
    83°
    1'
          31"
        W
  




KCC

Af




Metar
MRLM 071400Z 25003KT CAVOK 28/25 A2979








Limón International Airport in Limón, Costa Rica, is one of the four international airports in that country.
Climatology
Tropical rainforest climate (Köppen climate classification Af)






Runways






Designator
Length
Width
Surface
Rops




14/32          
1800          
30          
ASP          
No/No          













Airport map






Aerial View