VABB








Chhatrapati Shivaji International Airport





Airport

ICAO code


  VABB





IATA Code

BOM




Summary

ICAO Region

APAC



ICAO Territory





India






 








Location

Mumbai, Maharashtra




Serving

Mumbai



Elevation

37 ft



Coordinates



    19°
    5'
          26"
        N
  
      ,
    
    72°
    52'
          2"
        E
  




KCC

Aw




Metar
VABB 071330Z 27007KT 2500 HZ SCT018 FEW025TCU BKN100 28/24 Q1007 NOSIG








Description
International airport serving the city of Mumbai (formerly Bombay), India.
Climatology
Tropical Savanna climate (Köppen climate classification Aw) - monthly mean temperatures above 18°C, and a pronounced dry season. A Tropical Savanna climate has more pronounced dry seasons than a Tropical Monsoon climate.






Runways






Designator
Length
Width
Surface
Rops




14/32          
2925          
46          
ASP          
Yes/Yes          


9/27          
3445          
45          
ASP          
Yes/Yes          













Airport map






Aerial View








Airport accidents



B738, Mumbai India, 2018
A319, Mumbai India, 2013
AT72, Mumbai India, 2009
B744, Mumbai India, 2009
B752, Mumbai India, 2010