VABV








Bhavnagar





Airport

ICAO code


  VABV






Summary

ICAO Region

APAC



ICAO Territory





India






 








Location

Bhavnagar, Gujarat,




Coordinates



    21°
    45'
          10"
        N
  
      ,
    
    72°
    11'
          12"
        E
  




KCC

BSh




Metar
VABV 071200Z 14009KT 9999 FEW020 SCT025 30/25 Q1004








Description
Bhavnagar Airport is located near Bhavnagar in the state of Gujarat, India.
Climatology
Hot, semi-arid/Steppe climate (Köppen climate classification BSh) - hot, sometimes extremely hot summers and mild to warm winters, with low annual precipitation.






Runways






Designator
Length
Width
Surface
Rops




7/25          
1920          
46          
ASP          
Yes/Yes          













Airport map






Aerial View