LZTT








Poprad–Tatry Airport





Airport

ICAO code


  LZTT





IATA Code

TAT




Summary

ICAO Region

EUR



ICAO Territory





Slovakia






 








Location

Poprad, Spis Region




Serving

Poprad



Elevation

2356 ft



Coordinates



    49°
    4'
          25"
        N
  
      ,
    
    20°
    14'
          28"
        E
  




KCC

Dfb




Metar
LZTT 071300Z 14008KT 110V200 9999 FEW053 26/13 Q1020 NOSIG








Poprad–Tatry Airport, is an airport in the Slovak ski resort town of Poprad.
Climatology
Humid continental climate (Köppen climate classification Dfb)






Runways






Designator
Length
Width
Surface
Rops




9/27          
2600          
45          
CON          
No/No          













Airport map






Aerial View