HEMA








Marsa Alam International Airport





Airport

ICAO code


  HEMA





IATA Code

RMF




Summary

ICAO Region

EUR



ICAO Territory





Egypt






 








Location

Marsa Alam, Al Bahr al Ahmar




Serving

Marsa Alam



Elevation

251 ft



Coordinates



    25°
    33'
          26"
        N
  
      ,
    
    34°
    35'
          1"
        E
  





Metar
HEMA 071200Z 01013KT CAVOK 33/23 Q1008 NOSIG









Runways






Designator
Length
Width
Surface
Rops




15/33          
3000          
45          
ASP          
Yes/Yes          













Airport map






Aerial View