VAID








Devi Ahilyabai Holkar Airport





Airport

ICAO code


  VAID






Summary

ICAO Region

APAC



ICAO Territory





India






 








Location

Indore, Madhya Pradesh,




Coordinates



    22°
    43'
          20"
        N
  
      ,
    
    75°
    48'
          18"
        E
  




KCC

Cfa



Airport WX

Cumulonimbus




Metar
VAID 071330Z 27007KT 5000 HZ SCT010 SCT018 FEW030CB BKN100 25/22 Q1008 TEMPO 4000 -RA








Description
Devi Ahilyabai Holkar Airport is a public airport located 8 km west of Indore, a city in Madhya Pradesh, India.
Climatology
Humid “subtropical” climate (Köppen climate classification Cfa) - characterized by hot, humid summers and cool winters. Most precipitation occurs during the monsoon season between late June and late September. Most summer rainfall occurs during thunderstorms.






Runways






Designator
Length
Width
Surface
Rops




7/25          
2280          
45          
COM          
Yes/Yes          













Airport map






Aerial View