LIMS








Piacenza Air Base





Airport

ICAO code


  LIMS





IATA Code

QPZ




Summary

ICAO Region

EUR



ICAO Territory





Italy






 








Location

Paiacenza, Emilia-Romagna




Serving

Piacenza



Elevation

456 ft



Coordinates



    44°
    54'
          54"
        N
  
      ,
    
    9°
    43'
          11"
        E
  




KCC

Cfa




Metar
LIMS 071355Z 06005KT 9999 SCT030 28/23 Q1015








Piacenza-San Damiano Air Base was a military airport located in Piacenza, Emilia-Romagna, Italy, which was closed on 1 September 2017.
Climatology
Humid subtropical climate (Köppen climate classification Cfa)






Runways






Designator
Length
Width
Surface
Rops




12/30          
2996          
45          
ASP          
No/No          













Airport map






Aerial View