ZGOW








Jieyang Chaoshan International Airport





Airport

ICAO code


  ZGOW





IATA Code

SWA




Summary

ICAO Region

APAC



ICAO Territory





China






 








Location

Jiedong County, Jieyang, Guangdong




Serving

Jieyang, Shantou, Chaozhou



Coordinates



    23°
    33'
          9"
        N
  
      ,
    
    116°
    30'
          21"
        E
  




KCC

Cwa




Metar
ZGOW 071300Z 10003MPS CAVOK 28/25 Q1011 NOSIG








Description
Jieyang Chaoshan International Airport is an airport serving the cities of Jieyang, Shantou, Chaozhou and nearby areas in eastern Guangdong Province, China. It is located in the towns of Paotai and Denggang in Jiedong County, Jieyang, Guangdong.
Climatology
Within the Köppen Climate Classification System, ((Koppen climate classification Cwa)) this climate type generally has warm and humid summers with mild winters. Its extent is from 30 to 50° of latitude mainly on the eastern and western borders of most continents. During the winter, the main weather feature is the mid-latitude cyclone. Convective thunderstorms provide precipitation in the summer months.














Airport map






Aerial View