EDDC








Dresden International Airport





Airport

ICAO code


  EDDC





IATA Code

DRS




Summary

ICAO Region

EUR



ICAO Territory





Germany






 








Location

Klotzsche, Dresden,




Serving

Dresden



Elevation

754 ft



Coordinates



    51°
    7'
          58"
        N
  
      ,
    
    13°
    45'
          59"
        E
  




KCC

Cfb




Metar
EDDC 071420Z AUTO 12011KT 100V160 CAVOK 29/13 Q1013 NOSIG








Description
Dresden Airport, formerly known as Dresden-Klotzsche, is the international airport of Dresden, Germany. It is located in Klotzsche, a district of Dresden 9 km north of the city centre. As of September 2008, the airport styles itself as "Dresden International".
Climatology
Temperate Marine climate/Oceanic climate (Köppen climate classification Cfb) - Moderately cool summer and comparatively warm winter.






Runways






Designator
Length
Width
Surface
Rops




4/22          
2508          
51          
CON          
Yes/Yes          













Airport map






Aerial View








Airport accidents



AT72, Dresden Germany, 2002