VOTP








Tirupati Airport





Airport

ICAO code


  VOTP






Summary

ICAO Region

APAC



ICAO Territory





India






 








Location

Tirupati, Andhra Pradesh,




Coordinates



    13°
    38'
          8"
        N
  
      ,
    
    79°
    32'
          35"
        E
  




KCC

Aw




Metar
VOTP 071300Z VRB02KT 6000 SCT020 SCT100 31/24 Q1006 NOSIG








Description
Tirupati Airport, also known as Renigunta Airport, is a regional airport located 14 km east of the central business district of Tirupati, a town in the state of Andhra Pradesh, India.
Climatology
Tropical Savanna climate (Köppen climate classification Aw) - monthly mean temperatures above 18°C, and a pronounced dry season. A Tropical Savanna climate has more pronounced dry seasons than a Tropical Monsoon climate.














Airport map






Aerial View