HKML








Malindi Airport





Airport

ICAO code


  HKML





IATA Code

MYD




Summary

ICAO Region

AFI



ICAO Territory





Kenya






 








Location

Malindi, Kilifi County




Serving

Malindi



Elevation

80 ft



Coordinates



    3°
    13'
          23"
        S
  
      ,
    
    40°
    6'
          1"
        E
  




KCC

Aw




Metar
HKML 071300Z 19014KT 9999 FEW022 29/21 Q1015








Malindi Airport is located west of the central business district of the town of Malindi, in Kilifi County, in southeastern Kenya, at the Indian Ocean coast.
Climatology
Tropical Savannah climate (Köppen climate classification Aw)






Runways






Designator
Length
Width
Surface
Rops




8/26          
1128          
0          
UNK          
No/No          


17/35          
1402          
0          
UNK          
No/No          













Airport map






Aerial View