SAWH








Malvinas Argentinas Airport





Airport

ICAO code


  SAWH





IATA Code

USH




Summary

ICAO Region

CARSAM



ICAO Territory





Argentina






 








Location

Ushuaia, Tierra del Fuego




Serving

Ushuaia



Elevation

102 ft



Coordinates



    54°
    50'
          36"
        S
  
      ,
    
    68°
    17'
          45"
        W
  




KCC

ET




Metar
SAWH 071300Z VRB02KT 9999 BKN040 06/M00 Q0985








Airport 4km south of Ushuaia, Tierra del Fuego, Argentina.
Climatology
Tundra climate (Köppen climate classification ET).






Runways






Designator
Length
Width
Surface
Rops




7/25          
2800          
45          
CON          
Yes/Yes          













Airport map






Aerial View