BIVO








Vopnafjörður Airport





Airport

ICAO code


  BIVO





IATA Code

VPN




Summary

ICAO Region

NAT



ICAO Territory





Iceland






 








Location

, Austurland




Serving

Vopnafjörður



Elevation

16 ft



Coordinates



    65°
    43'
          14"
        N
  
      ,
    
    14°
    51'
          2"
        W
  





Metar
BIVO 061500Z 02012KT 9999 SCT055 12/06 Q1014









Runways






Designator
Length
Width
Surface
Rops




5/23          
933          
0          
UNK          
No/No          













Airport map






Aerial View