OOSH








Sohar Airport





Airport

ICAO code


  OOSH





IATA Code

OHS




Summary

ICAO Region

MID



ICAO Territory





Oman






 








Location

Sohar, Al Batinah




Serving

wilayat of Sohar



Coordinates



    24°
    23'
          24"
        N
  
      ,
    
    56°
    37'
          14"
        E
  




KCC

BWh




Metar
OOSH 071350Z AUTO 11005KT //// ////// 33/25 Q1002








Sohar International Airport is an international airport situated in the wilayat of Sohar in Al Batinah Region of Oman.
Climatology
Hot Desert Climate (Köppen climate classification BWh)














Airport map






Aerial View