MMNL








Quetzalcóatl International Airport





Airport

ICAO code


  MMNL





IATA Code

NLD




Summary

ICAO Region

CARSAM



ICAO Territory





Mexico






 








Location

Nuevo Laredo, Tamaulipas




Serving

Nuevo Laredo



Elevation

484 ft



Coordinates



    27°
    26'
          38"
        N
  
      ,
    
    99°
    34'
          14"
        W
  




KCC

BSh




Metar
MMNL 070040Z 01010KT 8SM SCT030 33/20 A2991 RMK 8/500 DSNT CB S ISOL CI








Quetzalcóatl International Airport is an international airport located in Nuevo Laredo, Tamaulipas, Mexico.
Climatology
Semi-arid Climate (Köppen climate classification BSh)






Runways






Designator
Length
Width
Surface
Rops




14/32          
2000          
45          
ASP          
Yes/Yes          













Airport map






Aerial View