LDZD








Zadar Airport





Airport

ICAO code


  LDZD





IATA Code

ZAD




Summary

ICAO Region

EUR



ICAO Territory





Croatia






 








Location

Zemunik Donji, Ravni Kotari




Serving

Zadar



Elevation

289 ft



Coordinates



    44°
    6'
          1"
        N
  
      ,
    
    15°
    21'
          27"
        E
  




KCC

Csa




Metar
LDZD 071300Z 25009KT 210V300 CAVOK 30/14 Q1016 BECMG 30008KT








Zadar Airport is an international airport serving Zadar, Croatia
Climatology
Warm mediterranean climate (Köppen climate classification Csa)






Runways






Designator
Length
Width
Surface
Rops




4/22          
2000          
45          
ASP          
Yes/Yes          


14/32          
2500          
45          
ASP          
Yes/Yes          













Airport map






Aerial View