LSGC








Les Eplatures Airport





Airport

ICAO code


  LSGC





IATA Code

ZHV




Summary

ICAO Region

EUR



ICAO Territory





Switzerland






 








Location

La Chaux-de-Fonds, Neuchatel




Serving

Les Eplatures



Elevation

3368 ft



Coordinates



    47°
    5'
          2"
        N
  
      ,
    
    6°
    47'
          34"
        E
  





Metar
LSGC 071420Z AUTO VRB03KT CAVOK 25/12 Q1013








Les Eplatures Airport is a small international airport near La Chaux-de-Fonds, Switzerland.
Climatology
Humid continental climate (Köppen climate classification Dfb)






Runways






Designator
Length
Width
Surface
Rops




6/24          
1130          
27          
ASP          
No/No          













Airport map






Aerial View