CYKL








Schefferville Airport





Airport

ICAO code


  CYKL





IATA Code

YKL




Summary

ICAO Region

NAT



ICAO Territory





Canada






 








Location

Schefferville, Quebec, Canada




Serving

Schefferville



Elevation

1709 ft



Coordinates



    54°
    48'
          19"
        N
  
      ,
    
    66°
    48'
          19"
        W
  




KCC

Dfc




Metar
CYKL 071400Z AUTO 18008KT 9SM BKN130 BKN240 18/12 A2998 RMK SLP165 DENSITY ALT 2400FT








Scefferville Airport is loctaed adjacent to the community of Schefferville, Quebec, Canada.






Runways






Designator
Length
Width
Surface
Rops




18/36          
1524          
46          
ASP          
No/No          













Airport map






Aerial View








Airport accidents



DH8C, Schefferville QC Canada, 2020