SBTF








Tefé Airport





Airport

ICAO code


  SBTF





IATA Code

TFF




Summary

ICAO Region

CARSAM



ICAO Territory





Brazil






 








Location

Tefé, Amazonas




Serving

Tefé



Elevation

184 ft



Coordinates



    3°
    22'
          49"
        S
  
      ,
    
    64°
    43'
          31"
        W
  




KCC

Af




Metar
SBTF 071300Z 27003KT CAVOK 27/23 Q1012








Tefé Airport is the airport serving Tefé, Brazil.
Climatology
Tropical rainforest climate (Köppen climate classification Af)






Runways






Designator
Length
Width
Surface
Rops




15/33          
2200          
45          
ASP          
No/No          













Airport map






Aerial View