KCHO








Charlottesville-Albemarle Airport





Airport

ICAO code


  KCHO





IATA Code

CHO




Summary

ICAO Region

NAM



ICAO Territory





United States






 








Location

Charlottesville, Virginia




Serving

Charlottesville



Elevation

640 ft



Coordinates



    38°
    8'
          22"
        N
  
      ,
    
    78°
    26'
          58"
        W
  




KCC

Cfa




Metar
KCHO 071353Z 27004KT 10SM FEW055 22/17 A2986 RMK AO2 SLP105 T02170167








Description
Charlottesville-Albemarle Airport is a public use airport located 8 nm north of Charlottesville, in Albemarle County, Virginia, USA.














Airport map






Aerial View