KBFI








King County International Airport





Airport

ICAO code


  KBFI





IATA Code

BFI




Summary

ICAO Region

NAM



ICAO Territory





United States






 








Location

Georgetown, Washington




Serving

Seattle



Elevation

21 ft



Coordinates



    47°
    32'
          12"
        N
  
      ,
    
    122°
    18'
          14"
        W
  




KCC

Csb



Airport LOS

Parallel Runway Operation




Metar
KBFI 071353Z 00000KT 10SM CLR 18/13 A2992 RMK AO2 SLP131 T01830133








Boeing Field, officially King County International Airport, is a public airport located 5 nm south of the central business district of Seattle, Washington, USA.














Airport map






Aerial View