HTMU








Musoma Airport





Airport

ICAO code


  HTMU





IATA Code

MUZ




Summary

ICAO Region

AFI



ICAO Territory





Tanzania






 








Location

Musoma, Mara Region




Serving

Musoma



Elevation

3783 ft



Coordinates



    1°
    30'
          10"
        S
  
      ,
    
    33°
    48'
          8"
        E
  




KCC

Aw




Metar
HTMU 071200Z 32010KT 9999 FEW024 FEW026CB SCT090 30/14 Q1016








Musoma Airport is an airport in northern Tanzania serving Musoma and the surrounding Mara Region.
Climatology
Tropical Savanna climate (Köppen climate classification Aw)














Airport map






Aerial View