LGAD








Andravida Air Base





Airport

ICAO code


  LGAD





IATA Code

PYR




Summary

ICAO Region

EUR



ICAO Territory





Greece






 








Location

Andravida, Western Greece




Serving

Andravida



Elevation

55 ft



Coordinates



    37°
    55'
          15"
        N
  
      ,
    
    21°
    17'
          33"
        E
  




KCC

Csa




Metar
LGAD 071350Z 28009KT 9999 FEW020 30/24 Q1013








Andravida Air Base is a military airport operated by the Hellenic Air Force, located 1.5 nm from the town of Andravida in Elis, Greece.
Climatology
Warm mediterranean climate (Köppen climate classification Csa)






Runways






Designator
Length
Width
Surface
Rops




16/34          
3139          
45          
ASP          
No/No          













Airport map






Aerial View