SUSO








Salto





Airport

ICAO code


  SUSO






Summary

ICAO Region

CARSAM



ICAO Territory





Uruguay






 








Location

Salto,




Coordinates



    31°
    26'
          22"
        S
  
      ,
    
    57°
    59'
          8"
        W
  




KCC

Cfa




Metar
SUSO 071300Z 13002KT CAVOK 16/12 Q1014








Description
Nueva Hespérides International Airport is the airport serving Salto, Uruguay.
Climatology
(Köppen climate classification Cfa)






Runways






Designator
Length
Width
Surface
Rops




13/31          
750          
50          
GRS          
No/No          


5/23          
1588          
45          
ASP          
No/No          













Airport map






Aerial View