SEAM








Chachoán Airport





Airport

ICAO code


  SEAM





IATA Code

ATF




Summary

ICAO Region

CARSAM



ICAO Territory





Ecuador






 








Location

, Tungurahua




Serving

Ambato



Elevation

8502 ft



Coordinates



    1°
    12'
          43"
        S
  
      ,
    
    78°
    34'
          29"
        W
  





Metar
SEAM 071300Z 18005KT 9999 FEW030 BKN100 12/09 Q1031









Runways






Designator
Length
Width
Surface
Rops




1/19          
1925          
25          
ASP          
No/No          













Airport map






Aerial View