HTDA








Julius Nyerere International Airport





Airport

ICAO code


  HTDA





IATA Code

DAR




Summary

ICAO Region

AFI



ICAO Territory





Tanzania






 








Location

Dar es Salaam, Dar es Salaam Region




Serving

Dar es Salaam



Elevation

196 ft



Coordinates



    6°
    52'
          21"
        S
  
      ,
    
    39°
    12'
          25"
        E
  




KCC

Aw




Metar
HTDA 071200Z 11013KT 9999 FEW032 30/19 Q1017 NOSIG








Julius Nyerere International Airport is the international airport of Dar es Salaam, the largest city in Tanzania. It is located about 12 km southwest of the city centre.
Climatology
Tropical Savanna climate (Köppen climate classification Aw)






Runways






Designator
Length
Width
Surface
Rops




14/32          
1000          
30          
ASP          
Yes/Yes          


5/23          
3000          
46          
ASP          
Yes/Yes          













Airport map






Aerial View