LPPR








Porto/Francisco de Sá Carneiro Airport





Airport

ICAO code


  LPPR





IATA Code

OPO




Summary

ICAO Region

EUR



ICAO Territory





Portugal






 








Location

Pedras Rubras, Porto




Serving

Porto



Elevation

228 ft



Coordinates



    41°
    14'
          32"
        N
  
      ,
    
    8°
    40'
          43"
        W
  




KCC

Csa




Metar
LPPR 071230Z 23007KT 200V270 9999 FEW008 18/15 Q1012








Francisco Sá Carneiro Airport or simply Porto Airport is an international airport near Porto, Portugal. It is located 11 km northwest of the Clérigos Tower in the centre of Porto, in the municipalities of Maia, Matosinhos and Vila do Conde.
Climatology
Dry-summer subtropical ”Mediterranean" climate (Köppen climate classification Csa)






Runways






Designator
Length
Width
Surface
Rops




17/35          
3480          
45          
ASP          
Yes/Yes          













Airport map






Aerial View








Airport accidents



B734 / Vehicle, Porto Portugal, 2021
BCS3, Porto Portugal, 2018
B738, vicinity Porto Portugal, 2015
A320, Porto Portugal, 2013