KMOT








Minot International Airport





Airport

ICAO code


  KMOT





IATA Code

MOT




Summary

ICAO Region

NAM



ICAO Territory





United States






 








Location

Minot, North Dakota




Serving

Minot



Elevation

1716 ft



Coordinates



    48°
    15'
          33"
        N
  
      ,
    
    101°
    16'
          49"
        W
  




KCC

Dfb



Airport CFIT

Altimeter Temperature Error Correction



Airport GND

Aircraft Ground De/Anti Icing



Airport RE

Landing on Contaminated Runways



Airport WX

Cumulonimbus




Metar
KMOT 071354Z 17008KT 10SM CLR 14/08 A3017 RMK AO2 SLP222 T01390083








Minot International Airport is a public airport located 2 nm north of the central business district of Minot, a city in Ward County, North Dakota, USA.






Runways






Designator
Length
Width
Surface
Rops




8/26          
1935          
30          
ASP          
Yes/Yes          


13/31          
2347          
46          
CON          
Yes/Yes          













Airport map






Aerial View