LRTM








Transilvania Târgu Mureş International Airport





Airport

ICAO code


  LRTM





IATA Code

TGM




Summary

ICAO Region

EUR



ICAO Territory





Romania






 








Location

, Mures




Serving

Tirgu Mures



Elevation

963 ft



Coordinates



    46°
    28'
          4"
        N
  
      ,
    
    24°
    24'
          45"
        E
  





Metar
LRTM 071200Z 14008KT //// FEW046 29/13 Q1020









Runways






Designator
Length
Width
Surface
Rops




7/25          
2000          
30          
CON          
No/No          













Airport map






Aerial View