KMSP








Minneapolis-Saint Paul International Airport





Airport

ICAO code


  KMSP





IATA Code

MSP




Summary

ICAO Region

NAM



ICAO Territory





United States






 








Location

Fort Snelling, Minnesota




Serving

Minneapolis-Saint Paul



Elevation

841 ft



Coordinates



    44°
    52'
          58"
        N
  
      ,
    
    93°
    13'
          15"
        W
  




KCC

Dfa



Airport CFIT

Altimeter Temperature Error Correction



Airport GND

Aircraft Ground De/Anti Icing



Airport LOS

Parallel Runway Operation



Airport WX

Fog




Metar
KMSP 071153Z 14004KT 10SM CLR 09/05 A3033 RMK AO2 SLP273 T00890050 10128 20089 53001








Civil-military international airport serving Minneapolis St Paul, USA. Also less commonly known as Wold-Chamberlain Field.






Runways






Designator
Length
Width
Surface
Rops




12L/30R          
2438          
46          
PEM          
Yes/Yes          


17/35          
2438          
46          
CON          
Yes/Yes          


12R/30L          
3048          
61          
PEM          
Yes/Yes          


4/22          
3355          
46          
CON          
Yes/Yes          













Airport map






Aerial View