BIGR








Grímsey Airport





Airport

ICAO code


  BIGR





IATA Code

GRY




Summary

ICAO Region

NAT



ICAO Territory





Iceland






 








Location

Grímsey, Norourland Eystra




Serving

Grímsey



Elevation

66 ft



Coordinates



    66°
    32'
          46"
        N
  
      ,
    
    18°
    1'
          3"
        W
  





Metar
BIGR 071100Z 26015KT 9999 BKN053 10/05 Q1002









Runways






Designator
Length
Width
Surface
Rops




18/36          
1030          
0          
UNK          
No/No          













Airport map






Aerial View