KBUR








Hollywood Burbank Airport





Airport

ICAO code


  KBUR





IATA Code

BUR




Summary

ICAO Region

NAM



ICAO Territory





United States






 








Location

Burbank, California




Serving

Los Angeles



Elevation

778 ft



Coordinates



    34°
    12'
          2"
        N
  
      ,
    
    118°
    21'
          30"
        W
  




KCC

Csa



Airport RE

Engineered Materials Arresting System




Metar
KBUR 071153Z 29005KT 10SM CLR 26/14 A2983 RMK AO2 SLP082 T02560144 10289 20250 56011 $








Description
Formally known as Bob Hope Airport, Hollywood Burbank Airport is a public airport located 3 nm northwest of the central business district of Burbank, a city in Los Angeles County, California, United States.














Airport map






Aerial View








Airport accidents



B737, Burbank CA USA, 2018
B733, Burbank CA USA, 2000