KJEF








Jefferson City Memorial Airport





Airport

ICAO code


  KJEF





IATA Code

JEF




Summary

ICAO Region

NAM



ICAO Territory





United States






 








Location

Jefferson City, Missouri




Serving

Jefferson City



Elevation

549 ft



Coordinates



    38°
    35'
          28"
        N
  
      ,
    
    92°
    9'
          22"
        W
  




KCC

Dfa




Metar
KJEF 071353Z VRB03KT 10SM CLR 17/09 A3027 RMK AO2 SLP238 T01670089








Jefferson City Memorial Airport is a public airport located 2 nm northeast of the central business district of Jefferson City, in Callaway County, Missouri, USA.














Airport map






Aerial View