PASI








Sitka Rocky Gutierrez Airport





Airport

ICAO code


  PASI






Summary

ICAO Region

NAM



ICAO Territory





Alaska






 








Location

Sitka,




Coordinates



    57°
    2'
          50"
        N
  
      ,
    
    135°
    21'
          42"
        W
  




KCC

Cfb



Airport BS

Bird Strike
Non Avian Wildlife Hazards to Aircraft



Airport CFIT

Altimeter Temperature Error Correction




Metar
PASI 071232Z 14004KT 10SM BKN022 OVC043 13/10 A3001 RMK AO2 T01330100








Description
Regional airport serving the city of Sitka which is located on Baranof Island in the Alaska panhandle.
Climatology
Temperate Marine climate/Oceanic climate (Köppen climate classification Cfb). Moderately cool summer and comparatively warm winter with a temperature range of only 14°C.






Runways






Designator
Length
Width
Surface
Rops




11/29          
1981          
46          
ASP          
Yes/Yes          













Airport map






Aerial View