LIRL








Latina Air Base





Airport

ICAO code


  LIRL






Summary

ICAO Region

EUR



ICAO Territory





Italy






 








Location

Latina, Lazio




Serving

Latina



Elevation

93 ft



Coordinates



    41°
    32'
          32"
        N
  
      ,
    
    12°
    54'
          33"
        E
  




KCC

Csa




Metar
LIRL 061755Z 00000KT CAVOK 27/21 Q1012








Latina Airport is a military airport located near Latina, a city in the Lazio region of central Italy.
Climatology
Warm mediterranean climate (Köppen climate classification Csa)






Runways






Designator
Length
Width
Surface
Rops




12/30          
1700          
40          
ASP          
No/No          













Airport map






Aerial View