KRIW








Riverton Regional Airport





Airport

ICAO code


  KRIW






Summary

ICAO Region

NAM



ICAO Territory





United States






 








Location

Riverton, Wyoming,




Coordinates



    43°
    3'
          56"
        N
  
      ,
    
    108°
    27'
          38"
        W
  




KCC

BSk



Airport CFIT

Altimeter Temperature Error Correction



Airport RE

Hot and High Operations




Metar
KRIW 071353Z AUTO 30008KT 10SM CLR 14/02 A3027 RMK AO2 SLP194 T01440022








Description
Riverton Regional Airport is a public use airport located 5 km northwest of the central business district of Riverton, a city in Fremont County, Wyoming.
Climatology
Semi-arid climate (Köppen climate classification BSk). - Hot, sometimes extremely hot summers and cold, sometimes very cold winters. Some snowfall during the winter. Areas featuring cold semi-arid climates are sometimes subject to major temperature swings during a 24 hour period.






Runways






Designator
Length
Width
Surface
Rops




1/19          
1463          
21          
ASP          
Yes/Yes          


10/28          
2500          
46          
ASP          
Yes/Yes          













Airport map






Aerial View