EFTU








Turku Airport





Airport

ICAO code


  EFTU





IATA Code

TKU




Summary

ICAO Region

EUR



ICAO Territory





Finland






 








Location

Maaria-Paattinen, Varsinais-Suomi




Serving

Turku



Elevation

161 ft



Coordinates



    60°
    30'
          53"
        N
  
      ,
    
    22°
    15'
          42"
        E
  




KCC

Dfb




Metar
EFTU 071220Z AUTO 22009KT 190V250 CAVOK 24/15 Q1024








Turku Airport, is located in Turku, Finland, 8km north of the centre,[2] in Lentokenttä district in the Maaria-Paattinen ward of Turku.
Climatology
Humid continental climate (Köppen climate classification Dfb






Runways






Designator
Length
Width
Surface
Rops




8/26          
2500          
60          
ASP          
Yes/Yes          













Airport map






Aerial View








Airport accidents



CRJ9, Turku Finland, 2017