YLHI








Lord Howe Island Airport





Airport

ICAO code


  YLHI





IATA Code

LDH




Summary

ICAO Region

APAC



ICAO Territory





Australia






 








Location

Lord Howe Island, New South Wales




Serving

Lord Howe Island



Elevation

5 ft



Coordinates



    31°
    32'
          18"
        S
  
      ,
    
    159°
    4'
          37"
        E
  




KCC

Cfa




Metar
YLHI 071400Z AUTO 29009KT 9999 // OVC014 20/18 Q1022 RF00.0/000.0








Airport on Lord Howe Island, part of New South Wales, Australia.














Airport map






Aerial View