RJFU








Nagasaki Airport





Airport

ICAO code


  RJFU





IATA Code

NGS




Summary

ICAO Region

APAC



ICAO Territory





Japan






 








Location

Omura, Nagasaki Prefecture




Serving

Nagasaki



Elevation

8 ft



Coordinates



    32°
    54'
          49"
        N
  
      ,
    
    129°
    55'
          7"
        E
  




KCC

Cfa




Metar
RJFU 071200Z 35007KT CAVOK 29/22 Q1014








International airport located 4 km west of the city of Ōmura and 18 km the city of Nagasaki, Nagasaki Prefecture, Japan.
Climatology
Humid Sub-tropical climate (Köppen climate classification Cfa)






Runways






Designator
Length
Width
Surface
Rops




18/36          
1326          
30          
ASP          
Yes/Yes          


14/32          
2999          
61          
ASP          
Yes/Yes          













Airport map






Aerial View