PAEL








Elfin Cove Seaplane Base





Airport

ICAO code


  PAEL





IATA Code

ELV




Summary

ICAO Region

NAM



ICAO Territory





Alaska






 








Location

Elfin Cove, Alaska




Serving

Elfin Cove



Coordinates



    58°
    11'
          43"
        N
  
      ,
    
    136°
    20'
          51"
        W
  





Metar
PAEL 070050Z 00000KT 5SM -RA BR BKN004 OVC015 12/11 A2987 RMK SEA 0 SWELL 2 SW NOSPECI








Elfin Cove Seaplane Base is a state-owned public-use seaplane base located in Elfin Cove, on Chichagof Island in the Hoonah-Angoon Census Area of the U.S. state of Alaska.






Runways






Designator
Length
Width
Surface
Rops




NW/SE          
3048          
457          
WATER-E          
No/No          













Airport map






Aerial View