KDAY








Dayton International Airport





Airport

ICAO code


  KDAY





IATA Code

DAY




Summary

ICAO Region

NAM



ICAO Territory





United States






 








Location

Dayton, Ohio




Serving

Dayton



Elevation

1009 ft



Coordinates



    39°
    54'
          8"
        N
  
      ,
    
    84°
    13'
          9"
        W
  




KCC

Dfa



Airport LOS

Parallel Runway Operation



Airport WX

Cumulonimbus




Metar
KDAY 071156Z 33011KT 10SM BKN006 BKN060 11/10 A3010 RMK AO2 SLP193 T01060100 10133 20100 51012








Description
International airport serving Dayton, Ohio. A public airport located 9 nm north of the central business district of Dayton, a city in Montgomery County, Ohio, United States. Also referred to as simply Dayton International Airport.














Airport map






Aerial View








Airport accidents



E145, Dayton OH USA, 2011