KORH








Worcester Regional Airport





Airport

ICAO code


  KORH






Summary

ICAO Region

NAM



ICAO Territory





United States






 








Location

Worcester, Massachusetts,




Serving

Worcester County, Massachusetts



Coordinates



    42°
    16'
          2"
        N
  
      ,
    
    71°
    52'
          33"
        W
  




KCC

Dfa



Airport WX

Cumulonimbus




Metar
KORH 071422Z 07004KT 10SM SCT014 18/13 A2991 RMK AO2 T01830133 $








Description
Worcester Regional Airport is a public airport located 5 km west of the central business district of Worcester, a city in Worcester County, Massachusetts.
Climatology
Humid continental climate with a maritime influence (Köppen climate classification Dfa/Cfa) - characterized by four seasons: cold, windy, snowy winters, mild springs, hot, humid summers, and crisp and relatively short autumns. Precipitation reaches its lowest in January and February and peaks in summer and latter half of spring.






Runways






Designator
Length
Width
Surface
Rops




15/33          
1524          
30          
ASP          
Yes/Yes          


11/29          
2134          
46          
ASP          
Yes/Yes          













Airport map






Aerial View