AYNZ








Lae Nadzab Airport





Airport

ICAO code


  AYNZ





IATA Code

LAE




Summary

ICAO Region

APAC



ICAO Territory





Papua New Guinea






 








Location

Nadzab, Morobe




Serving

Lae



Elevation

239 ft



Coordinates



    6°
    34'
          11"
        S
  
      ,
    
    146°
    43'
          34"
        E
  




KCC

Af




Metar
AYNZ 062300Z 08005G10KT 9999 BR SCT010 OVC030 24/23 Q1016 RMK








Lae Nadzab Airport, is an airport located in Nadzab, Papua New Guinea.
Climatology
Tropical Rainforest climate (Köppen climate classification Af) - almost no distinct seasons, average daily temperature around 27°C throughout the year. Extensive cloud cover and heavy rainfall prevent temperatures from rising much over 33°C. The diurnal temperature change is between 2°C and 5°C which is greater than the annual temperature range of 2°C. Rainfall is heavy and is usually convectional and in the afternoon.






Runways






Designator
Length
Width
Surface
Rops




9/27          
2440          
30          
ASP          
No/No          













Airport map






Aerial View