OIBK








Kish International





Airport

ICAO code


  OIBK





IATA Code

KIH




Summary

ICAO Region

MID



ICAO Territory





Iran






 








Location

Kish Island, Kish Island




Serving

Kish Island



Elevation

101 ft



Coordinates



    26°
    31'
          39"
        N
  
      ,
    
    53°
    58'
          59"
        E
  




KCC

BWh




Metar
OIBK 071200Z 23006KT 3500 HZ NSC 36/28 Q1001








Kish International Airport is an airport on Kish Island, Iran.
Climatology
Warm Desert climate (Köppen climate classification BWh).






Runways






Designator
Length
Width
Surface
Rops




09L/27R          
3659          
66          
ASP          
No/No          


09R/27L          
3659          
45          
ASP          
No/No          













Airport map






Aerial View








Airport accidents



FA20, vicinity Kish Island Iran, 2014