KBBG








Branson Airport





Airport

ICAO code


  KBBG





IATA Code

BKG




Summary

ICAO Region

NAM



ICAO Territory





United States






 








Location

Melva, Missouri




Serving

Branson



Elevation

1302 ft



Coordinates



    36°
    32'
          19"
        N
  
      ,
    
    93°
    11'
          56"
        W
  




KCC

Dfa




Metar
KBBG 071115Z AUTO 00000KT 10SM CLR 11/09 A3021 RMK AO2








Description
Branson Airport is a public use airport located 8 nm south-southeast of Branson, Missouri, USA.














Airport map






Aerial View








Airport accidents



B737, vicinity Branson MO USA, 2014