WMKJ








Senai International Airport





Airport

ICAO code


  WMKJ





IATA Code

JHB




Summary

ICAO Region

APAC



ICAO Territory





Malaysia






 








Location

Senai, Johor Bahru




Serving

Senai



Elevation

135 ft



Coordinates



    1°
    38'
          34"
        N
  
      ,
    
    103°
    40'
          5"
        E
  




KCC

Af




Metar
WMKJ 071200Z 14003KT 080V190 9999 FEW020 29/23 Q1009








Senai International Airport, formerly known as Sultan Ismail International Airport, is an airport located in the town of Senai, near Johor Bahru, Malaysia.














Airport map






Aerial View