FAMM








Mmabatho International Airport





Airport

ICAO code


  FAMM





IATA Code

MBD




Summary

ICAO Region

AFI



ICAO Territory





South Africa






 








Location

, North-West




Serving

Mafeking



Elevation

4181 ft



Coordinates



    25°
    47'
          54"
        S
  
      ,
    
    25°
    32'
          53"
        E
  





Metar
FAMM 071200Z 34013KT CAVOK 29/M03 Q1021 NOSIG









Runways






Designator
Length
Width
Surface
Rops




4/22          
4620          
45          
ASP          
Yes/Yes          













Airport map






Aerial View