KAEG








Double Eagle II Airport





Airport

ICAO code


  KAEG






Summary

ICAO Region

NAM



ICAO Territory





United States






 








Location

Albuquerque, New Mexico




Serving

Albuquerque



Elevation

5837 ft



Coordinates



    35°
    9'
          24"
        N
  
      ,
    
    106°
    47'
          45"
        W
  




KCC

BWh



Airport RE

Hot and High Operations




Metar
KAEG 071350Z 35005KT 10SM CLR 15/07 A3041








Description
Double Eagle II Airport is a public airport located 7 nm northwest of the central business district of Albuquerque, a city in Bernalillo County, New Mexico.














Airport map






Aerial View