SCAR








Chacalluta Airport





Airport

ICAO code


  SCAR





IATA Code

ARI




Summary

ICAO Region

CARSAM



ICAO Territory





Chile






 








Location

Chacalluta, Arica y Parinacota




Serving

Arica



Elevation

167 ft



Coordinates



    18°
    20'
          55"
        S
  
      ,
    
    70°
    20'
          19"
        W
  




KCC

BWh




Metar
SCAR 071300Z 22005KT 170V270 9999 OVC022 16/10 Q1014








Airport serving the city of Arica, capital of the Arica Province in the northern Arica y Parinacota Region of Chile. It is located 18.5 km northeast of the city, close to the Peruvian border.
Climatology
Mild desert climate (Köppen climate classification BWh)






Runways






Designator
Length
Width
Surface
Rops




2/20          
2170          
45          
ASP          
No/No          













Airport map






Aerial View