DNIL








Ilorin International Airport





Airport

ICAO code


  DNIL





IATA Code

ILR




Summary

ICAO Region

AFI



ICAO Territory





Nigeria






 








Location

Obansunwa, Kwara State




Serving

Ilorin



Elevation

1126 ft



Coordinates



    8°
    26'
          25"
        N
  
      ,
    
    4°
    29'
          40"
        E
  




KCC

Aw




Metar
DNIL 071200Z 18010KT 9999 BKN011 27/23 Q1015








Ilorin International Airport is an airport serving Ilorin, a city in Kwara State of Nigeria.
Climatology
Tropical savanna climate (Köppen climate classification Aw)






Runways






Designator
Length
Width
Surface
Rops




5/23          
3100          
60          
ASP          
No/No          













Airport map






Aerial View