EGNO








Warton Airport





Airport

ICAO code


  EGNO






Summary

ICAO Region

EUR



ICAO Territory





United Kingdom






 








Location

, England




Serving

Warton



Elevation

55 ft



Coordinates



    53°
    44'
          42"
        N
  
      ,
    
    2°
    52'
          59"
        W
  





Metar
EGNO 061550Z 07012KT 9999 FEW040 23/16 Q1011









Runways






Designator
Length
Width
Surface
Rops




14/32          
1277          
30          
ASP          
No/No          


8/26          
2422          
46          
ASP          
Yes/Yes          













Airport map






Aerial View