VRMH








Hanimaadhoo International Airport





Airport

ICAO code


  VRMH





IATA Code

HAQ




Summary

ICAO Region

APAC



ICAO Territory





Maldives






 








Location

Hanimaadhoo, Haa Dhaalu Atoll




Serving

Haa Dhaalu Atoll



Elevation

3 ft



Coordinates



    6°
    44'
          39"
        N
  
      ,
    
    73°
    10'
          14"
        E
  




KCC

Am




Metar
VRMH 071200Z 26008KT 9999 FEW018TCU BKN260 30/26 Q1010








Hanimaadhoo International Airport is an airport located on the island of Hanimaadhoo in Haa Dhaalu Atoll, Maldives, opened as a domestic airport. It was upgraded to an international airport on 2 February 2012, with the introduction of direct flights to Thiruvananthapuram in India by Maldivian.
Climatology
Tropical monsoon climate (Köppen climate classification Am)














Airport map






Aerial View