KAUS








Austin-Bergstrom International Airport





Airport

ICAO code


  KAUS





IATA Code

AUS




Summary

ICAO Region

NAM



ICAO Territory





United States






 








Location

Austin, Texas




Serving

Austin



Elevation

542 ft



Coordinates



    30°
    12'
          9"
        N
  
      ,
    
    97°
    40'
          5"
        W
  




KCC

Cfa



Airport LOS

Parallel Runway Operation



Airport WX

Cumulonimbus




Metar
KAUS 071353Z 02016G25KT 10SM CLR 26/19 A3004 RMK AO2 SLP160 T02560194 $








Description
Austin-Bergstrom International Airport is a public use airport located 5 nm southeast of the central business district of Austin, in Travis County, Texas.














Airport map






Aerial View