OSLK








Latakia/Bassel Al Assad Intl





Airport

ICAO code


  OSLK





IATA Code

LTK




Summary

ICAO Region

MID



ICAO Territory





Syria






 








Location

Latakia, Al Ladhiqiyah




Serving

Latakia



Elevation

157 ft



Coordinates



    35°
    24'
          4"
        N
  
      ,
    
    35°
    56'
          55"
        E
  





Metar
OSLK 071400Z 22008KT 9999 SCT030 31/24 Q1009








Description
Bassel al-Assad International Airport is an airport serving Latakia, the principal port city of Syria.






Runways






Designator
Length
Width
Surface
Rops




17/35          
2797          
45          
ASP          
Yes/Yes          













Airport map






Aerial View