GMMZ








Ouarzazate Airport





Airport

ICAO code


  GMMZ





IATA Code

OZZ




Summary

ICAO Region

AFI



ICAO Territory





Morocco






 








Location

Ouarzazate, Draa-Tafilalet region




Serving

Ouarzazate



Elevation

3782 ft



Coordinates



    30°
    56'
          21"
        N
  
      ,
    
    6°
    54'
          34"
        W
  




KCC

BWh




Metar
GMMZ 071300Z 36003KT 9999 SCT040 FEW050TCU 29/16 Q1017 NOSIG








Ouarzazate Airport, a city in the Drâa-Tafilalet region in Morocco.
Climatology
Hot desert climate (Köppen climate classification BWh)






Runways






Designator
Length
Width
Surface
Rops




12/30          
3000          
45          
ASP          
No/No          













Airport map






Aerial View