KGFK








Grand Forks International Airport





Airport

ICAO code


  KGFK





IATA Code

GFK




Summary

ICAO Region

NAM



ICAO Territory





United States






 








Location

Grand Forks, North Dakota




Serving

Grand Forks



Elevation

845 ft



Coordinates



    47°
    57'
          4"
        N
  
      ,
    
    97°
    10'
          15"
        W
  




KCC

Dfb



Airport CFIT

Altimeter Temperature Error Correction



Airport GND

Aircraft Ground De/Anti Icing



Airport LOS

Parallel Runway Operation



Airport RE

Landing on Contaminated Runways



Airport WX

Cumulonimbus




Metar
KGFK 071353Z 18003KT 10SM SCT250 11/07 A3025 RMK AO2 SLP247 T01110072








Grand Forks International Airport is a public use airport located 5 nm northwest of the central business district of Grand Forks, a city in Grand Forks County, North Dakota, USA.














Airport map






Aerial View