EKRN








Bornholm Airport





Airport

ICAO code


  EKRN





IATA Code

RNN




Summary

ICAO Region

EUR



ICAO Territory





Denmark






 








Location

Rønne, Bornholm, Hovedstaden




Serving

Bornholm



Elevation

52 ft



Coordinates



    55°
    3'
          47"
        N
  
      ,
    
    14°
    45'
          37"
        E
  





Metar
EKRN 071320Z AUTO 11009KT 9999 NCD 26/14 Q1016








Description
Bornholm Airport is a Danish airport located 5 km southeast of Rønne, on the island of Bornholm.






Runways






Designator
Length
Width
Surface
Rops




11/29          
2002          
45          
ASP          
No/No          













Airport map






Aerial View








Airport accidents



LJ24, vicinity Bornholm Denmark, 2012