YPTN








Tindal Airport





Airport

ICAO code


  YPTN





IATA Code

KTR




Summary

ICAO Region

APAC



ICAO Territory





Australia






 








Location

Tindal, Northern Territory




Serving

Katherine



Elevation

443 ft



Coordinates



    14°
    31'
          16"
        S
  
      ,
    
    132°
    22'
          41"
        E
  





Metar
YPTN 071200Z AUTO 12006KT 9999 // NCD 28/13 Q1015 RF00.0////./

















Airport map






Aerial View