EKYT








Aalborg Airport





Airport

ICAO code


  EKYT





IATA Code

AAL




Summary

ICAO Region

EUR



ICAO Territory





Denmark






 








Location

Aalborg, Nordjylland




Serving

Aalborg



Elevation

10 ft



Coordinates



    57°
    5'
          40"
        N
  
      ,
    
    9°
    51'
          21"
        E
  




KCC

Cfb




Metar
EKYT 071050Z AUTO 08013KT 9999 FEW097/// BKN200/// 21/17 Q1017








Description
International airport serving Aalborg and northern Denmark; joint civil military use with parallel runways of similar length.
Climatology
Temperate Marine climate/Oceanic climate (Köppen climate classification Cfb). Moderately cool summer and comparatively warm winter with a temperature range of only 14°C. Prevailing south-westerly winds.






Runways






Designator
Length
Width
Surface
Rops




08R/26L          
2549          
23          
ASP          
Yes/Yes          


08L/26R          
2654          
45          
PEM          
Yes/Yes          













Airport map






Aerial View








Airport accidents



DH8D, Aalborg Denmark, 2007