VAKE








Kandla Airport





Airport

ICAO code


  VAKE





IATA Code

IXY




Summary

ICAO Region

APAC



ICAO Territory





India






 








Location

Kandla, Gujarat




Serving

Kandla-Gandhidham



Elevation

96 ft



Coordinates



    23°
    6'
          46"
        N
  
      ,
    
    70°
    6'
          1"
        E
  





Metar
VAKE 061230Z 26011KT 5000 HZ FEW020 33/25 Q1003 NOSIG








Kandla Airport or Gandhidham Airport is located north of Kandla and Gandhidham in the Kutch District of the state of Gujarat, India.






Runways






Designator
Length
Width
Surface
Rops




5/23          
1523          
29          
CON          
No/No          













Airport map






Aerial View