MMMV








Monclova International Airport





Airport

ICAO code


  MMMV





IATA Code

LOV




Summary

ICAO Region

CARSAM



ICAO Territory





Mexico






 








Location

Ciudad Frontera, Coahuila de Zaragoza




Serving

Monclova



Elevation

1864 ft



Coordinates



    26°
    57'
          21"
        N
  
      ,
    
    101°
    28'
          12"
        W
  




KCC

BSh




Metar
MMMV 062253Z 00000KT 8SM BKN050 27/21 A3005 RMK 8/200 HZY








Venustiano Carranza International Airport is an international airport located at Frontera, Coahuila, Mexico.
Climatology
Warm Semi-arid Climate (Köppen climate classification BSh)






Runways






Designator
Length
Width
Surface
Rops




06L/24R          
1458          
20          
ASP          
Yes/Yes          


06R/24L          
2100          
45          
ASP          
Yes/Yes          













Airport map






Aerial View