SBBH








Belo Horizonte/Pampulha Carlos Drummond de Andrade Airport





Airport

ICAO code


  SBBH





IATA Code

PLU




Summary

ICAO Region

CARSAM



ICAO Territory





Brazil






 








Location

Pampulha, Minas Gerais




Serving

Belo Horizonte



Elevation

2589 ft



Coordinates



    19°
    51'
          7"
        S
  
      ,
    
    43°
    57'
          2"
        W
  




KCC

Cwa




Metar
SBBH 071100Z 10010KT 6000 NSC 21/14 Q1023








Belo Horizonte/Pampulha–Carlos Drummond de Andrade Airport is an airport serving Belo Horizonte, Brazil, located in the neighborhood of Pampulha. Since December 16, 2004 the airport is also named after the Minas Gerais-born poet Carlos Drummond de Andrade.
Climatology
Humid subtropical climate (Köppen climate classification Cwa)






Runways






Designator
Length
Width
Surface
Rops




13/31          
2540          
45          
ASP          
Yes/Yes          













Airport map






Aerial View