ETHS








Faßberg Air Base





Airport

ICAO code


  ETHS






Summary

ICAO Region

EUR



ICAO Territory





Germany






 








Location

Faßberg, Lower Saxony,




Coordinates



    52°
    55'
          10"
        N
  
      ,
    
    10°
    11'
          20"
        E
  





Metar
ETHS 071420Z AUTO 14007KT 9999 // ////// 30/08 Q1012 ///








Description
Faßberg Air Base is located 2 km northeast of the municipality of Faßberg, Lower Saxony, Germany.






Runways






Designator
Length
Width
Surface
Rops




6/24          
400          
45          
GRS          
No/No          


09L/27R          
1000          
50          
GRS          
No/No          


9/27          
2440          
29          
ASP          
No/No          













Airport map






Aerial View