SBKG








Campina Grande Airport





Airport

ICAO code


  SBKG





IATA Code

CPV




Summary

ICAO Region

CARSAM



ICAO Territory





Brazil






 








Location

Campina Grande, Paraiba




Serving

Campina Grande



Elevation

1646 ft



Coordinates



    7°
    16'
          9"
        S
  
      ,
    
    35°
    53'
          42"
        W
  




KCC

BSh




Metar
SBKG 071200Z 13016KT 9999 BKN018 SCT070 25/18 Q1019








Presidente João Suassuna Airport is the airport serving Campina Grande, Brazil.
Climatology
Hot semi-arid climate (Köppen climate classification BSh)






Runways






Designator
Length
Width
Surface
Rops




15/33          
1600          
42          
ASP          
No/No          













Airport map






Aerial View