FQPB








Pemba Airport





Airport

ICAO code


  FQPB





IATA Code

POL




Summary

ICAO Region

AFI



ICAO Territory





Mozambique






 








Location

Pemba, Cabo Delgado




Serving

Pemba



Elevation

331 ft



Coordinates



    12°
    59'
          30"
        S
  
      ,
    
    40°
    31'
          28"
        E
  




KCC

Aw




Metar
FQPB 071400Z 13011KT 9999 FEW020 28/21 Q1018








Description
Airport serving the port city of Pemba/Porto Amelia Mozambique.
Climatology
Tropical Savanna climate (Köppen climate classification Aw) - monthly mean temperature above 18°C in every month of the year and a pronounced dry season.






Runways






Designator
Length
Width
Surface
Rops




8/26          
800          
30          
ASP          
No/No          


17/35          
1800          
45          
ASP          
No/No          













Airport map






Aerial View