LPHR








Horta Airport





Airport

ICAO code


  LPHR





IATA Code

HOR




Summary

ICAO Region

NAT



ICAO Territory





Azores






 








Location

Castelo Branco, Azores




Serving

Horta



Elevation

118 ft



Coordinates



    38°
    31'
          12"
        N
  
      ,
    
    28°
    42'
          59"
        W
  




KCC

Cfb




Metar
LPHR 071230Z 08012KT 050V120 9999 FEW025 25/13 Q1021








Horta Airport is an airport located in the parish of Castelo Branco, 6nm southwest of the center of Horta, on Faial Island in the archipelago of the Azores.
Climatology
Temperate oceanic climate (Köppen climate classification Cfb)






Runways






Designator
Length
Width
Surface
Rops




10/28          
1595          
45          
ASP          
No/No          













Airport map






Aerial View