LFLS








Grenoble





Airport

ICAO code


  LFLS






Summary

ICAO Region

EUR



ICAO Territory





France






 








Location

Grenoble, Rhone-Alpes,




Coordinates



    45°
    21'
          47"
        N
  
      ,
    
    5°
    19'
          43"
        E
  




KCC

Cfa




Metar
LFLS 071400Z AUTO 19011KT CAVOK 30/17 Q1008 NOSIG








Description
International airport serving resort of Grenoble.
Climatology
Humid “subtropical” climate (Köppen climate classification Cfa) - characterized by hot, humid summers and cool winters. Significant amounts of precipitation occur in all seasons in most areas. Winter rainfall (and sometimes snowfall) is associated with large storms that the westerlies steer from west to east. Most summer rainfall occurs during thunderstorms.






Runways






Designator
Length
Width
Surface
Rops




9/27          
3050          
45          
ASP          
Yes/Yes          













Airport map






Aerial View








Airport accidents



MD81, Grenoble France, 2010