LIRV








Rome Viterbo Airport





Airport

ICAO code


  LIRV





IATA Code

VTR




Summary

ICAO Region

EUR



ICAO Territory





Italy






 








Location

Viterbo, Lazio




Serving

Rome



Elevation

992 ft



Coordinates



    42°
    26'
          8"
        N
  
      ,
    
    12°
    3'
          42"
        E
  




KCC

Csa




Metar
LIRV 071355Z 26014KT CAVOK 28/22 Q1017








Rome Viterbo Airport is a proposed re-use of Viterbo Air Force Base, a civilian, commercial and military airport about 80 kilometers north of Rome, Italy.
Climatology
Warm mediterranean climate (Köppen climate classification Csa)






Runways






Designator
Length
Width
Surface
Rops




04R/22L          
590          
34          
ASP          
No/No          


04L/22R          
1005          
25          
ASP          
No/No          


04C/22C          
1300          
50          
GRS          
No/No          













Airport map






Aerial View