EBFS








Florennes





Airport

ICAO code


  EBFS






Summary

ICAO Region

EUR



ICAO Territory





Belgium






 








Location

Florennes,




Elevation

935 ft



Coordinates



    50°
    14'
          36"
        N
  
      ,
    
    4°
    38'
          45"
        E
  




KCC

Cfb




Metar
EBFS 071355Z AUTO 20006KT 9999 -DZ FEW034/// SCT130/// BKN160/// 24/17 Q1010 BLU








Description
Florennes Air Base is a Belgian Air Component military airfield located in Florennes, a municipality of Belgium. It is home to the 2nd Tactical Wing, operating F-16 Fighting Falcons. It also used to be the home to the Tactical Leadership Programme (TLP), a joint training program formed by 10 NATO members. On July 31, 2009, TLP moved to Albacete in Spain.
Climatology
Temperate Marine climate/Oceanic climate (Köppen climate classification Cfb) - Moderately cool summer and comparatively warm winter.






Runways






Designator
Length
Width
Surface
Rops




08R/26L          
2250          
23          
ASP          
No/No          


08L/26R          
3385          
45          
ASP          
No/No          













Airport map






Aerial View