KPSM








Portsmouth International Airport at Pease





Airport

ICAO code


  KPSM






Summary

ICAO Region

NAM



ICAO Territory





United States






 








Location

Portsmouth, New Hampshire,




Coordinates



    43°
    4'
          41"
        N
  
      ,
    
    70°
    49'
          24"
        W
  




KCC

Dfa



Airport WX

Cumulonimbus




Metar
KPSM 071355Z 34006KT 10SM FEW020 FEW043 SCT170 BKN250 21/14 A2987 RMK AO2A SLP117 T02070143








Description
Portsmouth International Airport at Pease (formerly known as Pease International Airport) is a joint use civil-military (ANG) airport located 2 km west of the central business district of Portsmouth, a city in Rockingham County, New Hampshire.
Climatology
Humid continental climate (Köppen climate classification Dfa) - characterized by four seasons: cold, windy, snowy winters, mild springs, hot, humid summers, and crisp and relatively short autumns. Precipitation reaches its lowest in January and February and peaks in summer and latter half of spring.






Runways






Designator
Length
Width
Surface
Rops




16/34          
3451          
46          
PEM          
Yes/Yes          













Airport map






Aerial View