MMCM








Chetumal International Airport





Airport

ICAO code


  MMCM





IATA Code

CTM




Summary

ICAO Region

CARSAM



ICAO Territory





Mexico






 








Location

Chetumal, Quintana Roo




Serving

Chetumal



Elevation

39 ft



Coordinates



    18°
    30'
          17"
        N
  
      ,
    
    88°
    19'
          37"
        W
  




KCC

Aw




Metar
MMCM 071244Z 00000KT 6SM SCT015 BKN070 26/26 A2976 RMK 8/520 LWR SC








International airport located in Chetumal, Quintana Roo, Mexico.
Climatology
Tropical savannah climate (Köppen climate classification Aw)






Runways






Designator
Length
Width
Surface
Rops




10/28          
2208          
46          
ASP          
No/No          













Airport map






Aerial View