CYXX








Abbotsford International Airport





Airport

ICAO code


  CYXX





IATA Code

YXX




Summary

ICAO Region

NAM



ICAO Territory





Canada






 








Location

Abbotsford, British Columbia




Serving

Abbotsford



Elevation

194 ft



Coordinates



    49°
    1'
          31"
        N
  
      ,
    
    122°
    21'
          48"
        W
  




KCC

Cfb



Airport BS

Bird Strike



Airport WX

Fog




Metar
CYXX 071400Z 00000KT 25SM FEW180 14/14 A2993 RMK AS1 AS TR HZ SLP135








Description
Abbotsford International Airport is located near Abbotsford, British Columbia, Canada.
Climatology
Temperate Marine climate/Oceanic climate (Köppen climate classification Cfb). Moderately cool summer and comparatively warm winter.






Runways






Designator
Length
Width
Surface
Rops




01L/19R          
457          
30          
GRS          
No/No          


1/19          
1624          
61          
ASP          
Yes/Yes          


7/25          
2926          
61          
PEM          
Yes/Yes          













Airport map






Aerial View