FMMS








Sainte Marie Airport





Airport

ICAO code


  FMMS





IATA Code

SMS




Summary

ICAO Region

AFI



ICAO Territory





Madagascar






 








Location

Raoraha, Analanjirofo Region




Serving

Sainte Marie



Elevation

7 ft



Coordinates



    17°
    5'
          38"
        S
  
      ,
    
    49°
    48'
          57"
        E
  




KCC

Af




Metar
FMMS 070300Z 17008KT 9999 SCT017 BKN040 24/21 Q1021








Sainte Marie Airport is an airport serving Sainte Marie, an island in the Analanjirofo Region of Madagascar.
Climatology
Tropical rainforest climate (Köppen climate classification Af)






Runways






Designator
Length
Width
Surface
Rops




1/19          
1052          
30          
ASP          
No/No          













Airport map






Aerial View