KSBA








Santa Barbara Municipal Airport





Airport

ICAO code


  KSBA






Summary

ICAO Region

NAM



ICAO Territory





United States






 








Location

Santa Barbara, California,




Coordinates



    34°
    25'
          36"
        N
  
      ,
    
    119°
    50'
          29"
        W
  




KCC

Csb



Airport LOS

Parallel Runway Operation




Metar
KSBA 071353Z 26004KT 6SM BR CLR 18/17 A2981 RMK AO2 SLP095 T01780167 $








Description
Santa Barbara Municipal Airport is a public airport located 11 km west of downtown Santa Barbara, California.
Climatology
Warm Mediterranean climate (Köppen climate classification Csb). Because of the airport's proximity to the ocean, onshore breezes significantly moderate temperatures, resulting in warmer winters and cooler summers compared with places farther inland.






Runways






Designator
Length
Width
Surface
Rops




15L/33R          
1274          
23          
ASP          
Yes/Yes          


15R/33L          
1275          
30          
ASP          
Yes/Yes          


7/25          
1845          
46          
ASP          
Yes/Yes          













Airport map






Aerial View