VOBZ








Vijayawada Airport





Airport

ICAO code


  VOBZ






Summary

ICAO Region

APAC



ICAO Territory





India






 








Location

Vijayawada, Andhra Pradesh




Serving

Vijayawada



Coordinates



    16°
    31'
          42"
        N
  
      ,
    
    80°
    47'
          39"
        E
  




KCC

Aw



Airport WX

Cumulonimbus




Metar
VOBZ 071100Z 00000KT 3000 TSRA SCT018 FEW030CB OVC080 26/25 Q1002 BECMG 3500 -TSRA








Description
Vijayawada Airport is a regional airport located 20 km east of the central business district of Vijayawada, a city in the state of Andhra Pradesh, India.
Climatology
Tropical Savanna climate (Köppen climate classification Aw) - monthly mean temperatures above 18°C, and a pronounced dry season. A Tropical Savanna climate has more pronounced dry seasons than a Tropical Monsoon climate.














Airport map






Aerial View