LPAR








Alverca Airbase





Airport

ICAO code


  LPAR






Summary

ICAO Region

EUR



ICAO Territory





Portugal






 








Location

Alverca do Ribatejo, Vila Franca de Xira




Serving

Military facility



Elevation

3 ft



Coordinates



    38°
    53'
          22"
        N
  
      ,
    
    9°
    1'
          44"
        W
  




KCC

Csa




Metar
LPAR 061600Z 33010KT 300V010 9999 FEW040 23/10 Q1009








Portuguese military base located north east of Lisbon.
Climatology
Warm mediterranean climate (Köppen climate classification Csa)






Runways






Designator
Length
Width
Surface
Rops




4/22          
2990          
45          
ASP          
No/No          













Airport map






Aerial View