KCDR








Chadron Municipal Airport





Airport

ICAO code


  KCDR





IATA Code

CDR




Summary

ICAO Region

NAM



ICAO Territory





United States






 








Location

Dawes County, Nebraska




Serving

Chadron



Elevation

3298 ft



Coordinates



    42°
    50'
          20"
        N
  
      ,
    
    103°
    5'
          39"
        W
  




KCC

BSk



Airport CFIT

Altimeter Temperature Error Correction



Airport WX

Cumulonimbus




Metar
KCDR 071353Z AUTO 19007KT 10SM CLR 14/08 A3023 RMK AO2 SLP223 T01390078 $








Description
Chadron Municipal Airport is a public use airport located 5 nm west of the central business district of Chadron, a city in Dawes County, Nebraska.














Airport map






Aerial View