LRTR








Timisoara/Traian Vuia





Airport

ICAO code


  LRTR





IATA Code

TSR




Summary

ICAO Region

EUR



ICAO Territory





Romania






 








Location

Ghiroda, Timiș County




Serving

Timișoara



Elevation

354 ft



Coordinates



    45°
    48'
          36"
        N
  
      ,
    
    21°
    20'
          18"
        E
  




KCC

Cfa




Metar
LRTR 071200Z 12004KT CAVOK 31/11 Q1017








Description
International airport serving Timosoara.
Climatology
Humid “subtropical” climate (Köppen climate classification Cfa) - characterized by hot, humid summers and cool winters. Significant amounts of precipitation occur in all seasons in most areas. Winter rainfall (and sometimes snowfall) is associated with large storms that the westerlies steer from west to east. Most summer rainfall occurs during thunderstorms.






Runways






Designator
Length
Width
Surface
Rops




11/29          
3500          
45          
CON          
Yes/Yes          













Airport map






Aerial View