HKWJ








Wajir Airport





Airport

ICAO code


  HKWJ





IATA Code

WJR




Summary

ICAO Region

AFI



ICAO Territory





Kenya






 








Location

Wajir, Wajir County




Serving

Wajir



Elevation

757 ft



Coordinates



    1°
    43'
          48"
        N
  
      ,
    
    40°
    5'
          24"
        E
  




KCC

BWh




Metar
HKWJ 071300Z 15010KT 9999 SCT037 34/15 Q1010








Wajir Airport is located in Wajir County, Kenya.
Climatology
Hot desert climate (Köppen climate classification BWh)






Runways






Designator
Length
Width
Surface
Rops




15/33          
2802          
32          
ASP          
No/No          













Airport map






Aerial View