SBUL








Uberlândia Airport





Airport

ICAO code


  SBUL





IATA Code

UDI




Summary

ICAO Region

CARSAM



ICAO Territory





Brazil






 








Location

Uberlândia, Minas Gerais




Serving

Uberlândia



Elevation

3094 ft



Coordinates



    18°
    53'
          1"
        S
  
      ,
    
    48°
    13'
          31"
        W
  




KCC

Cwb




Metar
SBUL 071200Z 05016KT CAVOK 25/07 Q1022








Uberlândia–Ten. Cel. Av. César Bombonato Airport is the airport serving Uberlândia, Brazil.
Climatology
Humid subtropical climate (Köppen climate classification Cwb)






Runways






Designator
Length
Width
Surface
Rops




4/22          
1950          
45          
ASP          
Yes/Yes          













Airport map






Aerial View