LIBC








Crotone Airport





Airport

ICAO code


  LIBC





IATA Code

CRV




Summary

ICAO Region

EUR



ICAO Territory





Italy






 








Location

Crotone, Calabria




Serving

Crotone



Elevation

521 ft



Coordinates



    38°
    59'
          50"
        N
  
      ,
    
    17°
    4'
          47"
        E
  




KCC

Csa




Metar
LIBC 071350Z 19006KT 150V210 CAVOK 31/19 Q1015








Crotone-Sant'Anna Airport is a minor Italian domestic airport serving Crotone in Calabria.
Climatology
Warm mediterranean climate (Köppen climate classification Csa)






Runways






Designator
Length
Width
Surface
Rops




17/35          
2000          
45          
ASP          
Yes/Yes          













Airport map






Aerial View