MUHG








Frank Pais Airport





Airport

ICAO code


  MUHG





IATA Code

HOG




Summary

ICAO Region

CARSAM



ICAO Territory





Cuba






 








Location

Holguin, Holguin




Serving

Holguin



Elevation

361 ft



Coordinates



    20°
    47'
          4"
        N
  
      ,
    
    76°
    19'
          6"
        W
  




KCC

Aw



Airport WX

Tropical Revolving Storm




Metar
MUHG 071250Z 06006KT 030V090 9000 FEW024 29/25 Q1011








Frank País Airport is an international airport that serves the city of Holguín in Cuba. It bears the name of Cuban revolutionary Frank País and is located in the municipio of Frank País.
Climatology
Tropical Savanna climate (Köppen climate classification Aw)






Runways






Designator
Length
Width
Surface
Rops




5/23          
3238          
45          
ASP          
Yes/Yes          













Airport map






Aerial View