EPWR








Wrocław/Copernicus Airport





Airport

ICAO code


  EPWR





IATA Code

WRO




Summary

ICAO Region

EUR



ICAO Territory





Poland






 








Location

Wrocław, Lower Silesian




Serving

Wrocław



Elevation

404 ft



Coordinates



    51°
    6'
          15"
        N
  
      ,
    
    16°
    52'
          51"
        E
  





Metar
EPWR 071230Z 12016KT CAVOK 30/12 Q1015








International airport serving Wrocław, Poland.






Runways






Designator
Length
Width
Surface
Rops




12/30          
2500          
60          
CON          
Yes/Yes          













Airport map






Aerial View