PAKT








Ketchikan International Airport





Airport

ICAO code


  PAKT






Summary

ICAO Region

NAM



ICAO Territory





Alaska






 








Location

Ketchikan,




Coordinates



    55°
    21'
          20"
        N
  
      ,
    
    131°
    42'
          49"
        W
  




KCC

Cfb



Airport BS

Bird Strike



Airport CFIT

Altimeter Temperature Error Correction




Metar
PAKT 071204Z AUTO 14003KT 4SM -RA BR OVC003 14/13 A3005 RMK AO2 P0000 T01440133 TSNO








Description
International airport serving the community of Ketchikan which is located on Gravina Island in the Alaska panhandle.
Climatology
Temperate Marine climate/Oceanic climate (Köppen climate classification Cfb). Moderately cool summer and comparatively warm winter with a temperature range of only 14°C.






Runways






Designator
Length
Width
Surface
Rops




11/29          
2286          
46          
ASPH-G          
Yes/Yes          


ESE/WNW          
2896          
457          
WATER          
No/No          













Airport map






Aerial View