SCNT








Tte. Julio Gallardo Airport





Airport

ICAO code


  SCNT





IATA Code

PNT




Summary

ICAO Region

CARSAM



ICAO Territory





Chile






 








Location

Puerto Natales, Magallanes y de la Antartica Chilena




Serving

Puerto Natales



Elevation

217 ft



Coordinates



    51°
    43'
          60"
        S
  
      ,
    
    72°
    31'
          0"
        W
  




KCC

Cfb




Metar
SCNT 071300Z 32006KT 270V350 9999 SCT050 BKN200 06/M02 Q0993








Airport located 7 km north-northwest of Puerto Natales, Chile.
Climatology
Temperate oceanic climate (Köppen climate classification Cfb)






Runways






Designator
Length
Width
Surface
Rops




10/28          
1764          
30          
ASP          
No/No          













Airport map






Aerial View