RPVM








Mactan-Cebu International Airport





Airport

ICAO code


  RPVM





IATA Code

CEB




Summary

ICAO Region

APAC



ICAO Territory





Philippines






 








Location

Lapu-Lapu City, Central Visayas




Serving

Cebu City



Elevation

31 ft



Coordinates



    10°
    18'
          32"
        N
  
      ,
    
    123°
    58'
          52"
        E
  




KCC

Af




Metar
RPVM 071400Z 33004KT 9999 FEW020 SCT300 28/24 Q1013 NOSIG RMK A2991








Mactan-Cebu International Airport is a major international airport in the Visayas region of the Philippines. It is located in Lapu-Lapu City, Mactan Island, Metro Cebu and is the country's second primary gateway.
Climatology
Tropical Rainforest climate (Köppen climate classification Af)






Runways






Designator
Length
Width
Surface
Rops




4/22          
3300          
45          
ASP          
Yes/Yes          













Airport map






Aerial View