WSSL








Seletar Airport





Airport

ICAO code


  WSSL





IATA Code

XSP




Summary

ICAO Region

APAC



ICAO Territory





Singapore






 








Location

Seletar, North-East Region




Serving

Seletar



Elevation

36 ft



Coordinates



    1°
    25'
          0"
        N
  
      ,
    
    103°
    52'
          3"
        E
  




KCC

Af




Metar
WSSL 071300Z 14006KT 100V200 9999 FEW018 SCT160 BKN300 29/24 Q1010








Seletar Airport is a civilian airport located at Seletar, in the northeastern region of Singapore, and is managed by the Changi Airport Group. Originally, the airport was completed in 1928 as a flying Royal Air Force station (RAF Seletar) and was also Singapore's first international airport.
Climatology
Tropical Rainforest climate (Köppen climate classification Af) - almost no distinct seasons, average daily temperature around 27°C throughout the year. Extensive cloud cover and heavy rainfall prevent temperatures from rising much over 33°C. The diurnal temperature change is between 2°C and 5°C which is greater than the annual temperature range of 2°C. Rainfall is heavy and is usually convectional and in the afternoon.














Airport map






Aerial View








Airport accidents



B737, Singapore Seletar, 2017