SARE








Resistencia International Airport





Airport

ICAO code


  SARE





IATA Code

RES




Summary

ICAO Region

CARSAM



ICAO Territory





Argentina






 








Location

Resistencia, Chaco




Serving

Resistencia



Elevation

173 ft



Coordinates



    27°
    26'
          60"
        S
  
      ,
    
    59°
    3'
          22"
        W
  




KCC

Cfa




Metar
SARE 071300Z 07007KT 6000 NSC 20/13 Q1012








Airport serving Resistencia, Chaco Province, Argentina. Also known as Aeropuerto de Resistencia General Jose de San Martin.
Climatology
Humid Sub-tropical climate (Köppen climate classification Cfa).






Runways






Designator
Length
Width
Surface
Rops




3/21          
2770          
45          
ASP          
Yes/Yes          













Airport map






Aerial View