TNCA








Aruba/Queen Beatrix International Airport





Airport

ICAO code


  TNCA






Summary

ICAO Region

CARSAM



ICAO Territory





Aruba






 








Location

Oranjestad, Aruba,




Coordinates



    12°
    30'
          5"
        N
  
      ,
    
    70°
    0'
          55"
        W
  




KCC

Aw



Airport WX

Tropical Revolving Storm




Metar
TNCA 071100Z 09013KT 9999 SCT016 29/26 Q1008 NOSIG








Description
International airport serving the island of Aruba in the Lesser Antilles, Caribbean. (Netherlands)
Climatology
Tropical Savanna climate (Köppen climate classification Aw), rarely affected directly by tropical storms as it is on the southern fringe of the Atlantic/Caribbean Hurricane Belt.






Runways






Designator
Length
Width
Surface
Rops




11/29          
2743          
45          
ASP          
Yes/Yes          













Airport map






Aerial View