KDIK








Dickinson Theodore Roosevelt Regional Airport





Airport

ICAO code


  KDIK





IATA Code

DIK




Summary

ICAO Region

NAM



ICAO Territory





United States






 








Location

Dickinson, North Dakota




Serving

Dickinson



Elevation

2592 ft



Coordinates



    46°
    47'
          50"
        N
  
      ,
    
    102°
    48'
          7"
        W
  




KCC

Dfb



Airport CFIT

Altimeter Temperature Error Correction



Airport WX

Cumulonimbus




Metar
KDIK 071356Z AUTO 14008KT 10SM CLR 11/06 A3018 RMK AO2 SLP222 T01110056








Description
Dickinson Theodore Roosevelt Regional Airport, formerly known as Dickinson Municipal Airport, is a public use airport located 6 nm south of the central business district of Dickinson, a city in Stark County, North Dakota.














Airport map






Aerial View