CYHY








Hay River / Merlyn Carter Airport





Airport

ICAO code


  CYHY





IATA Code

YHY




Summary

ICAO Region

NAM



ICAO Territory





Canada






 








Location

Hay River, Northwest Territories




Serving

Hay River



Elevation

541 ft



Coordinates



    60°
    50'
          23"
        N
  
      ,
    
    115°
    47'
          5"
        W
  




KCC

Dfc



Airport BS

Non Avian Wildlife Hazards to Aircraft



Airport CFIT

Altimeter Temperature Error Correction



Airport GND

Aircraft Ground De/Anti Icing



Airport RE

Landing on Contaminated Runways




Metar
CYHY 071400Z 20004KT 2SM FU SCT150 BKN250 12/07 A2975 RMK FU2AC2CI3 SLP082








Description
Regional airport serving the community of Hay River, Northwest Territories, Canada.
Climatology
Subarctic climate (Köppen climate classification Dfc) - long, usually very cold winters, and short, cool to mild summers.






Runways






Designator
Length
Width
Surface
Rops




5/23          
1220          
46          
COM          
Yes/Yes          


14/32          
1829          
46          
ASP          
Yes/Yes          













Airport map






Aerial View