PAEM








Emmonak Airport





Airport

ICAO code


  PAEM






Summary

ICAO Region

NAM



ICAO Territory





Alaska






 








Location

Emmonak,




Coordinates



    62°
    47'
          5"
        N
  
      ,
    
    164°
    29'
          26"
        W
  




KCC

Dfc



Airport BS

Non Avian Wildlife Hazards to Aircraft



Airport CFIT

Altimeter Temperature Error Correction




Metar
PAEM 071256Z AUTO 17005KT 10SM CLR 06/05 A2990 RMK AO2 SLP125 T00560050








Description
Regional airport serving Emmonak, Alaska.
Climatology
Subarctic climate (Köppen climate classification Dfc) - long, usually very cold winters, and short, cool to mild summers.






Runways






Designator
Length
Width
Surface
Rops




16/34          
1402          
30          
GVL          
No/No          













Airport map






Aerial View