CYSK








Sanikiluaq Airport





Airport

ICAO code


  CYSK





IATA Code

YSK




Summary

ICAO Region

NAM



ICAO Territory





Canada






 








Location

Sanikiluaq, Nunavut




Serving

Sanikiluaq



Elevation

104 ft



Coordinates



    56°
    32'
          16"
        N
  
      ,
    
    79°
    14'
          48"
        W
  





Metar
CYSK 062200Z 02014G19KT 15SM BKN025 07/01 A3031 RMK SC7 LAST STFD OBS/NXT 091200Z SLP268








Sanikiluaq Airport is located at Sanikiluaq, Nunavut, Canada, and is operated by the Government of Nunavut. It is one of the few airports in Nunavut that uses magnetic headings for the runway rather than true headings.






Runways






Designator
Length
Width
Surface
Rops




9/27          
1158          
0          
UNK          
No/No          













Airport map






Aerial View








Airport accidents



SW4, Sanikiluaq Nunavut Canada, 2012