LFCK








Castres-Mazamet Airport





Airport

ICAO code


  LFCK





IATA Code

DCM




Summary

ICAO Region

EUR



ICAO Territory





France






 








Location

Lagarrigue, Midi-Pyrenees




Serving

Castres



Elevation

788 ft



Coordinates



    43°
    33'
          22"
        N
  
      ,
    
    2°
    17'
          21"
        E
  





Metar
LFCK 071400Z AUTO 25013KT 210V280 9999 BKN015/// OVC025/// ///CB 22/19 Q1010 TEMPO 2500 TSRA









Runways






Designator
Length
Width
Surface
Rops




14/32          
1825          
30          
CON          
No/No          













Airport map






Aerial View