KACY








Atlantic City International Airport





Airport

ICAO code


  KACY





IATA Code

ACY




Summary

ICAO Region

NAM



ICAO Territory





United States






 








Location

Egg Harbour, New Jersey




Serving

Atlantic City



Elevation

75 ft



Coordinates



    39°
    27'
          4"
        N
  
      ,
    
    74°
    34'
          21"
        W
  




KCC

Cfa




Metar
KACY 071354Z 20005KT 10SM BKN013 BKN022 22/19 A2987 RMK AO2 SLP113 T02220194








Description
Atlantic City International Airport is a joint civil-military (ANG/USCG) airport located 10 nm northwest of Atlantic City, New Jersey, USA.














Airport map






Aerial View








Airport accidents



A20N, Atlantic City NJ USA, 2021