KORL








Orlando Executive Airport





Airport

ICAO code


  KORL






Summary

ICAO Region

NAM



ICAO Territory





United States






 








Location

Orlando, Florida,




Coordinates



    28°
    32'
          44"
        N
  
      ,
    
    81°
    19'
          58"
        W
  




KCC

Cfa



Airport WX

Tropical Revolving Storm




Metar
KORL 071353Z 21006KT 10SM CLR 28/25 A2989 RMK AO2 SLP122 T02830250








Description
Airport 3 nm east of Orlando, Florida, USA.
Climatology
Humid “subtropical” climate (Köppen climate classification Cfa) - characterized by hot, humid summers and cool winters. From October to March the temperatures are more moderate and rain less frequent. Most summer rainfall occurs during thunderstorms and occasional tropical storms (hurricanes).






Runways






Designator
Length
Width
Surface
Rops




13/31          
1414          
30          
ASP          
Yes/Yes          


7/25          
1830          
46          
ASP          
Yes/Yes          













Airport map






Aerial View