EFSA








Savonlinna Airport





Airport

ICAO code


  EFSA





IATA Code

SVL




Summary

ICAO Region

EUR



ICAO Territory





Finland






 








Location

Makkola, Saimaa Lakes region




Serving

Savonlinna



Elevation

311 ft



Coordinates



    61°
    56'
          34"
        N
  
      ,
    
    28°
    56'
          42"
        E
  




KCC

Dfc




Metar
EFSA 071220Z AUTO 24009KT 200V270 CAVOK 22/12 Q1025








Savonlinna Airport in Finland is about 9 nm north of Savonlinna town centre along the Enonkoskentie road.
Climatology
Cool humid continental climate (Köppen climate classification Dfc)






Runways






Designator
Length
Width
Surface
Rops




12/30          
2300          
45          
ASP          
No/No          













Airport map






Aerial View








Airport accidents



SF34, Savonlinna Finland, 2019