KWST








Westerly State Airport





Airport

ICAO code


  KWST






Summary

ICAO Region

NAM



ICAO Territory





United States






 








Location

Westerly, Rhode Island,




Coordinates



    41°
    20'
          58"
        N
  
      ,
    
    71°
    48'
          14"
        W
  




KCC

Dfa




Metar
KWST 071353Z AUTO VRB03KT 10SM CLR 21/15 A2990 RMK AO2 SLP123 T02060150








Description
Westerly State Airport is a public use airport located 4 km from the central business district of Westerly, a town in Washington County, Rhode Island.
Climatology
Humid “subtropical”/Continental climate (Köppen climate classification Cfa/Dfa) - characterized by hot, humid summers and cool/cold winters. Significant amounts of precipitation occur in all seasons in most areas. Winter rainfall (and snowfall) is associated with large storms that the westerlies steer from west to east. Most summer rainfall occurs during thunderstorms.






Runways






Designator
Length
Width
Surface
Rops




14/32          
1207          
23          
ASP          
No/No          


7/25          
1222          
30          
ASP          
No/No          













Airport map






Aerial View