VOGO








Dabolim International Airport





Airport

ICAO code


  VOGO





IATA Code

GOI




Summary

ICAO Region

APAC



ICAO Territory





India






 








Location

Dabolim, Mormugão, Goa,




Serving

Goa



Elevation

183 ft



Coordinates



    15°
    22'
          50"
        N
  
      ,
    
    73°
    49'
          59"
        E
  




KCC

Aw




Metar
VOGO 071230Z 28009KT 5000 VCSH FEW010 SCT030 BKN070 28/25 Q1007 NOSIG








International airport serving the state of Goa, India.
Climatology
Tropical Savanna climate (Köppen climate classification Aw)














Airport map






Aerial View








Airport accidents



B738, Goa India, 2016