LIBN








Galatina Air Base





Airport

ICAO code


  LIBN





IATA Code

LCC




Summary

ICAO Region

EUR



ICAO Territory





Italy






 








Location

Galatina, Apulia




Serving

Lecce



Elevation

156 ft



Coordinates



    40°
    14'
          25"
        N
  
      ,
    
    18°
    8'
          15"
        E
  




KCC

Csa




Metar
LIBN 071355Z 13005KT 9999 FEW025CB 26/22 Q1015 RETS








Galatina Air Base is an airbase near Galatina, south of the city of Lecce in the Apulia (Puglia) region of Italy.
Climatology
Warm mediterranean climate (Köppen climate classification Csa)






Runways






Designator
Length
Width
Surface
Rops




14/32          
2023          
60          
ASP          
No/No          













Airport map






Aerial View