RJSR








Odate-Noshiro Airport





Airport

ICAO code


  RJSR





IATA Code

ONJ




Summary

ICAO Region

APAC



ICAO Territory





Japan






 








Location

Kitaakita, Akita Prefecture




Serving

Akita



Elevation

276 ft



Coordinates



    40°
    11'
          42"
        N
  
      ,
    
    140°
    22'
          22"
        E
  




KCC

Cfa




Metar
RJSR 070100Z VRB02KT 9999 FEW020 SCT040 BKN/// 23/18 Q1015








Odate–Noshiro Airport is an airport in Kitaakita, Akita, Japan and is 8.3 nm. It is also informally known as Akita North Airport.
Climatology
Humid Sub-tropical climate (Köppen climate classification Cfa)






Runways






Designator
Length
Width
Surface
Rops




11/29          
2000          
45          
ASP          
Yes/Yes          













Airport map






Aerial View