EKVG








Vagar





Airport

ICAO code


  EKVG






Summary

ICAO Region

EUR



ICAO Territory





Denmark






 








Location

Sørvágur, Faroe Islands,




Coordinates



    62°
    3'
          49"
        N
  
      ,
    
    7°
    16'
          37"
        W
  




KCC

Cfc



Airport WX

Volcanic Ash




Metar
EKVG 071220Z AUTO 28007KT 9999 FEW014/// 12/08 Q1016 RMK NCD WIND SKEID 30009KT








Description
Vágar Airport is the only airport in the Faroe Islands, a self-governing territory of Denmark and is located 1 nm east of Sørvágur.
Climatology
Subarctic oceanic climate (Köppen climate classification Cfc) moderated by North Atlantic Current; long, mild, windy winters; short, cool summers.






Runways






Designator
Length
Width
Surface
Rops




13/31          
1799          
30          
ASP          
No/No          













Airport map






Aerial View