KIPT








Williamsport Regional Airport





Airport

ICAO code


  KIPT






Summary

ICAO Region

NAM



ICAO Territory





United States






 








Location

Williamsport, Pennsylvania,




Coordinates



    41°
    14'
          43"
        N
  
      ,
    
    76°
    55'
          8"
        W
  




KCC

Dfa



Airport WX

Cumulonimbus




Metar
KIPT 071354Z 27011KT 10SM -RA OVC048 16/14 A2986 RMK AO2 SLP108 P0007 T01610144








Description
Williamsport Regional Airport is a public use airport located 7 km east of the central business district of Williamsport, a city in Lycoming County, Pennsylvania.
Climatology
In the transition zone between humid “subtropical” climate (Köppen climate classification Cfa) and humid continental (Köppen climate classification Dfa) - characterized by hot, humid summers and cool winters. Significant amounts of precipitation occur in all seasons in most areas. Winter rainfall (and sometimes snowfall) is associated with large storms that the westerlies steer from west to east. Most summer rainfall occurs during thunderstorms.














Airport map






Aerial View