EFJY








Jyväskylä





Airport

ICAO code


  EFJY






Summary

ICAO Region

EUR



ICAO Territory





Finland






 








Location

Jyväskylä,




Coordinates



    62°
    24'
          4"
        N
  
      ,
    
    25°
    40'
          29"
        E
  




KCC

Dfc



Airport GND

Aircraft Ground De/Anti Icing



Airport RE

Landing on Contaminated Runways




Metar
EFJY 071350Z AUTO 18007KT 150V220 9999 FEW041 21/14 Q1023








Description
Largely domestic but also international airport serving the city of Jyvaskyla in central Finland. The airport is located 12 nm north of the city centre. Military flight training takes place here.
Climatology
Subarctic climate (Köppen climate classification Dfc) - long, usually very cold winters, and short, cool to mild summers.






Runways






Designator
Length
Width
Surface
Rops




12/30          
2601          
60          
ASP          
Yes/Yes          













Airport map






Aerial View