KORF








Norfolk International Airport





Airport

ICAO code


  KORF






Summary

ICAO Region

NAM



ICAO Territory





United States






 








Location

Norfolk, Virginia,




Coordinates



    36°
    53'
          55"
        N
  
      ,
    
    76°
    12'
          21"
        W
  




KCC

Cfa




Metar
KORF 071418Z 17003KT 5SM -RA BR BKN028 OVC034 22/20 A2987 RMK AO2 P0014 T02170200








Description
International airport 3 nm north east of Norfolk, Virginia, USA.
Climatology
Humid “subtropical” climate (Köppen climate classification Cfa) - characterized by hot, humid summers and cool winters. Significant amounts of precipitation occur in all seasons in most areas. Winter rainfall (and sometimes snowfall) is associated with large storms that the westerlies steer from west to east. Most summer rainfall occurs during thunderstorms and occasional tropical storms (hurricanes).






Runways






Designator
Length
Width
Surface
Rops




14/32          
1486          
46          
ASP          
Yes/Yes          


5/23          
2744          
46          
ASP          
Yes/Yes          













Airport map






Aerial View