KBOI








Boise Airport





Airport

ICAO code


  KBOI





IATA Code

BOI




Summary

ICAO Region

NAM



ICAO Territory





United States






 








Location

Ada County, Idaho




Serving

Boise



Elevation

2871 ft



Coordinates



    43°
    33'
          52"
        N
  
      ,
    
    116°
    13'
          25"
        W
  




KCC

BSk



Airport CFIT

Altimeter Temperature Error Correction



Airport LOS

Parallel Runway Operation




Metar
KBOI 071253Z 14003KT 8SM CLR 18/03 A3005 RMK AO2 SLP142 T01830028








Description
Boise Airport, also known as Boise Air Terminal or Gowen Field, is a joint civil-military, commercial and general aviation airport located 3 nm south of downtown Boise in Ada County, Idaho, USA.














Airport map






Aerial View