LFBE








Bergerac-Roumanière Airport





Airport

ICAO code


  LFBE





IATA Code

EGC




Summary

ICAO Region

EUR



ICAO Territory





France






 








Location

, Aquitaine




Serving

Bergerac



Elevation

171 ft



Coordinates



    44°
    49'
          31"
        N
  
      ,
    
    0°
    31'
          7"
        E
  





Metar
LFBE 071400Z AUTO 26011KT 9999 FEW033 BKN086 22/15 Q1009 NOSIG









Runways






Designator
Length
Width
Surface
Rops




10/28          
2205          
45          
ASP          
Yes/Yes          













Airport map






Aerial View








Airport accidents



B738, vicinity Bergerac France, 2015