LFOV








Laval-Entrammes Airport





Airport

ICAO code


  LFOV





IATA Code

LVA




Summary

ICAO Region

EUR



ICAO Territory





France






 








Location

, Pays de la Loire




Serving

Laval



Elevation

330 ft



Coordinates



    48°
    1'
          53"
        N
  
      ,
    
    0°
    44'
          35"
        W
  





Metar
LFOV 071400Z AUTO 12007KT 9999 SCT038/// SCT048/// BKN062/// ///CB 21/14 Q1007









Runways






Designator
Length
Width
Surface
Rops




15/33          
1530          
30          
ASP          
No/No          













Airport map






Aerial View