EETU








Tartu





Airport

ICAO code


  EETU






Summary

ICAO Region

EUR



ICAO Territory





Estonia






 








Location

Reola, Ülenurme Parish,




Coordinates



    58°
    18'
          25"
        N
  
      ,
    
    26°
    41'
          14"
        E
  





Metar
EETU 071220Z AUTO 20008KT 160V240 9999 NCD 24/11 Q1026








Tartu Airport (IATA: TAY, ICAO: EETU) is an airport in Reola, Ülenurme Parish, about 8 km south of Tartu, the second largest city in Estonia. It is also called Ülenurme Airport due to its proximity to the village of Ülenurme.






Runways






Designator
Length
Width
Surface
Rops




8/26          
1379          
35          
ASP          
No/No          













Airport map






Aerial View