UBBQ








Qabala International Airport





Airport

ICAO code


  UBBQ





IATA Code

GBB




Summary

ICAO Region

APAC



ICAO Territory





Azerbaijan






 








Location

Carxana, Shaki-Zaqatala




Serving

Qabala



Elevation

1129 ft



Coordinates



    40°
    49'
          36"
        N
  
      ,
    
    47°
    42'
          45"
        E
  




KCC

Cfa




Metar
UBBQ 071500Z 32003KT 9999 FEW150 24/08 Q1020 NOSIG RMK MT PT OBSC








Qabala International Airport is an airport serving Qabala (also known as Qəbələ or Gabala), the capital of the Gabala district (rayon) in Azerbaijan.
Climatology
Humid subtropical climate (Köppen climate classification Cfa)














Airport map






Aerial View