PAHY








Hydaburg Seaplane Base





Airport

ICAO code


  PAHY





IATA Code

HYG




Summary

ICAO Region

NAM



ICAO Territory





Alaska






 








Location

, Alaska




Serving

Hydaburg



Coordinates



    55°
    12'
          23"
        N
  
      ,
    
    132°
    49'
          42"
        W
  





Metar
PAHY 071256Z AUTO 00000KT 10SM OVC033 13/13 A3005 RMK AO2 SLP172 T01330128 $









Runways






Designator
Length
Width
Surface
Rops




E/W          
1524          
610          
WATER          
No/No          













Airport map






Aerial View