KPGV








Pitt-Greenville Airport





Airport

ICAO code


  KPGV






Summary

ICAO Region

NAM



ICAO Territory





United States






 








Location

Greenville, North Carolina,




Coordinates



    35°
    37'
          59"
        N
  
      ,
    
    77°
    23'
          13"
        W
  




KCC

Cfa




Metar
KPGV 071430Z AUTO 00000KT 10SM -RA SCT005 OVC009 21/21 A2988 RMK AO2








Description
Pitt-Greenville Airport is a public use airport located 3 km north of the central business district of Greenville, a city in Pitt County, North Carolina.
Climatology
Humid “subtropical” climate (Köppen climate classification Cfa) - characterized by hot, humid summers and cool winters. Significant amounts of precipitation occur in all seasons in most areas. Winter rainfall (and sometimes snowfall) is associated with large storms that the westerlies steer from west to east. Most summer rainfall occurs during thunderstorms and occasional tropical storms (hurricanes).






Runways






Designator
Length
Width
Surface
Rops




15/33          
819          
46          
ASP          
Yes/Yes          


8/26          
1523          
46          
ASP          
Yes/Yes          


2/20          
1981          
46          
ASP          
Yes/Yes          













Airport map






Aerial View