ENDU








Bardufoss





Airport

ICAO code


  ENDU






Summary

ICAO Region

EUR



ICAO Territory





Norway






 








Location

Bardufoss,




Elevation

252 ft



Coordinates



    69°
    3'
          21"
        N
  
      ,
    
    18°
    32'
          25"
        E
  




KCC

Dfc



Airport CFIT

Altimeter Temperature Error Correction



Airport GND

Aircraft Ground De/Anti Icing



Airport RE

Landing on Contaminated Runways



Airport WX

Low Level Turbulence




Metar
ENDU 071350Z 30006KT 9999 FEW040 BKN050 15/10 Q1018 RMK WIND 1100FT VRB03KT WIND 2200FT 26007KT








Description
Civil/Military (RNoAF) airport serving the Målselvdalen valley region of northern Norway.
Climatology
Subarctic climate (Köppen climate classification Dfc) - Although not far from the coast, Bardufoss and Målselvdalen is known for a somewhat more continental climate, and hence, colder winters (but with less humidity and little wind) compared to the coastal areas.






Runways






Designator
Length
Width
Surface
Rops




10/28          
2443          
45          
ASP          
Yes/Yes          













Airport map






Aerial View