ESNV








Vilhelmina Airport





Airport

ICAO code


  ESNV





IATA Code

mhm




Summary

ICAO Region

EUR



ICAO Territory





Sweden






 








Location

Sagadal, Vlhelmina




Serving

Vilhelmina



Elevation

1140 ft



Coordinates



    64°
    34'
          43"
        N
  
      ,
    
    16°
    50'
          23"
        E
  




KCC

Dfc



Airport CFIT

Altimeter Temperature Error Correction



Airport RE

Landing on Contaminated Runways



Airport WX

Freezing Rain




Metar
ESNV 071220Z AUTO 27006KT 250V320 9999 FEW041/// 22/14 Q1021








An airport in the village of Sagadal outside Vilhelmina, Sweden. The airport has recently been given an alternative name, South Lapland Airport.
Climatology
Subpolar climate (Köppen climate classification Dfc






Runways






Designator
Length
Width
Surface
Rops




10/28          
1502          
30          
ASP          
No/No          













Airport map






Aerial View








Airport accidents



ATP, Vilhelmina Sweden, 2016