LOWW








Vienna International/Schwechat





Airport

ICAO code


  LOWW





IATA Code

VIE




Summary

ICAO Region

EUR



ICAO Territory





Austria






 








Location

Schwechat, Vienna




Serving

Vienna



Elevation

600 ft



Coordinates



    48°
    6'
          37"
        N
  
      ,
    
    16°
    34'
          11"
        E
  




KCC

Dfb




Metar
LOWW 071220Z 15018KT CAVOK 29/15 Q1015 NOSIG








International airport serving Vienna, capital of Austria.
Climatology
Humid Continental climate (Köppen climate classification Dfb)






Runways






Designator
Length
Width
Surface
Rops




11/29          
3500          
45          
ASP          
Yes/Yes          


16/34          
3600          
45          
ASP          
Yes/Yes          













Airport map






Aerial View








Airport accidents



A310, Vienna Austria, 2000