CYXL








Sioux Lookout Airport





Airport

ICAO code


  CYXL





IATA Code

YXL




Summary

ICAO Region

NAM



ICAO Territory





Canada






 








Location

Sioux Lookout, Ontario




Serving

Sioux Lookout



Elevation

1257 ft



Coordinates



    50°
    6'
          51"
        N
  
      ,
    
    91°
    54'
          20"
        W
  




KCC

Dfb



Airport CFIT

Altimeter Temperature Error Correction




Metar
CYXL 071400Z 21007KT 15SM FEW170 BKN250 10/06 A3028 RMK AC1CI5 AC TR SLP269








Sioux Lookout Airport is a regional airport serving Sioux Lookout, Ontario, Canada. The airport is a "mini-hub" facilitating travel to and from many northern communities in Northwestern Ontario.






Runways






Designator
Length
Width
Surface
Rops




3/21          
671          
15          
GVL          
No/No          


16/34          
1615          
30          
ASP          
No/No          













Airport map






Aerial View