LEVX








Vigo





Airport

ICAO code


  LEVX






Summary

ICAO Region

EUR



ICAO Territory





Spain






 








Location

Vigo, Spain,




Coordinates



    42°
    13'
          54"
        N
  
      ,
    
    8°
    37'
          36"
        W
  




KCC

Cfb




Metar
LEVX 071330Z 34005KT 260V050 9999 SCT030 19/11 Q1013 NOSIG








Description
International airport serving Asturias, northwest Spain.
Climatology
Temperate Marine climate/Oceanic climate (Köppen climate classification Cfb). Moderately cool summer and comparatively warm winter with a temperature range of only 14°C. Prevailing south-westerly winds from the Atlantic Ocean.






Runways






Designator
Length
Width
Surface
Rops




2/20          
2400          
45          
ASP          
Yes/Yes          













Airport map






Aerial View








Airport accidents



CRJ2, Vigo Spain, 2010