CYAT








Attawapiskat Airport





Airport

ICAO code


  CYAT





IATA Code

YAT




Summary

ICAO Region

NAM



ICAO Territory





Canada






 








Location

Attawapiskat, Ontario




Serving

Attawapiskat First Nation



Elevation

30 ft



Coordinates



    52°
    55'
          36"
        N
  
      ,
    
    82°
    25'
          50"
        W
  




KCC

Dfc




Metar
CYAT 071500Z AUTO 35007KT 9SM OVC027 07/02 A3025 RMK SLP245








Description
Regional airport adjacent to the Attawapiskat First Nation, Ontario, Canada.
Climatology
Subarctic climate (Köppen climate classification Dfc) - long, usually very cold winters, and short, cool to mild summers.






Runways






Designator
Length
Width
Surface
Rops




6/24          
1067          
30          
GRVL          
No/No          













Airport map






Aerial View