EINN








Shannon Airport





Airport

ICAO code


  EINN





IATA Code

SNN




Summary

ICAO Region

EUR



ICAO Territory





Ireland






 








Location

Shannon, County Clare




Serving

Shannon



Elevation

46 ft



Coordinates



    52°
    41'
          56"
        N
  
      ,
    
    8°
    55'
          6"
        W
  




KCC

Cfb




Metar
EINN 071230Z 36004KT 320V050 9000 SCT009 BKN011 19/15 Q1011 BECMG BKN016








Description
International airport on the west coast of Ireland. Historically a major refuelling stop and diversion airfield for transatlantic traffic. The airport is located in Shannon, County Clare, Ireland.
Climatology
Temperate Marine climate/Oceanic climate (Köppen climate classification Cfb). Moderately cool summer and comparatively warm winter with a temperature range of only 14°C. Prevailing south-westerly winds from the Atlantic Ocean.






Runways






Designator
Length
Width
Surface
Rops




8/26          
1465          
45          
PEM          
No/No          


18/36          
1713          
45          
PEM          
No/No          


13/31          
1720          
45          
ASP          
Yes/Yes          


4/22          
1970          
60          
PEM          
No/No          


6/24          
3199          
45          
ASP          
Yes/Yes          













Airport map






Aerial View








Airport accidents



B763, Shannon Ireland, 2019
AT72, Shannon Ireland, 2011
AT72, Shannon Ireland, 2014