KLEX








Blue Grass Airport





Airport

ICAO code


  KLEX





IATA Code

LEX




Summary

ICAO Region

NAM



ICAO Territory





United States






 








Location

Lexington, Kentucky




Serving

Lexington



Elevation

979 ft



Coordinates



    38°
    2'
          8"
        N
  
      ,
    
    84°
    36'
          21"
        W
  




KCC

Cfa




Metar
KLEX 071154Z AUTO 35006KT 10SM CLR 12/10 A3009 RMK AO2 SLP186 70020 T01220100 10183 20117 53013








Description
Blue Grass Airport is a public airport located in Fayette County, Kentucky, United States, 6 nm west of the central business district of the City of Lexington. There was a second westerly runway at the time of the CRJ take-off accident in 2006.






Runways






Designator
Length
Width
Surface
Rops




4/22          
2135          
46          
ASP          
Yes/Yes          













Airport map






Aerial View








Airport accidents



CRJ1, Lexington KY USA, 2006