ZUGY








Guiyang Longdongbao International





Airport

ICAO code


  ZUGY





IATA Code

KWE




Summary

ICAO Region

APAC



ICAO Territory





China






 








Location

Guiyang, Guizhou,




Serving

Guiyang



Coordinates



    26°
    32'
          26"
        N
  
      ,
    
    106°
    48'
          1"
        E
  




KCC

Cwa




Metar
ZUGY 071300Z 06002MPS 7000 -SHRA SCT016 FEW026TCU OVC040 22/20 Q1016 RESHRA NOSIG








Description
Guiyang Longdongbao International Airport is an airport in Guiyang, Guizhou, China..
Climatology
Within the Köppen Climate Classification System, ((Koppen climate classification Cwa)) this climate type generally has warm and humid summers with mild winters. Its extent is from 30 to 50° of latitude mainly on the eastern and western borders of most continents. During the winter, the main weather feature is the mid-latitude cyclone. Convective thunderstorms provide precipitation in the summer months.














Airport map






Aerial View