SESA








General Ulpiano Paez Airport





Airport

ICAO code


  SESA





IATA Code

SNC




Summary

ICAO Region

CARSAM



ICAO Territory





Ecuador






 








Location

, Guayas




Serving

Salinas



Elevation

18 ft



Coordinates



    2°
    12'
          18"
        S
  
      ,
    
    80°
    59'
          20"
        W
  





Metar
SESA 071300Z 18006KT 9999 SCT010 SCT015 21/19 Q1012 RMK A2991









Runways






Designator
Length
Width
Surface
Rops




8/26          
1110          
40          
ASP          
No/No          


13/31          
2437          
30          
ASP          
No/No          













Airport map






Aerial View