KNUW








Naval Air Station Whidbey Island





Airport

ICAO code


  KNUW






Summary

ICAO Region

NAM



ICAO Territory





United States






 








Location

Oak Harbour, Washington,




Coordinates



    48°
    20'
          43"
        N
  
      ,
    
    122°
    40'
          11"
        W
  




KCC

Cfb



Airport BS

Bird Strike




Metar
KNUW 071353Z 00000KT 10SM FEW210 13/12 A2994 RMK AO2 SLP142 T01330117 $








Description
Naval Air Station Whidbey Island or NAS Whidbey Island, also referred to as Ault Field, is a naval air station located near Oak Harbor, on Whidbey Island, in Island County, Washington.
Climatology
Temperate Marine climate/Oceanic climate (Köppen climate classification Cfb). Moderately cool summer and comparatively warm winter.






Runways






Designator
Length
Width
Surface
Rops




7/25          
2438          
61          
CON          
Yes/Yes          


14/32          
2439          
61          
CONC          
Yes/Yes          













Airport map






Aerial View