LGMT








Mytilini





Airport

ICAO code


  LGMT





IATA Code

MJT




Summary

ICAO Region

EUR



ICAO Territory





Greece






 








Location

Mytilene, Lesbos




Serving

Lesbos



Elevation

60 ft



Coordinates



    39°
    3'
          24"
        N
  
      ,
    
    26°
    35'
          54"
        E
  




KCC

Csa




Metar
LGMT 071350Z 33011KT 270V360 CAVOK 33/15 Q1012








Description
International airport serving Lesbos, Greece.
Climatology
Mediterranean climate (Köppen climate classification Csa) - Hot, dry summer and a mild wet winter.






Runways






Designator
Length
Width
Surface
Rops




14/32          
2406          
45          
ASP          
Yes/Yes          













Airport map






Aerial View