VOMM








Chennai International Airport





Airport

ICAO code


  VOMM






Summary

ICAO Region

APAC



ICAO Territory





India






 








Location

Chennai, Tamil Nadu,




Coordinates



    12°
    58'
          54"
        N
  
      ,
    
    80°
    9'
          43"
        E
  




KCC

Aw




Metar
VOMM 071330Z 19004KT 5000 HZ SCT020 FEW025TCU BKN080 32/25 Q1006 NOSIG








Description
Chennai International Airport is an international airport located 15 km southwest of Chennai, the capital city of the Indian state of Tamil Nadu.
Climatology
Tropical Savanna climate (Köppen climate classification Aw) - monthly mean temperatures above 18°C, and a pronounced dry season. A Tropical Savanna climate has more pronounced dry seasons than a Tropical Monsoon climate.














Airport map






Aerial View