UDYZ








Yerevan/Zvartnots International Airport





Airport

ICAO code


  UDYZ





IATA Code

EVN




Summary

ICAO Region

APAC



ICAO Territory





Armenia






 








Location

Zvartnots,




Serving

Yerevan



Elevation

2838 ft



Coordinates



    40°
    8'
          50"
        N
  
      ,
    
    44°
    23'
          45"
        E
  




KCC

BSk




Metar
UDYZ 071100Z 20004KT 150V230 9999 FEW043TCU 28/05 Q1017 NOSIG








Description
Zvartnots International airport is located near Zvartnots, 10 km west of Yerevan, the capital city of Armenia.
Climatology
Cold Semi-arid climate (Köppen climate classification BSk). - Hot, sometimes extremely hot summers and cold, sometimes very cold winters. Some snowfall during the winter. Areas featuring cold semi-arid climates are sometimes subject to major temperature swings during a 24 hour period.






Runways






Designator
Length
Width
Surface
Rops




9/27          
3849          
56          
ASP          
Yes/Yes          













Airport map






Aerial View








Airport accidents



B738, Yerevan Armenia, 2021
IL76, Yerevan Armenia, 2019
A306, Yerevan Armenia, 2015