KCOF








Patrick Air Force Base





Airport

ICAO code


  KCOF






Summary

ICAO Region

NAM



ICAO Territory





United States






 








Location

Cocoa Beach, Florida,




Elevation

8 ft



Coordinates



    28°
    14'
          6"
        N
  
      ,
    
    80°
    36'
          14"
        W
  




KCC

Cfa




Metar
KCOF 071355Z AUTO 21008KT 10SM CLR 30/25 A2985 RMK AO2 SLP113 T03040245 $








Description
Patrick Air Force Base is a United States Air Force installation located between Satellite Beach and Cocoa Beach, in Brevard County, Florida.
Climatology
Humid “subtropical” climate (Köppen climate classification Cfa) - characterized by hot, humid summers and cool winters. Significant amounts of precipitation occur in all seasons in most areas.














Airport map






Aerial View