RKTN








Daegu





Airport

ICAO code


  RKTN






Summary

ICAO Region

APAC



ICAO Territory





South Korea






 








Location

Daegu,




Coordinates



    35°
    53'
          49"
        N
  
      ,
    
    128°
    39'
          19"
        E
  




KCC

Cwa




Metar
RKTN 071100Z 35002KT 4800 BR FEW010 SCT015 BKN025 27/25 Q1014








Description
Daegu Airport is primarily a domestic airport in the city of Daegu, South Korea.
Climatology
Humid Sub-tropical climate (Köppen climate classification Cwa) - Hot humid summers and cooler winter. Significant precipitation in all seasons but drier in the winter.






Runways






Designator
Length
Width
Surface
Rops




13L/31R          
2743          
46          
CON          
Yes/Yes          


13R/31L          
2755          
46          
CON          
Yes/Yes          













Airport map






Aerial View








Airport accidents



A321, Daegu South Korea, 2006