FAPE








Verwoerd International Airport





Airport

ICAO code


  FAPE





IATA Code

PLZ




Summary

ICAO Region

AFI



ICAO Territory





South Africa






 








Location

, Eastern Cape




Serving

Port Elizabeth



Elevation

226 ft



Coordinates



    33°
    59'
          6"
        S
  
      ,
    
    25°
    37'
          2"
        E
  





Metar
FAPE 071200Z 21012KT 180V240 9999 SCT035 18/10 Q1020 NOSIG









Runways






Designator
Length
Width
Surface
Rops




10/28          
1178          
18          
GRS          
No/No          


17/35          
1677          
46          
ASP          
Yes/Yes          


8/26          
1980          
46          
ASP          
Yes/Yes          













Airport map






Aerial View








Airport accidents



A320 / CRJ2, Port Elizabeth South Africa, 2014
CRJ2 / A320, vicinity Port Elizabeth South Africa, 2014