KPBG








Plattsburgh International Airport





Airport

ICAO code


  KPBG






Summary

ICAO Region

NAM



ICAO Territory





United States






 








Location

Plattsburgh, New York,




Coordinates



    44°
    40'
          9"
        N
  
      ,
    
    73°
    28'
          20"
        W
  




KCC

Dfb



Airport WX

Cumulonimbus




Metar
KPBG 071353Z AUTO 15019G27KT 10SM CLR 21/15 A2978 RMK AO2 PK WND 15027/1353 SLP082 T02110150 $








Description
Plattsburgh International Airport is a public use airport located 6 km south of the central business district of Plattsburgh, a city in Clinton County, New York.
Climatology
Humid Continental climate (Köppen climate classification Dfb) - Variable weather patterns and a large seasonal temperature variance. Summers are often warm and humid with frequent thunderstorms and winters can be very cold with frequent snowfall and persistent snow cover.






Runways






Designator
Length
Width
Surface
Rops




17/35          
3584          
61          
CON          
No/No          













Airport map






Aerial View