KFMN








Four Corners Regional Airport





Airport

ICAO code


  KFMN





IATA Code

FMN




Summary

ICAO Region

NAM



ICAO Territory





United States






 








Location

Farmington, New Mexico




Serving

Farmington



Elevation

5506 ft



Coordinates



    36°
    44'
          28"
        N
  
      ,
    
    108°
    13'
          47"
        W
  




KCC

BSk



Airport RE

Hot and High Operations




Metar
KFMN 071353Z 08010KT 10SM CLR 17/06 A3036 RMK AO2 SLP225 T01670056 $








Four Corners Regional Airport is a public airport located 1 nm northwest of the central business district of Farmington, a city in San Juan County, New Mexico, USA.














Airport map






Aerial View