LTCE








Erzurum Airport





Airport

ICAO code


  LTCE





IATA Code

ERZ




Summary

ICAO Region

EUR



ICAO Territory





Turkey






 








Location

Erzurum,




Serving

Erzurum



Elevation

5764 ft



Coordinates



    39°
    57'
          23"
        N
  
      ,
    
    41°
    10'
          8"
        E
  





Metar
LTCE 071220Z 12007KT 070V150 9999 -TSRA FEW025CB BKN035 20/09 Q1019 NOSIG








Erzurum Airport is a military and public airport serving the city of Erzurum in eastern Turkey.






Runways






Designator
Length
Width
Surface
Rops




5/23          
930          
15          
ASP          
No/No          


08L/26R          
3810          
45          
CON          
Yes/Yes          


08R/26L          
3810          
30          
CON          
Yes/Yes          













Airport map






Aerial View