SPZA








Maria Reiche Neuman Airport





Airport

ICAO code


  SPZA





IATA Code

NZA




Summary

ICAO Region

CARSAM



ICAO Territory





Peru






 








Location

Nazca, Ica




Serving

Nazca



Elevation

1860 ft



Coordinates



    14°
    51'
          15"
        S
  
      ,
    
    74°
    57'
          43"
        W
  




KCC

BWh




Metar
SPZA 061900Z 27006KT 230V320 9000 NSC 28/08 Q1011 RMK PP000








Small airport serving Nazca, in the Ica Region of Peru.
Climatology
Warm Desert climate (Köppen climate classification BWh).






Runways






Designator
Length
Width
Surface
Rops




7/25          
1023          
20          
ASP          
No/No          













Airport map






Aerial View