PAVA








Chevak Airport





Airport

ICAO code


  PAVA





IATA Code

VAK




Summary

ICAO Region

NAM



ICAO Territory





Alaska






 








Location

, Alaska




Serving

Chevak



Elevation

75 ft



Coordinates



    61°
    32'
          2"
        N
  
      ,
    
    165°
    35'
          2"
        W
  





Metar
PAVA 071256Z AUTO 16007KT 10SM BKN008 05/05 A2992 RMK AO2 SLP135 T00500050 PNO $









Runways






Designator
Length
Width
Surface
Rops




18W/36W          
610          
122          
WATER-E          
No/No          


2/20          
975          
23          
GRVL-G          
No/No          













Airport map






Aerial View