KAIA








Alliance Municipal Airport





Airport

ICAO code


  KAIA





IATA Code

AIA




Summary

ICAO Region

NAM



ICAO Territory





United States






 








Location

Alliance, Nebraska




Serving

Alliance



Elevation

3931 ft



Coordinates



    42°
    3'
          6"
        N
  
      ,
    
    102°
    48'
          24"
        W
  




KCC

BSk



Airport CFIT

Altimeter Temperature Error Correction



Airport RE

Hot and High Operations




Metar
KAIA 071353Z AUTO 15014KT 10SM FEW110 11/08 A3025 RMK AO2 SLP217 T01110083








Description
Alliance Municipal Airport is a public use airport located 3 nm southeast of the central business district of Alliance, a city in Box Butte County, Nebraska.














Airport map






Aerial View