EGNM








Leeds Bradford





Airport

ICAO code


  EGNM






Summary

ICAO Region

EUR



ICAO Territory





United Kingdom






 








Location

Yeadon, West Yorkshire, England,




Serving

Leeds and Bradford



Coordinates



    53°
    51'
          58"
        N
  
      ,
    
    1°
    39'
          28"
        W
  




KCC

Cfb



Airport CFIT

Runway Visual Perspective




Metar
EGNM 071220Z 03009KT 010V100 1600 -DZ HZ SCT003 BKN005 16/15 Q1012








Description
Domestic and international airport serving the cities of Leeds and Bradford and the rest of West Yorkshire.
Climatology
Temperate Marine climate/Oceanic climate (Köppen climate classification Cfb). Moderately cool summer and comparatively warm winter with a temperature range of only 14°C. Prevailing south-westerly winds from the Atlantic Ocean.






Runways






Designator
Length
Width
Surface
Rops




14/32          
2250          
46          
CON          
Yes/Yes          













Airport map






Aerial View