LFSN








Nancy-Essey Airport





Airport

ICAO code


  LFSN





IATA Code

ENC




Summary

ICAO Region

EUR



ICAO Territory





France






 








Location

, Lorraine




Serving

Nancy



Elevation

751 ft



Coordinates



    48°
    41'
          31"
        N
  
      ,
    
    6°
    13'
          50"
        E
  





Metar
LFSN 071400Z AUTO 08006KT 040V120 9999 FEW001 OVC110 28/18 Q1009









Runways






Designator
Length
Width
Surface
Rops




3/21          
1400          
40          
ASP          
Yes/Yes          













Airport map






Aerial View