GCGM








La Gomera Airport





Airport

ICAO code


  GCGM





IATA Code

GMZ




Summary

ICAO Region

EUR



ICAO Territory





Canary Islands






 








Location

Playa Santiago, La Gomera, Canary Islands




Serving

San Sebastián de la Gomera



Elevation

716 ft



Coordinates



    28°
    1'
          50"
        N
  
      ,
    
    17°
    12'
          45"
        W
  




KCC

Csa




Metar
GCGM 071300Z 24009KT 9999 SCT036 25/18 Q1014 RMK R09/23006KT 140V280 ARP/24007KT 170V280








La Gomera Airport is the only airport on the small island of La Gomera in the Canary Islands which is situated to the west of Tenerife.
Climatology
Dry-summer subtropical ”Mediterranean" climate (Köppen climate classification Csa) - characterized by hot, dry summers and mild winters. During the summer, subtropical high pressure cells dominate, making rainfall unlikely except for the occasional thunderstorm. In the winter, periodic storms bring rain (snow at higher elevations).






Runways






Designator
Length
Width
Surface
Rops




9/27          
1500          
30          
ASP          
No/No          













Airport map






Aerial View