ETHF








Fritzlar Air Base





Airport

ICAO code


  ETHF






Summary

ICAO Region

EUR



ICAO Territory





Germany






 








Location

Fritzlar, Hesse,




Coordinates



    51°
    6'
          51"
        N
  
      ,
    
    9°
    17'
          12"
        E
  





Metar
ETHF 071420Z AUTO 09005KT 9999 // ////// 29/16 Q1011 ///








Description
Fritzlar Air Base is a military air field of the German Army Aviation Corps. It is located near the town of Fritzlar in northern Hesse, Germany.






Runways






Designator
Length
Width
Surface
Rops




12/30          
1040          
30          
ASP          
No/No          













Airport map






Aerial View