KNQI








Naval Air Station Kingsville





Airport

ICAO code


  KNQI






Summary

ICAO Region

NAM



ICAO Territory





United States






 








Location

Kingsville, Texas,




Coordinates



    27°
    30'
          26"
        N
  
      ,
    
    97°
    48'
          35"
        W
  




KCC

Cfa



Airport LOS

Parallel Runway Operation




Metar
KNQI 071356Z AUTO 01010G18KT 10SM CLR 26/20 A2994 RMK AO2 SLP137 T02560200 $








Description
Naval Air Station Kingsville or NAS Kingsville,is a military airport located 5 km east of Kingsville, Texas.
Climatology
Humid “subtropical” climate (Köppen climate classification Cfa) - characterized by hot, humid summers and mild winters. Most rainfall occurs during summer and is often associated with thunderstorms and occasional tropical storms (hurricanes).






Runways






Designator
Length
Width
Surface
Rops




13L/31R          
2438          
61          
PEM          
No/No          


13R/31L          
2438          
61          
PEM          
No/No          


17L/35R          
2438          
61          
PEM          
No/No          


17R/35L          
2438          
61          
PEM          
No/No          













Airport map






Aerial View