RJSM








Misawa Airport





Airport

ICAO code


  RJSM





IATA Code

MSJ




Summary

ICAO Region

APAC



ICAO Territory





Japan






 








Location

Misawa, Aomori Prefecture




Serving

Misawa



Elevation

119 ft



Coordinates



    40°
    42'
          15"
        N
  
      ,
    
    141°
    22'
          10"
        E
  




KCC

Cfa




Metar
RJSM 071300Z 22003KT 9999 FEW008 SCT120 21/18 Q1014








Misawa Airport is an airport in Misawa, a city in the Aomori Prefecture of Japan. It shares facilities and airport codes with the Misawa Air Base.
Climatology
Humid Sub-tropical climate (Köppen climate classification Cfa)






Runways






Designator
Length
Width
Surface
Rops




10/28          
3048          
46          
ASP          
Yes/Yes          













Airport map






Aerial View