LIMZ








Cuneo Levaldigi Airport





Airport

ICAO code


  LIMZ





IATA Code

CUF




Summary

ICAO Region

EUR



ICAO Territory





Italy






 








Location

Levaldigi, Piedmont




Serving

Cuneo



Elevation

1267 ft



Coordinates



    44°
    32'
          51"
        N
  
      ,
    
    7°
    37'
          24"
        E
  




KCC

Csb




Metar
LIMZ 071350Z AUTO VRB02KT 9999 BKN070/// 25/13 Q1017








Cuneo International Airport, also named Cuneo Levaldigi Airport or Turin Cuneo Airport by some low-cost airlines, is an airport serving Cuneo and Turin, Piedmont, Italy.
Climatology
Temperate mediterranean climate (Köppen climate classification Csb)






Runways






Designator
Length
Width
Surface
Rops




3/21          
2104          
45          
ASP          
Yes/Yes          













Airport map






Aerial View