HKEL








Eldoret International Airport





Airport

ICAO code


  HKEL





IATA Code

EDL




Summary

ICAO Region

AFI



ICAO Territory





Kenya






 








Location

Eldoret, Uasin County




Serving

Eldoret



Elevation

7050 ft



Coordinates



    0°
    24'
          16"
        N
  
      ,
    
    35°
    14'
          20"
        E
  




KCC

Aw




Metar
HKEL 071300Z VRB04KT 9999 FEW020 FEW021CB BKN022 20/13 Q1025








Eldoret Airport, is located in the city of Eldoret, in Uasin Gishu County, in the midwestern Kenya, close to the International border with Uganda.
Climatology
Tropical Savannah climate (Köppen climate classification Aw)






Runways






Designator
Length
Width
Surface
Rops




8/26          
3499          
45          
ASP          
Yes/Yes          













Airport map






Aerial View