WMKC








Kota Bharu/Sultan Ismail Petra Airport





Airport

ICAO code


  WMKC





IATA Code

KBR




Summary

ICAO Region

APAC



ICAO Territory





Malaysia






 








Location

Pengkalan Chepa, Kelantan




Serving

Kota Bharu



Elevation

16 ft



Coordinates



    6°
    10'
          5"
        N
  
      ,
    
    102°
    17'
          37"
        E
  




KCC

Af




Metar
WMKC 071200Z 26003KT 200V300 8000 -TSRA FEW010 FEW017CB SCT020 23/22 Q1010








Sultan Ismail Petra Airport is an airport that serves Kota Bharu, a city in the state of Kelantan in Malaysia.
 














Airport map






Aerial View