OIBA








Abu Musa Airport





Airport

ICAO code


  OIBA





IATA Code

AEU




Summary

ICAO Region

APAC



ICAO Territory





Iran






 








Location

Abu Musa Island, Hormozgan




Serving

Abu Musa



Elevation

23 ft



Coordinates



    25°
    52'
          33"
        N
  
      ,
    
    55°
    1'
          58"
        E
  




KCC

BWh




Metar
OIBA 071400Z 01006KT 6000 NSC 35/25 Q1000








Abu Musa Airport or Abumusa Airport is an airport serving Abu Musa Island, in the Hormozgan Province in Iran.
Climatology
Hot desert climate (Köppen climate classification BWh).






Runways






Designator
Length
Width
Surface
Rops




8/26          
2986          
45          
ASP          
No/No          













Airport map






Aerial View