SCVM








Viña del mar Airport





Airport

ICAO code


  SCVM





IATA Code

KNA




Summary

ICAO Region

CARSAM



ICAO Territory





Chile






 








Location

Vina del Mar, Valparaiso




Serving

Vina del Mar



Elevation

461 ft



Coordinates



    32°
    56'
          59"
        S
  
      ,
    
    71°
    28'
          43"
        W
  




KCC

Csb




Metar
SCVM 071300Z 17008KT 120V200 9999 OVC013 10/07 Q1021








Airport serving Vina del Mar, Valparaiso, Chile.
Climatology
Mediterranean climate (Köppen climate classification Csb)






Runways






Designator
Length
Width
Surface
Rops




5/23          
1756          
30          
ASP          
No/No          













Airport map






Aerial View