ESNZ








Åre-Östersund





Airport

ICAO code


  ESNZ






Summary

ICAO Region

EUR



ICAO Territory





Sweden






 








Location

Frösön,




Elevation

1233 ft



Coordinates



    63°
    11'
          40"
        N
  
      ,
    
    14°
    30'
          1"
        E
  




KCC

Dfc




Metar
ESNZ 071520Z AUTO 25004KT 9999 NCD 21/14 Q1020








Description
Åre Östersund Airport (IATA: OSD), previously known as Östersund-Frösön Airport is located about 11 km west of Östersund, Sweden and 94 km east of Åre, Sweden.
Climatology
Subarctic climate (Köppen climate classification Dfc) - long, usually very cold winters, and short, cool to mild summers.






Runways






Designator
Length
Width
Surface
Rops




12L/30R          
1230          
16          
ASP          
No/No          


12/30          
2500          
45          
ASP          
Yes/Yes          













Airport map






Aerial View








Airport accidents



MD83, Are/Ostersund Sweden, 2007