OIKB








Bandar Abbas International Airport





Airport

ICAO code


  OIKB





IATA Code

BND




Summary

ICAO Region

MID



ICAO Territory





Iran






 








Location

Bandar Abbas, Homozgan




Serving

Bandar Abbas



Elevation

22 ft



Coordinates



    27°
    12'
          34"
        N
  
      ,
    
    56°
    22'
          8"
        E
  




KCC

BWh




Metar
OIKB 071400Z 18006KT 6000 NSC 34/27 Q1001 A2956








International airport on eastern side of the city of Bandar Abbas, Iran.
Climatology
Warm desert climate (Köppen climate classification BWh).






Runways






Designator
Length
Width
Surface
Rops




03L/21R          
3457          
30          
ASP          
Yes/Yes          


03R/21L          
3660          
45          
ASP          
Yes/Yes          













Airport map






Aerial View