VTCC








Chiang Mai International Airport





Airport

ICAO code


  VTCC






Summary

ICAO Region

APAC



ICAO Territory





Thailand






 








Location

Chiang Mai, Thailand,




Coordinates



    18°
    46'
          0"
        N
  
      ,
    
    98°
    57'
          45"
        E
  




KCC

Aw




Metar
VTCC 071230Z 23006KT 210V290 9999 VCSH FEW025CB SCT035 31/23 Q1004 NOSIG








Description
International airport serving the city of Chiang Mai in northern Thailand.
Climatology
Tropical Savanna climate (Köppen climate classification Aw) - monthly mean temperature above 18°C in every month of the year and a pronounced dry season.














Airport map






Aerial View