CYXE








Saskatoon John G. Diefenbaker International Airport





Airport

ICAO code


  CYXE






Summary

ICAO Region

NAM



ICAO Territory





Canada






 








Location

Saskatoon, Saskatchewan,




Coordinates



    52°
    10'
          15"
        N
  
      ,
    
    106°
    41'
          59"
        W
  




KCC

Dfb



Airport CFIT

Altimeter Temperature Error Correction



Airport GND

Aircraft Ground De/Anti Icing




Metar
CYXE 071400Z 21008KT 15SM BKN300 15/07 A2998 RMK CI6 SLP160 DENSITY ALT 2000FT








Description
International airport serving Saskatoon, Saskatchewan.
Climatology
Humid Continental climate (Köppen climate classification Dfb) - Variable weather patterns and a large seasonal temperature variance. Summers are often warm and humid with frequent thunderstorms and winters can be very cold with frequent snowfall and persistent snow cover.






Runways






Designator
Length
Width
Surface
Rops




15/33          
1890          
46          
ASP          
Yes/Yes          


9/27          
2530          
61          
ASP          
Yes/Yes          













Airport map






Aerial View