PGUM








Guam





Airport

ICAO code


  PGUM






Summary

ICAO Region

APAC



ICAO Territory





Northern Mariana Islands






 








Location

Barrigada and Tamuning,




Coordinates



    13°
    29'
          0"
        N
  
      ,
    
    144°
    47'
          46"
        E
  




KCC

Aw




Metar
PGUM 071254Z 07007KT 10SM CLR 28/26 A2993 RMK AO2 SLP124 T02830256 $








Description
International airport serving Guam.
Climatology
Tropical Savanna climate (Köppen climate classification Aw) - monthly mean temperature above 18°C in every month of the year and a pronounced dry season (December to June).
Guam is affected by Tropical Revolving Storms during the wet season from July to November.






Runways






Designator
Length
Width
Surface
Rops




06R/24L          
2439          
46          
ASP          
Yes/Yes          


06L/24R          
3053          
46          
PEM          
Yes/Yes          













Airport map






Aerial View








Airport accidents



A333, vicinity Wom Guam Airport, Guam, 2002
B743, vicinity Won Guam Airport, Guam, 1997