KMKT








Mankato Regional Airport





Airport

ICAO code


  KMKT





IATA Code

MKT




Summary

ICAO Region

NAM



ICAO Territory





United States






 








Location

Mankato, Minnesota




Serving

Mankato



Elevation

1020 ft



Coordinates



    44°
    13'
          13"
        N
  
      ,
    
    93°
    55'
          4"
        W
  




KCC

Dfa




Metar
KMKT 071356Z AUTO 14010KT 10SM CLR 11/07 A3034 RMK AO2 SLP279 T01110072








Mankato Regional Airport is a public airport located 5 nm northeast of the central business district of Mankato, a city in Blue Earth County, Minnesota, USA.






Runways






Designator
Length
Width
Surface
Rops




4/22          
1219          
23          
ASP          
Yes/Yes          


15/33          
1646          
30          
ASP          
Yes/Yes          













Airport map






Aerial View