LGMK








Mykonos Island National Airport





Airport

ICAO code


  LGMK





IATA Code

JMK




Summary

ICAO Region

EUR



ICAO Territory





Greece






 








Location

Mykonos, Cyclades




Serving

Mykonos



Elevation

405 ft



Coordinates



    37°
    26'
          6"
        N
  
      ,
    
    25°
    20'
          50"
        E
  




KCC

Csa




Metar
LGMK 071350Z 36015KT CAVOK 29/18 Q1013








Mykonos Airport is the international airport of the Greek island of Mykonos.
Climatology
Warm mediterranean climate (Köppen climate classification Csa)






Runways






Designator
Length
Width
Surface
Rops




16/34          
1903          
30          
ASP          
Yes/Yes          













Airport map






Aerial View








Airport accidents



H25B, Mykonos Greece, 2017