ZSAM








Xiamen Gaoqi International Airport





Airport

ICAO code


  ZSAM





IATA Code

XMN




Summary

ICAO Region

APAC



ICAO Territory





China






 








Location

Huli, Fujian




Serving

Xiamen



Elevation

59 ft



Coordinates



    24°
    32'
          21"
        N
  
      ,
    
    118°
    8'
          4"
        E
  




KCC

Cfa




Metar
ZSAM 071300Z 08003MPS 060V140 CAVOK 29/26 Q1012 NOSIG








Description
Xiamen Gaoqi International Airport is the airport serving the city of Xiamen in Fujian Province, China. The airport is located on the north side of Xiamen Island.
Climatology
Humid subtropical climate (Köppen climate classification Cfa.) Hot muggy summers with frequent thunderstorms. Winters are mild and precipitation during this season comes from mid-latitude cyclones. This climate type is quite common on the east coasts of continents.














Airport map






Aerial View