KJAC








Jackson Hole Airport





Airport

ICAO code


  KJAC





IATA Code

JAC




Summary

ICAO Region

NAM



ICAO Territory





United States






 








Location

Jackson Hole, Wyoming




Serving

Jackson



Elevation

6451 ft



Coordinates



    43°
    36'
          29"
        N
  
      ,
    
    110°
    44'
          18"
        W
  




KCC

Dfb




Metar
KJAC 071256Z VRB05KT 10SM CLR 02/M01 A3038 RMK AO2 SLP249 T00221006








Public airport located 7 nm north of the central business district of Jackson, a town in Teton County, Wyoming, USA.














Airport map






Aerial View








Airport accidents



B752, Jackson Hole WY USA, 2010