LGKF








Kefalonia International Airport





Airport

ICAO code


  LGKF





IATA Code

EFL




Summary

ICAO Region

EUR



ICAO Territory





Greece






 








Location

Svoronata, Kefalonia




Serving

Kefalonia



Elevation

59 ft



Coordinates



    38°
    7'
          16"
        N
  
      ,
    
    20°
    30'
          20"
        E
  




KCC

Csa




Metar
LGKF 071350Z 27013KT 9999 FEW018 31/25 Q1014








Kefalonia Airport "Anna Pollatou" is an airport on the island of Kefalonia, in Greece.
Climatology
Warm mediterranean climate (Köppen climate classification Csa)






Runways






Designator
Length
Width
Surface
Rops




14/32          
2436          
45          
ASP          
Yes/Yes          













Airport map






Aerial View