LIMG








Riviera Airport





Airport

ICAO code


  LIMG





IATA Code

ALL




Summary

ICAO Region

EUR



ICAO Territory





Italy






 








Location

Villanova d&#039;Albenga, Liguria




Serving

Albenga



Elevation

149 ft



Coordinates



    44°
    3'
          2"
        N
  
      ,
    
    8°
    7'
          40"
        E
  




KCC

Csa




Metar
LIMG 071350Z 08010KT 9999 BKN050 27/16 Q1015








Riviera Airport, formerly known as Albenga Airport, is in northwest Italy, in the region of Liguria. It is on the Italian Riviera between Savona and Imperia, approximately 5 nm west of the town of Albenga, in the community of Villanova d’Albenga.
Climatology
Warm mediterranean climate (Köppen climate classification Csa)






Runways






Designator
Length
Width
Surface
Rops




9/27          
1429          
45          
ASP          
No/No          













Airport map






Aerial View