LYKV








Kraljevo/Morava





Airport

ICAO code


  LYKV





IATA Code

KVO




Summary

ICAO Region

EUR



ICAO Territory





Serbia






 








Location

Ladevci, Kraljevo




Serving

Kraljevo



Elevation

686 ft



Coordinates



    43°
    49'
          5"
        N
  
      ,
    
    20°
    35'
          10"
        E
  




KCC

Dfa




Metar
LYKV 071330Z 06004KT 360V100 9999 FEW050 31/14 Q1015 NOSIG








Description
Kraljevo-Lađevci Airport also known as Obrva is an airport in the Kraljevo Municipality, Serbia. The airport is located some 15 km from Kraljevo.
Climatology
Humid continental climate (Köppen climate classification Dfa) - characterized by four seasons: cold, windy, snowy winters, mild springs, hot, humid summers, and crisp and relatively short autumns. Precipitation reaches its lowest in January and February and peaks in summer and latter half of spring.














Airport map






Aerial View