WBKW








Tawau Airport





Airport

ICAO code


  WBKW





IATA Code

TWU




Summary

ICAO Region

APAC



ICAO Territory





Malaysia






 








Location

Tawau, Sabah




Serving

Tawau



Elevation

57 ft



Coordinates



    4°
    18'
          48"
        N
  
      ,
    
    118°
    7'
          19"
        E
  




KCC

Af




Metar
WBKW 071200Z 00000KT 9999 FEW016 27/26 Q1012








Airport located 17 nm northeast of Tawau, Sabah, Malaysia.














Airport map






Aerial View