SCFM








Capitan Fuentes Martinez Airport





Airport

ICAO code


  SCFM





IATA Code

WPR




Summary

ICAO Region

CARSAM



ICAO Territory





Chile






 








Location

Porvenir, Magallanes y de la Antartica Chilena




Serving

Porvenir



Elevation

86 ft



Coordinates



    53°
    15'
          13"
        S
  
      ,
    
    70°
    19'
          9"
        W
  




KCC

Cfc




Metar
SCFM 061900Z 29014KT 9999 FEW020 07/02 Q0985








Airport located near Porvenir, Magallanes y Antártica Chilena, Chile.
Climatology
Cool oceanic climate (Köppen climate classification Cfc)






Runways






Designator
Length
Width
Surface
Rops




3/21          
797          
30          
GVL          
No/No          


9/27          
2500          
30          
ASP          
No/No          













Airport map






Aerial View