EIKY








Kerry Airport





Airport

ICAO code


  EIKY






Summary

ICAO Region

EUR



ICAO Territory





Ireland






 








Location

Farranfore, Killarney,




Elevation

112 ft



Coordinates



    52°
    10'
          51"
        N
  
      ,
    
    9°
    31'
          26"
        W
  




KCC

Cfb



Airport WX

Fog




Metar
EIKY 071230Z VRB02KT 9999 BKN014 19/16 Q1011








Description
Small airport 7 nm north of Killarney, Ireland.
Climatology
Temperate Marine climate/Oceanic climate (Köppen climate classification Cfb). Moderately cool summer and comparatively warm winter with a temperature range of only 14°C. Prevailing south-westerly winds from the Atlantic Ocean.






Runways






Designator
Length
Width
Surface
Rops




7/25          
1230          
30          
ASP          
No/No          


8/26          
2000          
45          
ASP          
Yes/Yes          













Airport map






Aerial View








Airport accidents



H25B, vicinity Kerry Ireland, 2015
GLF4, vicinity Kerry Ireland, 2009