KCYS








Cheyenne Regional Airport





Airport

ICAO code


  KCYS





IATA Code

CYS




Summary

ICAO Region

NAM



ICAO Territory





United States






 








Location

Cheyenne, Wyoming




Serving

Cheyenne



Elevation

6159 ft



Coordinates



    41°
    9'
          21"
        N
  
      ,
    
    104°
    48'
          36"
        W
  




KCC

BSk



Airport CFIT

Altimeter Temperature Error Correction



Airport RE

Hot and High Operations




Metar
KCYS 071353Z 28007KT 10SM CLR 13/05 A3032 RMK AO2 SLP197 T01330050








Description
Cheyenne Regional Airport, also known as Jerry Olson Field, is a joint use civil-military (ANG) airport located 1 nm north of the central business district of Cheyenne, in Laramie County, Wyoming, USA.














Airport map






Aerial View