SKBQ








Ernesto Cortissoz International Airport





Airport

ICAO code


  SKBQ





IATA Code

BAQ




Summary

ICAO Region

CARSAM



ICAO Territory





Colombia






 








Location

Soledad, Atlantico Department




Serving

Barranquilla



Elevation

98 ft



Coordinates



    10°
    53'
          12"
        N
  
      ,
    
    74°
    46'
          35"
        W
  




KCC

Aw




Metar
SKBQ 071200Z 22004KT 8000 VCFG SCT012 26/25 Q1008 NOSIG








Ernesto Cortissoz International Airport is an airport serving the area of Barranquilla, the capital city of the Atlántico department in Colombia.
Climatology
Tropical Savanna climate (Köppen climate classification Aw)






Runways






Designator
Length
Width
Surface
Rops




5/23          
3000          
45          
CON          
Yes/Yes          













Airport map






Aerial View