OIAA








Abadan-Ayatollah Jami International Airport





Airport

ICAO code


  OIAA





IATA Code

ABD




Summary

ICAO Region

MID



ICAO Territory





Iran






 








Location

Abadan, Khuzestan




Serving

Abadan



Elevation

7 ft



Coordinates



    30°
    21'
          51"
        N
  
      ,
    
    48°
    13'
          37"
        E
  




KCC

BWh




Metar
OIAA 071400Z 30016KT CAVOK 43/12 Q1002








Abadan International Airport is situated 12 km away from the city of Abadan, Iran.
Climatology
Warm desert climate (Köppen climate classification BWh).






Runways






Designator
Length
Width
Surface
Rops




14L/32R          
2267          
35          
ASP          
No/No          


14R/32L          
3100          
45          
ASP          
No/No          













Airport map






Aerial View