RJFR








Kitakyushu Airport





Airport

ICAO code


  RJFR





IATA Code

KKJ




Summary

ICAO Region

APAC



ICAO Territory





Japan






 








Location

Kokuraminamiku, Fukuoka Prefecture




Serving

Kitakyushu



Elevation

21 ft



Coordinates



    33°
    50'
          17"
        N
  
      ,
    
    131°
    1'
          56"
        E
  




KCC

Cfa




Metar
RJFR 071300Z 30003KT 9999 FEW030 28/22 Q1014








Airport in Kokuraminami-ku, Kitakyushu, Fukuoka Japan. It is built on an artificial island in the western Seto Inland Sea.
Climatology
Humid Sub-tropical climate (Köppen climate classification Cfa)






Runways






Designator
Length
Width
Surface
Rops




18/36          
2500          
79          
ASP          
Yes/Yes          













Airport map






Aerial View