RJFF








Fukuoka Airport





Airport

ICAO code


  RJFF





IATA Code

FUK




Summary

ICAO Region

APAC



ICAO Territory





Japan






 








Location

Hakata, Fukuoka Prefecture




Serving

Fukuoka



Elevation

30 ft



Coordinates



    33°
    35'
          10"
        N
  
      ,
    
    130°
    27'
          4"
        E
  




KCC

Cfa




Metar
RJFF 071300Z VRB02KT CAVOK 27/22 Q1014 NOSIG








Fukuoka Airport, formerly known as Itazuke Air Base, is an international and domestic airport located 1.6 nm east of Hakata, Fukuoka, Japan.
Climatology
Humid Sub-tropical climate (Köppen climate classification Cfa)






Runways






Designator
Length
Width
Surface
Rops




16/34          
2800          
60          
ASP          
Yes/Yes          













Airport map






Aerial View








Airport accidents



B763/DH8D, Fukuoka Japan, 2010