EFKI








Kajaani Airport





Airport

ICAO code


  EFKI






Summary

ICAO Region

EUR



ICAO Territory





Finland






 








Location

Paltaniemi, Kajaani,




Coordinates



    64°
    17'
          3"
        N
  
      ,
    
    27°
    40'
          50"
        E
  




KCC

Dfc



Airport GND

Aircraft Ground De/Anti Icing



Airport RE

Landing on Contaminated Runways




Metar
EFKI 071350Z AUTO 22009KT 190V250 CAVOK 21/13 Q1022








Description
Largely domestic but also international airport serving the city of Kajaani in Finland. The airport is located 4nm northwest of the city centre.
Climatology
Subarctic climate (Köppen climate classification Dfc) - long, usually very cold winters, and short, cool to mild summers.






Runways






Designator
Length
Width
Surface
Rops




7/25          
2499          
48          
ASP          
Yes/Yes          













Airport map






Aerial View