PAHN








Haines Airport





Airport

ICAO code


  PAHN





IATA Code

HNS




Summary

ICAO Region

NAM



ICAO Territory





Alaska






 








Location

, Alaska




Serving

Haines



Elevation

15 ft



Coordinates



    59°
    14'
          38"
        N
  
      ,
    
    135°
    31'
          26"
        W
  





Metar
PAHN 071254Z AUTO 07007KT 10SM BKN010 BKN015 13/11 A2994 RMK AO2 CIG 009V013 SLP140 T01280106









Runways






Designator
Length
Width
Surface
Rops




8/26          
1219          
30          
ASP          
No/No          













Airport map






Aerial View