SLPO








Capitan Nicolas Rojas Airport





Airport

ICAO code


  SLPO





IATA Code

POI




Summary

ICAO Region

CARSAM



ICAO Territory





Bolivia






 








Location

Potosi, Potosi




Serving

Potosi



Elevation

12913 ft



Coordinates



    19°
    32'
          35"
        S
  
      ,
    
    65°
    43'
          25"
        W
  




KCC

Cwc




Metar
SLPO 062200Z 36010KT 9999 SCT023 SCT200 13/00 Q1036








Capitán Nicolas Rojas Airport (Spanish: Aeropuerto Capitán Nicolas Rojas) is an extremely high elevation airport serving the city of Potosí, the capital of the Potosí Department in Bolivia.
Climatology
Sub tropical highland climate (Köppen climate classification Cwc).






Runways






Designator
Length
Width
Surface
Rops




6/24          
2783          
30          
ASP          
No/No          













Airport map






Aerial View