NVVA








Anatom Airport





Airport

ICAO code


  NVVA





IATA Code

AUY




Summary

ICAO Region

APAC



ICAO Territory





Vanuatu






 








Location

Inyeug, Tafea province




Serving

Aneityum



Elevation

7 ft



Coordinates



    20°
    14'
          57"
        S
  
      ,
    
    169°
    46'
          17"
        E
  




KCC

Af




Metar
NVVA 070000Z 14010KT 9999 BKN020 24/13 Q1022








Anatom Airport, also known as Aneityum Airport, is an airfield serving the island of Aneityum, in the Taféa province in Vanuatu. The airfield is actually located on the smaller Inyeug island.
Climatology
Tropical Rainforest climate (Köppen climate classification Af)














Airport map






Aerial View