KFSD








Sioux Falls Regional Airport





Airport

ICAO code


  KFSD






Summary

ICAO Region

NAM



ICAO Territory





United States






 








Location

Sioux Falls, South Dakota,




Elevation

1429 ft



Coordinates



    43°
    35'
          7"
        N
  
      ,
    
    96°
    44'
          24"
        W
  




KCC

Dfa



Airport CFIT

Altimeter Temperature Error Correction




Metar
KFSD 071356Z 00000KT 10SM BKN075 12/09 A3030 RMK AO2 SLP264 T01220094








Description
Sioux Falls Regional Airport, also known as Joe Foss Field, is a public and military (ANG) use airport located 6 km northwest of the central business district of Sioux Falls, a city in Minnehaha County, South Dakota.
Climatology
Humid continental climate (Köppen climate classification Dfa) - characterized by four seasons: cold, windy, snowy winters, mild springs, hot, humid summers, and crisp and relatively short autumns. Precipitation reaches its lowest in January and February and peaks in summer and latter half of spring.














Airport map






Aerial View