VEIM








Imphal Airport





Airport

ICAO code


  VEIM






Summary

ICAO Region

APAC



ICAO Territory





India






 








Location

Imphal, Manipur,




Coordinates



    24°
    45'
          51"
        N
  
      ,
    
    93°
    53'
          58"
        E
  




KCC

Cwa




Metar
VEIM 071300Z 19005KT 6000 FEW100 28/28 Q1008 NOSIG








Description
Imphal Airport is a regional airport located 8 km south of Imphal, the capital city of the state of Manipur, India.
Climatology
Humid Sub-tropical climate (Köppen climate classification Cwa) - Hot humid summers and cooler winter. Significant precipitation in all seasons but drier in the winter.














Airport map






Aerial View