GABS








Bamako-Sénou International Airport





Airport

ICAO code


  GABS





IATA Code

BKO




Summary

ICAO Region

AFI



ICAO Territory





Mali






 








Location

Bamako, Bamako




Serving

Bamako



Elevation

1247 ft



Coordinates



    12°
    32'
          27"
        N
  
      ,
    
    7°
    56'
          53"
        W
  




KCC

Aw




Metar
GABS 071400Z 22010KT 9999 FEW010 SCT015 30/22 Q1014 NOSIG








Bamako's Modibo Keita International Airport (formerly Bamako–Sénou International Airport) is Mali's main airport located approximately 15 km south of downtown Bamako, the capital of Mali in West Africa.
Climatology
Tropical savannah climate (Köppen climate classification Aw)






Runways






Designator
Length
Width
Surface
Rops




6/24          
2706          
45          
ASP          
Yes/Yes          













Airport map






Aerial View