UWWW








Samara/Kurumoch International





Airport

ICAO code


  UWWW






Summary

ICAO Region

EUR



ICAO Territory





Russian Federation






 








Location

Samara,




Coordinates



    53°
    30'
          28"
        N
  
      ,
    
    50°
    8'
          51"
        E
  





Metar
UWWW 071230Z 33004MPS 290V020 CAVOK 25/10 Q1026 R33/CLRD60 NOSIG RMK QFE759/1012








Description
Kurumoch International Airport is the international airport of Samara, Russia located 35 km north of the city.
Climatology






Runways






Designator
Length
Width
Surface
Rops




5/23          
2548          
60          
ASP          
Yes/Yes          


15/33          
3001          
45          
CON          
Yes/Yes          













Airport map






Aerial View