WMKP








Penang International Airport





Airport

ICAO code


  WMKP





IATA Code

PEN




Summary

ICAO Region

APAC



ICAO Territory





Malaysia






 








Location

Bayan Lepas, Penang




Serving

Penang



Elevation

11 ft



Coordinates



    5°
    17'
          38"
        N
  
      ,
    
    100°
    15'
          56"
        E
  




KCC

Af




Metar
WMKP 071230Z 02004KT 340V080 7000 -RA FEW010 SCT025 26/24 Q1010 NOSIG








Penang International Airport, previously known as Bayan Lepas International Airport, is situated near Bayan Lepas on the southeast of Penang Island, Malaysia. The airport is located 10 nm away from George Town, the capital city of Penang.
 














Airport map






Aerial View