GOSM








Ouro Sogui Airport





Airport

ICAO code


  GOSM





IATA Code

MAX




Summary

ICAO Region

AFI



ICAO Territory





Senegal






 








Location

Ouro Sogui, Matam region




Serving

Matam



Elevation

85 ft



Coordinates



    15°
    35'
          37"
        N
  
      ,
    
    13°
    19'
          22"
        W
  




KCC

BWh




Metar
GOSM 071200Z 28006KT CAVOK 31/21 Q1011








Ouro Sogui Airport is an airport serving Matam, a city on the Sénégal River and capital of the Matam Region in Senegal. The airport is 6 nm southwest of Matam, near the town of Ouro Sogui.
Climatology
Hot desert climate (Köppen climate classification BWh)














Airport map






Aerial View