RJNW








Noto Airport





Airport

ICAO code


  RJNW





IATA Code

NTQ




Summary

ICAO Region

APAC



ICAO Territory





Japan






 








Location

Wajima, Ishikawa Prefecture




Serving

Noto Peninsula



Elevation

718 ft



Coordinates



    37°
    17'
          43"
        N
  
      ,
    
    136°
    57'
          26"
        E
  




KCC

Cfa




Metar
RJNW 070100Z 23005KT 180V260 9999 -SHRA FEW000 SCT008 BKN015 25/25 Q1015








Noto Airport, also unofficially known as Wajima Airport, is a domestic airport located 6.4nm south southeast of the city of Wajima on the Noto Peninsula of Ishikawa Prefecture, Japan.
Climatology
Humid Sub-tropical climate (Köppen climate classification Cfa)






Runways






Designator
Length
Width
Surface
Rops




7/25          
2000          
45          
ASP          
No/No          













Airport map






Aerial View