MMSP








Ponciano Arriaga International Airport





Airport

ICAO code


  MMSP





IATA Code

SLP




Summary

ICAO Region

CARSAM



ICAO Territory





Mexico






 








Location

San Luis Potosi, San Luis Potosi




Serving

San Luis Potosi



Elevation

6035 ft



Coordinates



    22°
    15'
          15"
        N
  
      ,
    
    100°
    55'
          51"
        W
  




KCC

BSh




Metar
MMSP 071142Z 00000KT 6SM OVC020 17/16 A3022 RMK SLP102 52001 961 60015 8/5// -RA B25 E19








Ponciano Arriaga International Airport is an international airport located at San Luis Potosí, San Luis Potosi, Mexico.
Climatology
Warm Semi-arid Climate (Köppen climate classification BSh)






Runways






Designator
Length
Width
Surface
Rops




4/22          
993          
30          
ASP          
Yes/Yes          


14/32          
3007          
45          
ASP          
Yes/Yes          













Airport map






Aerial View