SBAR








Santa Maria Airport (Sergipe)





Airport

ICAO code


  SBAR





IATA Code

AJU




Summary

ICAO Region

CARSAM



ICAO Territory





Brazil






 








Location

Aracaju, Sergipe




Serving

Aracaju



Elevation

23 ft



Coordinates



    10°
    59'
          7"
        S
  
      ,
    
    37°
    4'
          24"
        W
  




KCC

Aw




Metar
SBAR 071300Z 13010KT 9999 SCT024 28/21 Q1019








Aracaju–Santa Maria Airport is the airport serving Aracaju, Brazil.
Climatology
Tropical savanna climate (Köppen climate classification Aw)






Runways






Designator
Length
Width
Surface
Rops




11/29          
2200          
45          
ASP          
No/No          













Airport map






Aerial View