LEVT








Vitoria/Foronda Airport





Airport

ICAO code


  LEVT





IATA Code

VIT




Summary

ICAO Region

EUR



ICAO Territory





Spain






 








Location

, Pais Vasco




Serving

Vitoria



Elevation

1682 ft



Coordinates



    42°
    52'
          58"
        N
  
      ,
    
    2°
    43'
          28"
        W
  





Metar
LEVT 071300Z 22012KT 190V250 9999 SCT048 BKN065 22/10 Q1012









Runways






Designator
Length
Width
Surface
Rops




4/22          
3500          
45          
CON          
Yes/Yes          













Airport map






Aerial View