SUAA








Angel S Adami Airport





Airport

ICAO code


  SUAA






Summary

ICAO Region

CARSAM



ICAO Territory





Uruguay






 








Location

, Montevideo




Serving

Montevideo



Elevation

174 ft



Coordinates



    34°
    47'
          21"
        S
  
      ,
    
    56°
    15'
          53"
        W
  





Metar
SUAA 071400Z 22004KT CAVOK 19/09 Q1015









Runways






Designator
Length
Width
Surface
Rops




18/36          
1250          
23          
CON          
No/No          













Airport map






Aerial View