EGPC








Wick Airport





Airport

ICAO code


  EGPC





IATA Code

WIC




Summary

ICAO Region

EUR



ICAO Territory





United Kingdom






 








Location

Wick, Scotland




Serving

Wick



Elevation

126 ft



Coordinates



    58°
    27'
          29"
        N
  
      ,
    
    3°
    5'
          30"
        W
  




KCC

Cfb




Metar
EGPC 071220Z AUTO 12006KT 0450 FG VV/// 13/13 Q1015








Description
Wick Airport is located north of the small town of Wick in Caithness at the north-eastern extremity of the mainland of Scotland.
Climatology
Temperate Marine climate/Oceanic climate (Köppen climate classification Cfb). Moderately cool summer and comparatively warm winter with a temperature range of only 14°C. Prevailing south-westerly winds from the Atlantic Ocean.






Runways






Designator
Length
Width
Surface
Rops




8/26          
1036          
45          
ASP          
No/No          


13/31          
1825          
45          
ASP          
No/No          













Airport map






Aerial View