SVBS








Mariscal Sucre Airport





Airport

ICAO code


  SVBS





IATA Code

MYC




Summary

ICAO Region

CARSAM



ICAO Territory





Venezuela






 








Location

Maracay, Carabobo




Serving

Maracay



Elevation

1338 ft



Coordinates



    10°
    15'
          0"
        N
  
      ,
    
    67°
    39'
          0"
        W
  




KCC

Aw




Metar
SVBS 071503Z AUTO 20001KT NCD 29/23 Q1015








Mariscal Sucre Airport is an airport in the Carabobo state of Venezuela, serving the city of Maracay. The airport is on the northeastern shore of Lake Valencia.
Climatology
Tropical savanna climate (Köppen climate classification Aw)






Runways






Designator
Length
Width
Surface
Rops




6/24          
1357          
40          
ASP          
No/No          


11/29          
2087          
40          
ASP          
No/No          













Airport map






Aerial View