KCVG








Cincinnati North Kentucky





Airport

ICAO code


  KCVG





IATA Code

CVG




Summary

ICAO Region

NAM



ICAO Territory





United States






 








Location

Hebron, Kentucky




Serving

Cincinnati



Elevation

896 ft



Coordinates



    39°
    3'
          12"
        N
  
      ,
    
    84°
    39'
          47"
        W
  




KCC

Cfa



Airport BS

Bird Strike




Metar
KCVG 071352Z 36010KT 10SM FEW018 15/10 A3012 RMK AO2 SLP194 T01500100 $








Airport serving Cincinnati tri-state area located in Boone County, Kentucky, USA.














Airport map






Aerial View








Airport accidents



B752, vicinity Cincinnati KY USA, 1999