DNBE








Benin Airport





Airport

ICAO code


  DNBE





IATA Code

BNI




Summary

ICAO Region

AFI



ICAO Territory





Nigeria






 








Location

Benin, Edo State




Serving

Benin City



Elevation

259 ft



Coordinates



    6°
    19'
          0"
        N
  
      ,
    
    5°
    35'
          60"
        E
  




KCC

Am




Metar
DNBE 071200Z 27006KT 9999 BKN011 27/24 Q1014








Benin Airport is an airport serving Benin City, the capital of Edo State in Nigeria.
Climatology
Tropical monsoon climate (Köppen climate classification Am)






Runways






Designator
Length
Width
Surface
Rops




5/23          
2399          
45          
ASP          
No/No          













Airport map






Aerial View