ETHL








Laupheim Air Base





Airport

ICAO code


  ETHL






Summary

ICAO Region

EUR



ICAO Territory





Germany






 








Location

Laupheim, Baden-W체rttemberg,




Coordinates



    48째
    13'
          12"
        N
  
      ,
    
    9째
    54'
          35"
        E
  





Metar
ETHL 071420Z AUTO 07008KT 9999 // ////// 27/15 Q1012 ///








Description
Laupheim Air Base is located close to the city of Laupheim, Baden-W체rttemberg, Germany.






Runways






Designator
Length
Width
Surface
Rops




3/21          
600          
50          
GRS          
No/No          


9/27          
1646          
30          
ASP          
No/No          













Airport map






Aerial View