UMGG








Gomel Airport





Airport

ICAO code


  UMGG





IATA Code

GME




Summary

ICAO Region

EUR



ICAO Territory





Russian Federation






 








Location

Gomel, Gomel Region




Serving

Gomel



Elevation

472 ft



Coordinates



    52°
    31'
          37"
        N
  
      ,
    
    31°
    1'
          0"
        E
  




KCC

Dfb




Metar
UMGG 071230Z 13003MPS CAVOK 26/05 Q1028 NOSIG








Gomel Airport is an airport located 3 km north-east from Gomel, the second-largest city in Belarus.
Climatology
Humid continental climate (Köppen climate classification Dfb)






Runways






Designator
Length
Width
Surface
Rops




11/29          
2570          
43          
ASP          
No/No          













Airport map






Aerial View