RJFG








New Tanegashima Airport





Airport

ICAO code


  RJFG





IATA Code

TNE




Summary

ICAO Region

APAC



ICAO Territory





Japan






 








Location

Nakatane, Kagoshima Prefecture




Serving

Tanegashima



Elevation

768 ft



Coordinates



    30°
    36'
          33"
        N
  
      ,
    
    130°
    59'
          29"
        E
  




KCC

Cfa




Metar
RJFG 070100Z 06005KT 360V130 9999 FEW008 SCT015 BKN020 27/25 Q1015








New Tanegashima Airport, also known as Tanegashima Airport, is located in Nakatane, on Tanegashima, one of the Ōsumi Islands in southern Kagoshima Prefecture, Japan.
Climatology
Humid Sub-tropical climate (Köppen climate classification Cfa)






Runways






Designator
Length
Width
Surface
Rops




13/31          
1995          
45          
ASP          
No/No          













Airport map






Aerial View