CYCD








Nanaimo Airport





Airport

ICAO code


  CYCD





IATA Code

YCD




Summary

ICAO Region

NAT



ICAO Territory





Canada






 








Location

Cassidy, British Columbia




Serving

Nanaimo



Elevation

92 ft



Coordinates



    49°
    3'
          16"
        N
  
      ,
    
    123°
    52'
          12"
        W
  




KCC

Csb




Metar
CYCD 071400Z VRB02KT 30SM FEW250 14/11 A2994 RMK CI1 SLP140








Privately owned and operated regional airport located 7 nm south southeast of Nanaimo, British Columbia, Canada.






Runways






Designator
Length
Width
Surface
Rops




16/34          
1524          
61          
ASP          
Yes/Yes          













Airport map






Aerial View