KATL








Atlanta/Hartsfield-Jackson International





Airport

ICAO code


  KATL





IATA Code

ATL




Summary

ICAO Region

NAM



ICAO Territory





United States






 








Location

Atlanta, Georgia




Serving

Atlanta



Elevation

1026 ft



Coordinates



    33°
    38'
          25"
        N
  
      ,
    
    84°
    25'
          38"
        W
  




KCC

Cfa



Airport LOS

Parallel Runway Operation




Metar
KATL 071352Z 28005KT 10SM FEW110 SCT150 BKN250 23/19 A2995 RMK AO2 SLP132 T02280189








Description
Primary international airport serving Atlanta, Georgia, USA. The airport is located 10 nm south of the city centre.














Airport map






Aerial View








Airport accidents



A333, vicinity Atlanta GA USA, 2018
B739, vicinity Atlanta GA USA, 2017
B752, vicinity Atlanta GA USA, 2011
E75S, vicinity Atlanta GA USA, 2016
B722 / BE10, Atlanta GA USA, 1990
B763, Atlanta GA, USA 2009