PWAK








Wake Island





Airport

ICAO code


  PWAK






Summary

ICAO Region

NAM



ICAO Territory





Wake Islands






 








Location

Wake Island,




Coordinates



    19°
    16'
          58"
        N
  
      ,
    
    166°
    38'
          53"
        E
  




KCC

As



Airport BS

Bird Strike




Metar
PWAK 071421Z AUTO 05013KT 9SM -RA SCT021 BKN042 OVC060 28/24 A2990 RMK AO2 LTG DSNT SW RAB21 SLP128








Description
The largest island, Wake Island, is the center of activity on the atoll and has a runway of 3,000 m.
Climatology
Tropical Savanna climate (Köppen climate classification As) - monthly mean temperature above 18°C in every month of the year and a pronounced dry season.






Runways






Designator
Length
Width
Surface
Rops




10/28          
3000          
46          
ASP          
Yes/Yes          













Airport map






Aerial View