SLYA








Yacuiba Airport





Airport

ICAO code


  SLYA





IATA Code

BYC




Summary

ICAO Region

CARSAM



ICAO Territory





Bolivia






 








Location

Yacuiba, Tarija




Serving

Yacuiba



Elevation

2112 ft



Coordinates



    21°
    57'
          39"
        S
  
      ,
    
    63°
    39'
          6"
        W
  




KCC

Cwa




Metar
SLYA 071200Z 21004KT 8000 NSC 24/12 Q1009








Airport 4 km north of Yacuiba, a city in the Tarija Department of Bolivia.
Climatology
Humid sub-tropical climate (Köppen climate classification Cwa).






Runways






Designator
Length
Width
Surface
Rops




2/20          
2100          
36          
ASP          
No/No          













Airport map






Aerial View