NVSC








Vanua Lava Airport





Airport

ICAO code


  NVSC





IATA Code

SLH




Summary

ICAO Region

APAC



ICAO Territory





Vanuatu






 








Location

Sola, Torba province




Serving

Vanua Lava Island



Elevation

7 ft



Coordinates



    13°
    51'
          6"
        S
  
      ,
    
    167°
    32'
          13"
        E
  




KCC

Af




Metar
NVSC 070000Z 12010KT 9999 BKN020 28/19 Q1016








Vanua Lava Airport, also known as Sola Airport, is an airport near Sola on the island of Vanua Lava, one of the Banks Islands in the Torba province in Vanuatu.
Climatology
Tropical Rainforest climate (Köppen climate classification Af)














Airport map






Aerial View