KMLI








Quad City International Airport





Airport

ICAO code


  KMLI






Summary

ICAO Region

NAM



ICAO Territory





United States






 








Location

Moline, Illinois,




Coordinates



    41°
    26'
          56"
        N
  
      ,
    
    90°
    30'
          17"
        W
  




KCC

Dfa




Metar
KMLI 071352Z 04007KT 10SM CLR 13/08 A3030 RMK AO2 SLP260 T01280078








Description
Quad City International Airport is a public airport in Rock Island County, Illinois, 5 km south of the central business district of Moline.
Climatology
Humid continental climate (Köppen climate classification Dfa) - characterized by four seasons: cold, windy, snowy winters, mild springs, hot, humid summers, and crisp and relatively short autumns. Precipitation reaches its lowest in January and February and peaks in summer and latter half of spring.






Runways






Designator
Length
Width
Surface
Rops




5/23          
1374          
46          
ASP          
Yes/Yes          


13/31          
2134          
46          
PEM          
Yes/Yes          


9/27          
3049          
46          
PEM          
Yes/Yes          













Airport map






Aerial View