LFOT








Tours-Val-de-Loire Airport





Airport

ICAO code


  LFOT





IATA Code

TUF




Summary

ICAO Region

EUR



ICAO Territory





France






 








Location

, Centre




Serving

Tours



Elevation

357 ft



Coordinates



    47°
    25'
          56"
        N
  
      ,
    
    0°
    43'
          39"
        E
  





Metar
LFOT 071400Z AUTO 13011KT 090V150 9999 FEW030 BKN046 BKN160 21/16 Q1008 TEMPO 1500 TSRA BKN009CB









Runways






Designator
Length
Width
Surface
Rops




2/20          
2404          
45          
CON          
Yes/Yes          













Airport map






Aerial View