SBFZ








Pinto Martins – Fortaleza International Airport





Airport

ICAO code


  SBFZ





IATA Code

FOR




Summary

ICAO Region

CARSAM



ICAO Territory





Brazil






 








Location

Fortaleza, Caera




Serving

Fortaleza



Elevation

82 ft



Coordinates



    3°
    46'
          33"
        S
  
      ,
    
    38°
    31'
          56"
        W
  




KCC

Aw




Metar
SBFZ 071300Z 13021KT 9999 FEW030 31/20 Q1015








Pinto Martins – Fortaleza International Airport (IATA: FOR, ICAO: SBFZ) is the airport serving Fortaleza, Brazil.
Climatology
Tropical savanna climate (Köppen climate classification Aw)






Runways






Designator
Length
Width
Surface
Rops




13/31          
2545          
45          
ASP          
Yes/Yes          













Airport map






Aerial View