RKJK








Kunsan Air Base





Airport

ICAO code


  RKJK





IATA Code

KUV




Summary

ICAO Region

APAC



ICAO Territory





South Korea






 








Location

, Cholla-bukto




Serving

Kunsan



Elevation

29 ft



Coordinates



    35°
    54'
          14"
        N
  
      ,
    
    126°
    36'
          57"
        E
  





Metar
RKJK 071256Z 31001KT 7SM CLR 25/22 A2997 RMK AO2A SLP015 WND DATA ESTMD ALSTG/SLP ESTMD









Runways






Designator
Length
Width
Surface
Rops




18/36          
2743          
46          
CON          
Yes/Yes          













Airport map






Aerial View