BGGH








Nuuk Airport





Airport

ICAO code


  BGGH






Summary

ICAO Region

NAT



ICAO Territory





Greenland






 








Location

Nuuk,




Serving

Nuuk



Elevation

283 ft



Coordinates



    64°
    11'
          27"
        N
  
      ,
    
    51°
    40'
          41"
        W
  




KCC

ET




Metar
BGGH 071350Z 19012KT 9999 OVC056 04/01 Q1027








Description
International airport serving Godthaab/Nuuk, Greenland.
Climatology
Tundra Climate (Köppen climate classification ET) - average temperature below 10°C in all twelve months of the year with very little precipitation.






Runways






Designator
Length
Width
Surface
Rops




5/23          
950          
30          
ASP          
No/No          













Airport map






Aerial View








Airport accidents



DH8B, Nuuk Greenland, 2019