MUCC








Jardines del Rey Airport





Airport

ICAO code


  MUCC





IATA Code

CCC




Summary

ICAO Region

CARSAM



ICAO Territory





Cuba






 








Location

Cayo Coco, Ciego de Avila




Serving

Cayo Coco



Elevation

13 ft



Coordinates



    22°
    27'
          42"
        N
  
      ,
    
    78°
    19'
          38"
        W
  




KCC

Aw



Airport BS

Bird Strike




Metar
MUCC 071250Z 11007KT 080V140 9000 FEW020 30/26 Q1011








International airport serving the islands of Cayo Coco and Cayo Guillermo, Cuba.
Climatology
Tropical Savanna climate (Köppen climate classification Aw)






Runways






Designator
Length
Width
Surface
Rops




8/26          
3000          
45          
ASP          
Yes/Yes          













Airport map






Aerial View