MPTO








Tocumen International





Airport

ICAO code


  MPTO





IATA Code

PTY




Summary

ICAO Region

CARSAM



ICAO Territory





Panama






 








Location

Tocumen, Panama Province




Serving

Panama City



Elevation

135 ft



Coordinates



    9°
    4'
          8"
        N
  
      ,
    
    79°
    22'
          57"
        W
  




KCC

Aw




Metar
MPTO 071300Z VRB02KT 9000 VCSH FEW008 SCT016CB SCT090 27/26 Q1009 RETS NOSIG








Tocumen International Airport is an international airport located 24 km from Panama City, Panama.
Climatology
Tropical savannah climate (Köppen climate classification Aw)






Runways






Designator
Length
Width
Surface
Rops




03L/21R          
2682          
61          
ASP          
Yes/Yes          


03R/21L          
3050          
45          
CON          
Yes/Yes          













Airport map






Aerial View