DNKT








Katsina Airport





Airport

ICAO code


  DNKT





IATA Code

DKA




Summary

ICAO Region

AFI



ICAO Territory





Nigeria






 








Location

Katsina, Katsina State




Serving

Katsina



Elevation

1685 ft



Coordinates



    13°
    0'
          25"
        N
  
      ,
    
    7°
    39'
          35"
        E
  




KCC

BSh




Metar
DNKT 070700Z 08006KT 2500 BR FEW008 23/22 Q1015








Katsina Airport, also known as Umaru Musa Yar'adua airport, is an airport serving Katsina, the capital of Katsina State in Nigeria.
Climatology
Warm Steppe climate (Köppen climate classification BSh)














Airport map






Aerial View