LPFR








Faro Airport





Airport

ICAO code


  LPFR





IATA Code

FAO




Summary

ICAO Region

EUR



ICAO Territory





Portugal






 








Location

Faro, Faro




Serving

Faro



Elevation

24 ft



Coordinates



    37°
    0'
          55"
        N
  
      ,
    
    7°
    58'
          19"
        W
  




KCC

Csa




Metar
LPFR 071400Z 21009KT CAVOK 19/14 Q1013








Description
International airport serving south coast of Portugal.
Climatology
Dry-summer subtropical ”Mediterranean" climate (Köppen climate classification Csa) - characterized by hot, dry summers and mild winters. During the summer, subtropical high pressure cells dominate, making rainfall unlikely except for the occasional thunderstorm. In the winter, periodic storms bring rain.






Runways






Designator
Length
Width
Surface
Rops




10/28          
2490          
45          
ASP          
Yes/Yes          













Airport map






Aerial View








Airport accidents



B738, vicinity Faro Portugal, 2011