EGPU








Tiree Airport





Airport

ICAO code


  EGPU





IATA Code

TRE




Summary

ICAO Region

EUR



ICAO Territory





United Kingdom






 








Location

, Inner Hebrides UK




Serving

The Island of Tiree



Elevation

38 ft



Coordinates



    56°
    29'
          57"
        N
  
      ,
    
    6°
    52'
          9"
        W
  




KCC

Cfb




Metar
EGPU 071220Z 04004KT CAVOK 19/15 Q1013








The airport is operated by the Highlands and Islands Airports Ltd (HIAL), is licenced and has scheduled passenger services. No aerodrome ATC is available, the airport ATS is provided by an AFISO.
Climatology
Temperate Marine climate/Oceanic climate (Köppen climate classification Cfb).






Runways






Designator
Length
Width
Surface
Rops




17/35          
600          
18          
CON          
No/No          


11/29          
820          
19          
ASP          
No/No          


5/23          
1402          
30          
ASP          
No/No          













Airport map






Aerial View








Airport accidents



DHC6, Tiree UK, 2017