KPIB








Hattiesburg-Laurel Regional Airport





Airport

ICAO code


  KPIB





IATA Code

PIB




Summary

ICAO Region

NAM



ICAO Territory





United States






 








Location

Hattiesburg, Mississippi




Serving

Laurel



Elevation

298 ft



Coordinates



    31°
    27'
          60"
        N
  
      ,
    
    89°
    19'
          60"
        W
  




KCC

Cfa




Metar
KPIB 071356Z AUTO 06007KT 10SM BKN011 OVC017 22/21 A2996 RMK AO2 SLP145 T02220211








Hattiesburg-Laurel Regional Airport is a public airport located 9 nm north of Hattiesburg and 23 nm southwest of Laurel in Jones County, Mississippi, USA.






Runways






Designator
Length
Width
Surface
Rops




18/36          
1982          
46          
ASP          
Yes/Yes          













Airport map






Aerial View