CYZF








Yellowknife Airport





Airport

ICAO code


  CYZF





IATA Code

YZF




Summary

ICAO Region

NAM



ICAO Territory





Canada






 








Location

Yellowknife, Northwest Territories




Serving

Yellowknife



Elevation

675 ft



Coordinates



    62°
    28'
          5"
        N
  
      ,
    
    114°
    26'
          33"
        W
  




KCC

Dfc



Airport BS

Bird Strike
Non Avian Wildlife Hazards to Aircraft



Airport CFIT

Altimeter Temperature Error Correction



Airport GND

Aircraft Ground De/Anti Icing



Airport RE

Landing on Contaminated Runways




Metar
CYZF 071200Z 14006KT 15SM SCT250 09/08 A2973 RMK CI3 SLP075








Description
International airport serving Yellowknife, the capital of the Northwest Territories.
Climatology
Subarctic climate (Köppen climate classification Dfc) - long, usually very cold winters, and short, cool to mild summers.






Runways






Designator
Length
Width
Surface
Rops




9/27          
1524          
46          
ASP          
Yes/Yes          


15/33          
2286          
46          
ASP          
Yes/Yes          













Airport map






Aerial View








Airport accidents



DC3, vicinity Yellowknife Canada, 2013