VGHS








Shahjalal International Airport





Airport

ICAO code


  VGHS





IATA Code

DAC




Summary

ICAO Region

APAC



ICAO Territory





Bangladesh






 








Location

Kurmitola, Bangladesh




Serving

Dhaka



Elevation

27 ft



Coordinates



    23°
    50'
          36"
        N
  
      ,
    
    90°
    24'
          11"
        E
  




KCC

Aw




Metar
VGHS 071230Z 22003KT 4000 HZ FEW015 SCT100 32/27 Q1001 NOSIG








Hazrat Shahjalal International Airport, formerly known as Dacca International Airport and Zia International Airport (VGZR), is the largest airport in Bangladesh.
Climatology
Tropical Savanna climate (Köppen climate classification Aw)














Airport map






Aerial View








Airport accidents



B773, Dhaka Bangladesh, 2016
B772, Dhaka Bangladesh, 2018