SAME








El Plumerillo Airport





Airport

ICAO code


  SAME





IATA Code

MDZ




Summary

ICAO Region

CARSAM



ICAO Territory





Argentina






 








Location

Mendoza, Mendoza




Serving

Mendoza



Elevation

2310 ft



Coordinates



    32°
    49'
          54"
        S
  
      ,
    
    68°
    47'
          34"
        W
  




KCC

BWk




Metar
SAME 071300Z 16003KT 110V210 CAVOK 16/00 Q1014








Airport 5nm northeast of the city of Mendoza, Argentina.
Climatology
Cold desert climate (Köppen climate classification BWk).






Runways






Designator
Length
Width
Surface
Rops




18/36          
2835          
54          
CON          
Yes/Yes          













Airport map






Aerial View