SARL








Paso De Los Libres International Airport





Airport

ICAO code


  SARL





IATA Code

AOL




Summary

ICAO Region

CARSAM



ICAO Territory





Argentina






 








Location

Paso de los Libres, Corrientes




Serving

Paso De Los Libres



Elevation

230 ft



Coordinates



    29°
    41'
          22"
        S
  
      ,
    
    57°
    9'
          7"
        W
  




KCC

Cfa




Metar
SARL 071300Z 07006KT CAVOK 19/15 Q1013








Airport 10km northwest of Paso de los Libres, Argentina.
Climatology
Warm oceanic climate (Köppen climate classification Cfa).






Runways






Designator
Length
Width
Surface
Rops




18/36          
2260          
45          
ASP          
No/No          













Airport map






Aerial View