LDPL








Pula Airport





Airport

ICAO code


  LDPL





IATA Code

PUY




Summary

ICAO Region

EUR



ICAO Territory





Croatia






 








Location

Pula, Istria




Serving

Pula



Elevation

274 ft



Coordinates



    44°
    53'
          44"
        N
  
      ,
    
    13°
    55'
          8"
        E
  




KCC

Cfa




Metar
LDPL 071300Z VRB05KT 9999 FEW040 30/18 Q1016 TEMPO 25008KT








Pula Airport is the international airport serving Pula, Croatia
Climatology
Humid subtropical climate (Köppen climate classification Cfa)






Runways






Designator
Length
Width
Surface
Rops




9/27          
2950          
45          
ASP          
Yes/Yes          













Airport map






Aerial View