LEPP








Pamplona Airport





Airport

ICAO code


  LEPP





IATA Code

PNA




Summary

ICAO Region

EUR



ICAO Territory





Spain






 








Location

,




Serving

Pamplona



Elevation

1504 ft



Coordinates



    42°
    46'
          12"
        N
  
      ,
    
    1°
    38'
          47"
        W
  





Metar
LEPP 071100Z 20007KT 150V260 9999 FEW040 21/08 Q1011









Runways






Designator
Length
Width
Surface
Rops




15/33          
0          
0          
UNK          
Yes/Yes          


16/34          
2207          
45          
ASP          
Yes/Yes          













Airport map






Aerial View