CYFC








Fredericton International Airport





Airport

ICAO code


  CYFC






Summary

ICAO Region

NAM



ICAO Territory





Canada






 








Location

Fredericton, New Brunswick,




Coordinates



    45°
    52'
          12"
        N
  
      ,
    
    66°
    31'
          49"
        W
  




KCC

Dfb



Airport BS

Bird Strike




Metar
CYFC 071500Z AUTO 03011G17KT 8SM RA OVC008 16/16 A2986 RMK PCPN 4.2MM PAST HR SLP114 DENSITY ALT 300FT








Description
International airport serving Fredericton, New Brunswick, Canada. Airport is in close proximity to the restricted areas at Canadian Forces Base Gagetown.
Climatology
Humid Continental climate (Köppen climate classification Dfb) - Variable weather patterns and a large seasonal temperature variance. Summers are often warm and humid with frequent thunderstorms and winters can be very cold with frequent snowfall and persistent snow cover.






Runways






Designator
Length
Width
Surface
Rops




15/33          
1829          
61          
ASP          
Yes/Yes          


9/27          
2440          
61          
ASP          
Yes/Yes          













Airport map






Aerial View