KESC








Delta County Airport





Airport

ICAO code


  KESC





IATA Code

ESC




Summary

ICAO Region

NAM



ICAO Territory





United States






 








Location

Escanaba, Michigan




Serving

Escanaba



Elevation

609 ft



Coordinates



    45°
    43'
          28"
        N
  
      ,
    
    87°
    5'
          41"
        W
  




KCC

Dfb



Airport CFIT

Altimeter Temperature Error Correction



Airport GND

Aircraft Ground De/Anti Icing




Metar
KESC 071356Z AUTO 33007KT 290V050 10SM SCT037 11/04 A3023 RMK AO2 SLP242 T01060039 $








Description
Delta County Airport is a public use airport located 2 nm southwest of the central business district of Escanaba, a city in Delta County, Michigan.














Airport map






Aerial View