CYAW








CFB Shearwater





Airport

ICAO code


  CYAW






Summary

ICAO Region

NAM



ICAO Territory





Canada






 








Location

Shearwater, Nova Scotia,




Coordinates



    44°
    38'
          23"
        N
  
      ,
    
    63°
    29'
          58"
        W
  




KCC

Dfb




Metar
CYAW 061900Z 11012G18KT 15SM SCT025 BKN150 OVC240 20/16 A3025 RMK CU3AC3CI2 DENSITY ALT 616FT LAST OBS /NEXT 091300 UTC SLP244








Description
Canadian Forces base to the east of Halifax.
Climatology
Humid Continental climate (Köppen climate classification Dfb) - Variable weather patterns and a large seasonal temperature variance. Summers are often warm and humid with frequent thunderstorms and winters can be very cold with frequent snowfall and persistent snow cover.






Runways






Designator
Length
Width
Surface
Rops




16H/34H          
1067          
34          
ASPHALT          
No/No          


10/28          
1735          
61          
ASP          
No/No          


16/34          
2743          
61          
ASP          
No/No          













Airport map






Aerial View