WIPP








Palembang International





Airport

ICAO code


  WIPP






Summary

ICAO Region

APAC



ICAO Territory





Indonesia






 








Location

Palembang,




Coordinates



    2°
    53'
          52"
        S
  
      ,
    
    104°
    42'
          5"
        E
  




KCC

Af




Metar
WIPP 071330Z 12008KT 9999 FEW010 28/24 Q1011 NOSIG








Description
international airport serving the city of Palembang, South Sumatra.
Climatology
Tropical Rainforest climate (Köppen climate classification Af) - almost no distinct seasons, average daily temperature around 27°C throughout the year. Extensive cloud cover and heavy rainfall prevent temperatures from rising much over 33°C. The diurnal temperature change is between 2°C and 5°C which is greater than the annual temperature range of 2°C. Rainfall is heavy and is usually convectional and in the afternoon.














Airport map






Aerial View








Airport accidents



B734, Palembang Indonesia, 2008