KEUL








Caldwell Executive Airport





Airport

ICAO code


  KEUL






Summary

ICAO Region

NAM



ICAO Territory





United States






 








Location

Caldwell, Idaho




Serving

Caldwell



Elevation

2432 ft



Coordinates



    43°
    38'
          28"
        N
  
      ,
    
    116°
    38'
          6"
        W
  




KCC

BSk



Airport CFIT

Altimeter Temperature Error Correction




Metar
KEUL 071256Z AUTO 00000KT 10SM CLR 13/10 A3004 RMK AO2 SLP151 T01330100








Description
Caldwell Industrial Airport is a city-owned public-use airport located 3 nm southeast of the central business district of Caldwell, a city in Canyon County, Idaho, United States.














Airport map






Aerial View