KMMU








Morristown Municipal Airport





Airport

ICAO code


  KMMU





IATA Code

MMU




Summary

ICAO Region

NAM



ICAO Territory





United States






 








Location

Morristown, New Jersey




Serving

Morristown



Elevation

187 ft



Coordinates



    40°
    47'
          43"
        N
  
      ,
    
    74°
    25'
          31"
        W
  




KCC

Dfa




Metar
KMMU 071415Z 20007KT 8SM BKN014 OVC028 22/21 A2986








Morristown Municipal Airport is a public airport located 3 nm east of the central business district of Morristown, in Morris County, New Jersey, USA.






Runways






Designator
Length
Width
Surface
Rops




13/31          
1219          
46          
ASP          
Yes/Yes          


5/23          
1828          
46          
ASP          
Yes/Yes          













Airport map






Aerial View