TIST








Cyril E King Airport





Airport

ICAO code


  TIST





IATA Code

STT




Summary

ICAO Region

CARSAM



ICAO Territory





Virgin Islands






 








Location

Charlotte Amalie, US Virgin Islands




Serving

St Thomas



Elevation

24 ft



Coordinates



    18°
    20'
          10"
        N
  
      ,
    
    64°
    58'
          20"
        W
  




KCC

Am




Metar
TIST 071353Z 14008KT 10SM FEW026 SCT030 OVC049 28/27 A2988 RMK AO2 SLP117 T02830267 $








Cyril E. King International Airport is a public airport located 3 km west of the central business district of Charlotte Amalie on the island of St. Thomas in the United States Virgin Islands.
Climatology
Tropical monsoon climate (Köppen climate classification Am)






Runways






Designator
Length
Width
Surface
Rops




10/28          
2134          
46          
ASP          
Yes/Yes          













Airport map






Aerial View