KEUG








Eugene Airport





Airport

ICAO code


  KEUG





IATA Code

EUG




Summary

ICAO Region

NAM



ICAO Territory





United States






 








Location

Irving, Oregon




Serving

Eugene



Elevation

374 ft



Coordinates



    44°
    7'
          13"
        N
  
      ,
    
    123°
    12'
          40"
        W
  




KCC

Cfb



Airport LOS

Parallel Runway Operation




Metar
KEUG 071354Z 18005KT 10SM SCT120 BKN230 16/M01 A2992 RMK AO2 SLP128 T01561006 $








Eugene Airport, also known as Mahlon Sweet Field, is a public use airport located 7 nm northwest of Eugene, in Lane County, Oregon, USA.














Airport map






Aerial View