SKLC








Antonio Roldán Betancourt Airport





Airport

ICAO code


  SKLC





IATA Code

APO




Summary

ICAO Region

CARSAM



ICAO Territory





Colombia






 








Location

Vijagual, Antioquia Department




Serving

Apartado



Elevation

46 ft



Coordinates



    7°
    48'
          58"
        N
  
      ,
    
    76°
    43'
          7"
        W
  




KCC

Af




Metar
SKLC 071200Z 00000KT 9999 FEW003 24/24 Q1009








Antonio Roldán Betancourt Airport is an airport serving Apartadó, a town in the Antioquia Department of Colombia. The airport is in the countryside 12km southwest of Apartadó.
Climatology
Tropical rainforest climate (Köppen climate classification Af)






Runways






Designator
Length
Width
Surface
Rops




15/33          
2180          
30          
ASP          
No/No          













Airport map






Aerial View