KMEI








Meridian Regional Airport





Airport

ICAO code


  KMEI





IATA Code

MEI




Summary

ICAO Region

NAM



ICAO Territory





United States






 








Location

Meridian, Mississippi




Serving

Meridian



Elevation

297 ft



Coordinates



    32°
    19'
          48"
        N
  
      ,
    
    88°
    45'
          6"
        W
  




KCC

Cfa




Metar
KMEI 071358Z 04007KT 10SM CLR 23/19 A2997 RMK AO2 SLP144 T02280194 $








Meridian Regional Airport is a public, joint use civil-military (ANG) airport located 3 nm southwest of Meridian, a city in Lauderdale County, Mississippi, USA.






Runways






Designator
Length
Width
Surface
Rops




4/22          
1402          
46          
ASP          
Yes/Yes          


1/19          
3049          
46          
ASP          
Yes/Yes          













Airport map






Aerial View