KSGJ








Northeast Florida Regional Airport





Airport

ICAO code


  KSGJ






Summary

ICAO Region

NAM



ICAO Territory





United States






 








Location

St. Augustine, Florida,




Coordinates



    29°
    57'
          31"
        N
  
      ,
    
    81°
    20'
          20"
        W
  




KCC

Cfa




Metar
KSGJ 071426Z 24003KT 10SM BKN008 BKN050 27/25 A2990 RMK AO2 P0001 $








Description
Northeast Florida Regional Airport, formerly St. Augustine Airport, is a public airport located 6 km north of the central business district of St. Augustine, in St. Johns County, Florida.
Climatology
Humid “subtropical” climate (Köppen climate classification Cfa) - characterized by hot, humid summers and cool winters. Significant amounts of precipitation occur in all seasons in most areas.






Runways






Designator
Length
Width
Surface
Rops




2/20          
797          
23          
ASP          
Yes/Yes          


6/24          
823          
18          
ASP          
Yes/Yes          


16/34          
1220          
46          
ASP          
No/No          


12W/30W          
1524          
305          
WATER          
No/No          


13/31          
2437          
46          
ASP          
Yes/Yes          


17W/35W          
3658          
305          
WATER          
No/No          


18W/36W          
3658          
152          
WATER          
No/No          













Airport map






Aerial View