MYAF








Andros Town





Airport

ICAO code


  MYAF






Summary

ICAO Region

CARSAM



ICAO Territory





Bahamas






 








Location

Andros Town, Andros Island,




Coordinates



    24°
    41'
          52"
        N
  
      ,
    
    77°
    47'
          46"
        W
  




KCC

Am



Airport WX

Tropical Revolving Storm




Metar
MYAF 071200Z AUTO VRB02KT 9999 SCT021/// 28/25 A2989








Description
Andros Town Airport or Andros Town International Airport is an airport serving Andros Town on Andros Island in the Bahamas. It is also known as Fresh Creek Airport.
Climatology
Tropical Monsoon climate (Köppen climate classification Am) - monthly mean temperatures above 18°C in every month of the year and features wet and dry seasons. A tropical monsoon climate typically features less pronounced dry seasons than a tropical savanna climate and see less variance in temperatures during the course of the year. The driest month nearly always occurs at or soon after the "winter" solstice.






Runways






Designator
Length
Width
Surface
Rops




9/27          
1327          
30          
ASP          
No/No          













Airport map






Aerial View