CYSB








Greater Sudbury Airport





Airport

ICAO code


  CYSB





IATA Code

YSB




Summary

ICAO Region

NAM



ICAO Territory





Canada






 








Location

Sudbury, Ontario,




Serving

Sudbury



Elevation

1141 ft



Coordinates



    46°
    37'
          30"
        N
  
      ,
    
    80°
    47'
          56"
        W
  




KCC

Dfb



Airport BS

Bird Strike



Airport CFIT

Altimeter Temperature Error Correction



Airport GND

Aircraft Ground De/Anti Icing



Airport RE

Landing on Contaminated Runways




Metar
CYSB 071500Z 35017G25KT 15SM OVC011 06/04 A2996 RMK SC8 SLP158








Description
Regional airport located 11 miles northeast of Sudbury, Ontario, Canada.
Climatology
Humid Continental climate (Köppen climate classification Dfb) - Variable weather patterns and a large seasonal temperature variance. Summers are often warm and humid with frequent thunderstorms and winters can be very cold with frequent snowfall and persistent snow cover.






Runways






Designator
Length
Width
Surface
Rops




12/30          
1524          
46          
ASP          
Yes/Yes          


4/22          
2012          
61          
ASP          
Yes/Yes          













Airport map






Aerial View








Airport accidents



DH8D / DH8D, vicinity Sudbury ON Canada, 2016