LDDU








Dubrovnik Airport





Airport

ICAO code


  LDDU





IATA Code

DBV




Summary

ICAO Region

EUR



ICAO Territory





Croatia






 








Location

Cilipi, Dubrovnik-Neretva County




Serving

Dubrovnik



Elevation

527 ft



Coordinates



    42°
    33'
          41"
        N
  
      ,
    
    18°
    16'
          6"
        E
  




KCC

Csa




Metar
LDDU 071300Z 26007KT 220V300 9999 FEW040 28/19 Q1016 NOSIG








Dubrovnik Airport, also referred to as Čilipi Airport, is the international airport of Dubrovnik, Croatia.
Climatology
Warm mediterranean climate (Köppen climate classification Csa)






Runways






Designator
Length
Width
Surface
Rops




12/30          
3300          
45          
ASP          
Yes/Yes          













Airport map






Aerial View








Airport accidents



L410, Dubrovnik Croatia, 2018