KNBC








Marine Corps Air Station Beaufort





Airport

ICAO code


  KNBC






Summary

ICAO Region

NAM



ICAO Territory





United States






 








Location

Beaufort, South Carolina




Serving

Beaufort



Elevation

37 ft



Coordinates



    32°
    28'
          45"
        N
  
      ,
    
    80°
    43'
          23"
        W
  




KCC

Cfa




Metar
KNBC 071437Z AUTO 34005KT 10SM BKN007 BKN029 OVC100 24/22 A2990 RMK AO2 RAE28 P0001 T02390217








Marine Corps Air Station Beaufort, or MCAS Beaufort, is a United States Marine Corps air base located 3 nm northwest of the central business district of Beaufort, a city in Beaufort County, South Carolina, USA.






Runways






Designator
Length
Width
Surface
Rops




18/36          
1201          
46          
ASP          
No/No          


10/28          
1958          
46          
ASP          
No/No          


14/32          
2438          
61          
PEM          
Yes/Yes          


5/23          
3719          
61          
PEM          
Yes/Yes          













Airport map






Aerial View