RJOT








Takamatsu Airport





Airport

ICAO code


  RJOT





IATA Code

TAK




Summary

ICAO Region

APAC



ICAO Territory





Japan






 








Location

Takamatsu, Kagawa




Serving

Takamatsu



Elevation

607 ft



Coordinates



    34°
    13'
          7"
        N
  
      ,
    
    134°
    1'
          8"
        E
  




KCC

Cfa




Metar
RJOT 071200Z 14008KT CAVOK 25/21 Q1015








Takamatsu Airport is a second class airport located 8 NM south southwest of Takamatsu, Kagawa, Japan. It handles a very small number of international flights.
Climatology
Humid “subtropical” climate (Köppen climate classification Cfa) - characterized by hot, humid summers and cool winters. Significant amounts of precipitation occur in all seasons in most areas. Winter rainfall (and sometimes snowfall) is associated with large storms that the westerlies steer from west to east. Most summer rainfall occurs during thunderstorms.






Runways






Designator
Length
Width
Surface
Rops




8/26          
2499          
61          
ASP          
Yes/Yes          













Airport map






Aerial View