KVEL








Vernal Regional Airport





Airport

ICAO code


  KVEL






Summary

ICAO Region

NAM



ICAO Territory





United States






 








Location

Vernal, Utah,




Coordinates



    40°
    26'
          27"
        N
  
      ,
    
    109°
    30'
          37"
        W
  




KCC

BSk



Airport RE

Hot and High Operations



Airport WX

Mountain Waves




Metar
KVEL 071353Z AUTO 25003KT 10SM FEW110 12/06 A3030 RMK AO2 SLP215 T01220056








Description
Vernal Regional Airport is a public use airport located 2 km southeast of the central business district of Vernal, a city in Uintah County, Utah.
Climatology
Semi-arid Steppe climate (Köppen climate classification BSk) - Little precipitation, hot summers and cold winters, sometimes with large changes in temperature in a 24 hour period.






Runways






Designator
Length
Width
Surface
Rops




7/25          
1252          
18          
ASP          
Yes/Yes          


16/34          
1890          
46          
ASP          
Yes/Yes          













Airport map






Aerial View