LEBB








Bilbao Airport





Airport

ICAO code


  LEBB






Summary

ICAO Region

EUR



ICAO Territory





Spain






 








Location

Bilbao, Spain,




Coordinates



    43°
    18'
          9"
        N
  
      ,
    
    2°
    54'
          40"
        W
  




KCC

Cfb



Airport WX

Low Level Turbulence




Metar
LEBB 071330Z 32007KT 260V350 9999 SCT025 22/15 Q1011 NOSIG








Description
International airport serving city of Bilbao.
Climatology
Temperate Marine climate/Oceanic climate (Köppen climate classification Cfb). Moderately cool summer and comparatively warm winter with a temperature range of only 14°C. Prevailing south-westerly winds from the Atlantic Ocean.






Runways






Designator
Length
Width
Surface
Rops




10/28          
2000          
45          
ASP          
Yes/Yes          


12/30          
2600          
45          
ASP          
Yes/Yes          













Airport map






Aerial View








Airport accidents



A320, Bilbao Spain, 2001