MMBT








Bahías de Huatulco International Airport





Airport

ICAO code


  MMBT





IATA Code

HUX




Summary

ICAO Region

CARSAM



ICAO Territory





Mexico






 








Location

Huatulco, Oaxaca




Serving

Huatulco



Elevation

464 ft



Coordinates



    15°
    46'
          31"
        N
  
      ,
    
    96°
    15'
          45"
        W
  




KCC

Aw



Airport BS

Bird Strike



Airport WX

Cumulonimbus




Metar
MMBT 071256Z 00000KT 7SM BKN150 OVC200 26/23 A2979 RMK 8/037 HZY RTS








Bahías de Huatulco International Airport is located at Huatulco, in the state of Oaxaca, Mexico. The airport handles national and international air traffic for the Pacific coast south of the city of Oaxaca
Climatology
Tropical savannah climate (Köppen climate classification Aw)






Runways






Designator
Length
Width
Surface
Rops




7/25          
2700          
45          
ASP          
Yes/Yes          













Airport map






Aerial View