LIRU








Rome Urbe Airport





Airport

ICAO code


  LIRU






Summary

ICAO Region

EUR



ICAO Territory





Italy






 








Location

Rome, Lazio




Serving

Rome



Elevation

55 ft



Coordinates



    41°
    57'
          11"
        N
  
      ,
    
    12°
    30'
          1"
        E
  




KCC

Csa




Metar
LIRU 071350Z 23013KT 190V260 CAVOK 32/16 Q1015








Rome Urbe Airport is a small civilian airport in Rome, Italy.
Climatology
Warm mediterranean climate (Köppen climate classification Csa)






Runways






Designator
Length
Width
Surface
Rops




16/34          
1080          
30          
ASP          
No/No          













Airport map






Aerial View