SLTR








Teniente Av. Jorge Henrich Arauz Airport





Airport

ICAO code


  SLTR





IATA Code

TDD




Summary

ICAO Region

CARSAM



ICAO Territory





Bolivia






 








Location

Trinidad, El Beni




Serving

Trinidad



Elevation

509 ft



Coordinates



    14°
    49'
          7"
        S
  
      ,
    
    64°
    55'
          5"
        W
  




KCC

Am




Metar
SLTR 071100Z 00000KT 1000 FU FEW025 SCT200 18/15 Q1010








Airport serving the city of Trinidad, Bolivia. It is the main hub for both Amaszonas and Aerocon.
Climatology
Monsoon climate (Köppen climate classification Am).






Runways






Designator
Length
Width
Surface
Rops




14/32          
2400          
30          
ASP          
No/No          













Airport map






Aerial View