KDUJ








DuBois Regional Airport





Airport

ICAO code


  KDUJ





IATA Code

DUJ




Summary

ICAO Region

NAM



ICAO Territory





United States






 








Location

DuBois, Pennsylvania




Serving

DuBois



Elevation

1817 ft



Coordinates



    41°
    10'
          57"
        N
  
      ,
    
    78°
    53'
          32"
        W
  




KCC

Dfa



Airport GND

Aircraft Ground De/Anti Icing



Airport RE

Landing on Contaminated Runways



Airport WX

Cumulonimbus




Metar
KDUJ 071433Z AUTO 27011G19KT 10SM FEW016 FEW029 SCT036 16/11 A2994 RMK AO2 T01560106








Description
DuBois Regional Airport, formerly known as DuBois-Jefferson County Airport, is a public use airport located 13 km northwest of the central business district of DuBois, a city in Clearfield County, Pennsylvania.














Airport map






Aerial View