VEGY








Gaya Airport





Airport

ICAO code


  VEGY






Summary

ICAO Region

APAC



ICAO Territory





India






 








Location

Gaya, Bihar,




Coordinates



    24°
    44'
          56"
        N
  
      ,
    
    84°
    56'
          38"
        E
  




KCC

Aw



Airport BS

Bird Strike




Metar
VEGY 071030Z 34005KT 5000 TS HZ SCT018 FEW030CB BKN100 34/26 Q1001 TEMPO 3000 -TSRA








Description
Gaya Airport, also known as Bodhgaya Airport, is a public airport located 10 km southwest of the central business district of Gaya, a city in the state of Bihar, India.
Climatology
Tropical Savanna climate (Köppen climate classification Aw) - monthly mean temperatures above 18°C, and a pronounced dry season. A Tropical Savanna climate has more pronounced dry seasons than a Tropical Monsoon climate.














Airport map






Aerial View