LBPL








Dolna Mitropoliya Air Base





Airport

ICAO code


  LBPL





IATA Code

PVN




Summary

ICAO Region

EUR



ICAO Territory





Bulgaria






 








Location

Dolna Mitropoliya, Pleven Province




Serving

Dolna Mitropoliya



Elevation

330 ft



Coordinates



    43°
    27'
          6"
        N
  
      ,
    
    24°
    30'
          10"
        E
  




KCC

Dfb




Metar
LBPL 071200Z 07006KT 9999 SCT056TC 29/16 Q1019








Dolna Mitropoliya Air Base is a public use airport near Dolna Mitropoliya, Pleven, Bulgaria.
Climatology
Humid continental climate (Köppen climate classification Dfb)






Runways






Designator
Length
Width
Surface
Rops




10L/28R          
2186          
70          
GRE          
No/No          


10R/28L          
2186          
58          
PEM          
No/No          













Airport map






Aerial View