LFRO








Lannion-Côte de Granit Airport





Airport

ICAO code


  LFRO





IATA Code

LAI




Summary

ICAO Region

EUR



ICAO Territory





France






 








Location

, Bretagne




Serving

Lannion



Elevation

290 ft



Coordinates



    48°
    45'
          16"
        N
  
      ,
    
    3°
    28'
          18"
        W
  





Metar
LFRO 071400Z AUTO 01004KT 310V060 9999 FEW027/// BKN037/// ///TCU 21/15 Q1007









Runways






Designator
Length
Width
Surface
Rops




11/29          
1700          
45          
ASP          
Yes/Yes          













Airport map






Aerial View