SPUR








Capitán FAP Guillermo Concha Iberico International Airport





Airport

ICAO code


  SPUR





IATA Code

PIU




Summary

ICAO Region

CARSAM



ICAO Territory





Peru






 








Location

Piura, Piura




Serving

Piura



Elevation

120 ft



Coordinates



    5°
    12'
          21"
        S
  
      ,
    
    80°
    36'
          59"
        W
  




KCC

BWh




Metar
SPUR 071300Z 15005KT CAVOK 18/14 Q1014 RMK BIRD HAZARD RWY 19/01 PP000








Airport serving Piura, Peru.
Climatology
Warm Desert climate (Köppen climate classification BWh).






Runways






Designator
Length
Width
Surface
Rops




1/19          
2500          
45          
ASP          
No/No          













Airport map






Aerial View