SPHO








Coronel FAP Alfredo Mendivil Duarte Airport





Airport

ICAO code


  SPHO





IATA Code

AYP




Summary

ICAO Region

CARSAM



ICAO Territory





Peru






 








Location

Ayacucho, Ayacucho




Serving

Ayacucho



Elevation

8917 ft



Coordinates



    13°
    9'
          17"
        S
  
      ,
    
    74°
    12'
          16"
        W
  




KCC

BSk




Metar
SPHO 071300Z VRB01KT CAVOK 14/03 Q1030 RMK BIRD HAZARD RWY 02/20 PP000








Airport serving Ayacucho, Peru. The runway sits on a mesa overlooking the Totorilla River, with high terrain in all quadrants.
Climatology
Cold Semi-arid climate (Köppen climate classification BSk).






Runways






Designator
Length
Width
Surface
Rops




2/20          
2800          
45          
ASP          
No/No          













Airport map






Aerial View