KOLF








Wolf Point





Airport

ICAO code


  KOLF






Summary

ICAO Region

NAM



ICAO Territory





United States






 








Location

Wolf Point, Roosevelt, Montana,




Coordinates



    48°
    5'
          40"
        N
  
      ,
    
    105°
    34'
          30"
        W
  




KCC

Dfb




Metar
KOLF 071153Z AUTO 08003KT 10SM CLR 09/01 A3014 RMK AO2 SLP204 T00890011 10150 20089 56008 $








Description
L. M. Clayton Airport is a public airport located 5 km east of the central business district (CBD) of Wolf Point, a city in Roosevelt County, Montana, USA.
Climatology
Wolf Point experiences a semi-arid steppe climate (Köppen climate classification BSk), with generally cold, dry winters and hot summers. Late spring and early summer is on average the wettest period of the year. During the summer warm, humid air masses more typical of a warm summer continental climate (Köppen climate classification Dfb) may move into the area from the south or east. Summertime thunderstorms commonly occur and sometimes can be severe featuring hail and, infrequently, funnel clouds or tornados.






Runways






Designator
Length
Width
Surface
Rops




11/29          
1551          
30          
ASP          
No/No          













Airport map






Aerial View








Airport accidents



C310, vicinity Wolf Point MT USA, 2000