PAHC








Holy Cross Airport





Airport

ICAO code


  PAHC





IATA Code

HCR




Summary

ICAO Region

NAM



ICAO Territory





Alaska






 








Location

, Alaska




Serving

Holy Cross



Elevation

70 ft



Coordinates



    62°
    11'
          18"
        N
  
      ,
    
    159°
    46'
          30"
        W
  





Metar
PAHC 071256Z AUTO 22003KT 10SM CLR 04/04 A2992 RMK AO2 SLP138 T00390039 PNO $









Runways






Designator
Length
Width
Surface
Rops




1/19          
1219          
30          
GRAVEL-G          
No/No          













Airport map






Aerial View