CYYD








Smithers Airport





Airport

ICAO code


  CYYD





IATA Code

YYD




Summary

ICAO Region

NAM



ICAO Territory





Canada






 








Location

Smithers, British Columbia,




Serving

Smithers



Elevation

1716 ft



Coordinates



    54°
    49'
          29"
        N
  
      ,
    
    127°
    11'
          0"
        W
  




KCC

Dfb




Metar
CYYD 071400Z 13003KT 120V240 25SM SCT170 BKN210 09/09 A3003 RMK AC3CC2 SLP175








Description
Smithers Airport, is located 2 nm north of Smithers, British Columbia, Canada.
Climatology
Humid Continental climate (Köppen climate classification Dfb) - Variable weather patterns and a large seasonal temperature variance. Summers are often warm and humid with frequent thunderstorms and winters can be very cold with frequent snowfall and persistent snow cover.






Runways






Designator
Length
Width
Surface
Rops




15/33          
1524          
46          
ASP          
Yes/Yes          













Airport map






Aerial View