LYVR








Vršac





Airport

ICAO code


  LYVR






Summary

ICAO Region

EUR



ICAO Territory





Serbia






 








Location

Vršac, Vojvodina




Serving

Vršac



Elevation

276 ft



Coordinates



    45°
    8'
          49"
        N
  
      ,
    
    21°
    18'
          36"
        E
  




KCC

Dfa




Metar
LYVR 071430Z AUTO VRB07KT CAVOK 31/11 Q1016








Description
Vršac International Airport is mainly utilised for air-taxi operations, pilot training, basic aircraft maintenance, and agricultural aviation.
Climatology
Humid continental climate (Köppen climate classification Dfa) - characterized by four seasons: cold, windy, snowy winters, mild springs, hot, humid summers, and crisp and relatively short autumns. Precipitation reaches its lowest in January and February and peaks in summer and latter half of spring






Runways






Designator
Length
Width
Surface
Rops




16/34          
463          
34          
GRS          
No/No          


01L/19R          
835          
70          
GRS          
No/No          


01R/19L          
1000          
22          
ASP          
No/No          













Airport map






Aerial View