WBKT








Kudat Airport





Airport

ICAO code


  WBKT





IATA Code

KUD




Summary

ICAO Region

APAC



ICAO Territory





Malaysia






 








Location

Taman Seri Awana, Sabah




Serving

Kudat



Elevation

10 ft



Coordinates



    6°
    55'
          21"
        N
  
      ,
    
    116°
    50'
          10"
        E
  




KCC

Af




Metar
WBKT 071200Z AUTO 26008KT 230V300 //// // ////// 27/23 Q1011








Airport serving the town of Kudos, Sabah, Malaysia.














Airport map






Aerial View