LFPM








Melun-Villaroche Air Base





Airport

ICAO code


  LFPM






Summary

ICAO Region

EUR



ICAO Territory





France






 








Location

, Ile-de-France




Serving

Melun



Elevation

302 ft



Coordinates



    48°
    36'
          17"
        N
  
      ,
    
    2°
    40'
          16"
        E
  





Metar
LFPM 071400Z AUTO 18007KT 9999 RA ///CB 21/17 Q1009









Runways






Designator
Length
Width
Surface
Rops




1/19          
1300          
30          
ASP          
Yes/Yes          


10/28          
1975          
45          
ASP          
Yes/Yes          













Airport map






Aerial View