KFAR








Hector International Airport





Airport

ICAO code


  KFAR





IATA Code

FAR




Summary

ICAO Region

NAM



ICAO Territory





United States






 








Location

Fargo, North Dakota




Serving

Fargo



Elevation

902 ft



Coordinates



    46°
    55'
          12"
        N
  
      ,
    
    96°
    49'
          33"
        W
  




KCC

Dfb



Airport CFIT

Altimeter Temperature Error Correction



Airport GND

Aircraft Ground De/Anti Icing



Airport RE

Landing on Contaminated Runways



Airport WX

Cumulonimbus




Metar
KFAR 071353Z 16003KT 10SM CLR 12/08 A3027 RMK AO2 SLP253 T01220078








Hector International Airport is a joint civil-military (ANG) public airport located 3 nm northwest of the central business district of Fargo, a city in Cass County, North Dakota, USA.
 














Airport map






Aerial View