KTWF








Magic Valley Regional Airport





Airport

ICAO code


  KTWF





IATA Code

TWF




Summary

ICAO Region

NAM



ICAO Territory





United States






 








Location

Twin Falls, Idaho




Serving

Twin Falls



Elevation

4154 ft



Coordinates



    42°
    28'
          54"
        N
  
      ,
    
    114°
    29'
          15"
        W
  




KCC

BSk



Airport CFIT

Altimeter Temperature Error Correction



Airport RE

Hot and High Operations




Metar
KTWF 071353Z 00000KT 10SM CLR 14/06 A3013 RMK AO2 SLP159 T01390056 $








Magic Valley Regional Airport, also known as Joslin Field, is a public airport located 4 nm south of Twin Falls, in Twin Falls County, Idaho, USA.






Runways






Designator
Length
Width
Surface
Rops




12/30          
983          
23          
ASP          
Yes/Yes          


7/25          
2653          
46          
ASP          
Yes/Yes          













Airport map






Aerial View