VAPR








Porbandar Airport





Airport

ICAO code


  VAPR





IATA Code

PBD




Summary

ICAO Region

APAC



ICAO Territory





India






 








Location

, Gujarat




Serving

Porbandar



Elevation

23 ft



Coordinates



    21°
    38'
          55"
        N
  
      ,
    
    69°
    39'
          26"
        E
  





Metar
VAPR 071300Z 28009KT 5000 HZ FEW020 SCT025 29/24 Q1005 NOSIG









Runways






Designator
Length
Width
Surface
Rops




9/27          
1372          
46          
ASP          
No/No          













Airport map






Aerial View