FNCT








Catumbela Airport





Airport

ICAO code


  FNCT





IATA Code

CBT




Summary

ICAO Region

AFI



ICAO Territory





Angola






 








Location

, Benguela




Serving

Catumbela



Coordinates



    12°
    28'
          45"
        S
  
      ,
    
    13°
    29'
          13"
        E
  





Metar
FNCT 070300Z AUTO 00000KT 9999 OVC034 20/17 Q1015

















Airport map






Aerial View