PAPG








Petersburg James A. Johnson Airport





Airport

ICAO code


  PAPG






Summary

ICAO Region

NAM



ICAO Territory





Alaska






 








Location

Petersburg,




Coordinates



    56°
    48'
          6"
        N
  
      ,
    
    132°
    56'
          43"
        W
  




KCC

Cfb



Airport BS

Bird Strike
Non Avian Wildlife Hazards to Aircraft



Airport CFIT

Altimeter Temperature Error Correction




Metar
PAPG 071156Z AUTO 00000KT 3SM RA BR FEW005 SCT018 OVC024 13/13 A3004 RMK AO2 RAB23 SLP176 P0003 60006 7//// T01280128 10128 20122 51003








Description
Regional airport serving the community of Petersburg which is located on Mitkof Island in the Alaska panhandle.
Climatology
Temperate Marine climate/Oceanic climate (Köppen climate classification Cfb). Moderately cool summer and comparatively warm winter with a temperature range of only 14°C.






Runways






Designator
Length
Width
Surface
Rops




4/22          
1829          
46          
ASP          
Yes/Yes          













Airport map






Aerial View