KCOS








Colorado Springs Airport





Airport

ICAO code


  KCOS





IATA Code

COS




Summary

ICAO Region

NAM



ICAO Territory





United States






 








Location

Colorado Springs, Colorado




Serving

Colorado Springs



Elevation

6187 ft



Coordinates



    38°
    48'
          21"
        N
  
      ,
    
    104°
    42'
          3"
        W
  




KCC

BSk



Airport BS

Bird Strike



Airport LOS

Parallel Runway Operation



Airport RE

Hot and High Operations



Airport WX

Lightning




Metar
KCOS 071254Z 35003KT 10SM SCT120 11/07 A3035 RMK AO2 SLP216 T01060067








Description
Joint use civil and military (USAF) international airport located 6 nm south east of Colorado Springs.














Airport map






Aerial View