BGBW








Narsarsuaq Airport





Airport

ICAO code


  BGBW





IATA Code

UAK




Summary

ICAO Region

NAT



ICAO Territory





Greenland






 








Location

Narsarsuaq,




Serving

Narsarsuaq



Elevation

112 ft



Coordinates



    61°
    9'
          38"
        N
  
      ,
    
    45°
    25'
          32"
        W
  




KCC

ET




Metar
BGBW 071350Z 21006KT 9999 FEW030 08/01 Q1025








Description
Narsarsuaq Airport is an airport located in Narsarsuaq, a settlement in the Kujalleq municipality in southern Greenland.
Climatology
Tundra Climate (Köppen climate classification ET) - average temperature below 10°C in all twelve months of the year with very little precipitation.






Runways






Designator
Length
Width
Surface
Rops




7/25          
1830          
45          
CON          
No/No          













Airport map






Aerial View








Airport accidents



FA20, vicinity Narsarsuaq Greenland, 2001