SBFL








Florianopolis/Hercílio Luz International Airport





Airport

ICAO code


  SBFL





IATA Code

FLN




Summary

ICAO Region

CARSAM



ICAO Territory





Brazil






 








Location

Carianos, Santa Catarina




Serving

Florianopolis



Elevation

16 ft



Coordinates



    27°
    40'
          14"
        S
  
      ,
    
    48°
    32'
          50"
        W
  




KCC

Cfa




Metar
SBFL 071300Z 33010KT 9999 FEW017 SCT100 21/16 Q1016








Florianópolis-Hercílio Luz International Airport, is the airport serving Florianópolis, Brazil.
Climatology
Humid subtropical climate (Köppen climate classification Cfa)






Runways






Designator
Length
Width
Surface
Rops




3/21          
1500          
45          
CON          
Yes/Yes          


14/32          
2300          
45          
ASP          
Yes/Yes          













Airport map






Aerial View