GMME








Rabat–Salé Airport





Airport

ICAO code


  GMME





IATA Code

RBA




Summary

ICAO Region

AFI



ICAO Territory





Morocco






 








Location

Layayda, Rabat-Sale region




Serving

Rabat



Elevation

276 ft



Coordinates



    34°
    3'
          5"
        N
  
      ,
    
    6°
    45'
          5"
        W
  




KCC

Csb




Metar
GMME 071300Z 02017KT 6000 FEW015 SCT100 25/17 Q1008 NOSIG








International airport serving the capital of Morocco.
Climatology
Warm mediterranean climate (Köppen climate classification Csa)






Runways






Designator
Length
Width
Surface
Rops




4/22          
3500          
45          
ASP          
Yes/Yes          













Airport map






Aerial View