ZHCC








Zhengzhou Xinzheng International Airport





Airport

ICAO code


  ZHCC





IATA Code

CGO




Summary

ICAO Region

APAC



ICAO Territory





China






 








Location

Xinzheng, Zhengzhou, Henan




Serving

Zhengzhou



Elevation

151 ft



Coordinates



    34°
    31'
          11"
        N
  
      ,
    
    113°
    50'
          27"
        E
  




KCC

Cfa




Metar
ZHCC 071300Z 06003MPS 8000 BKN030 28/24 Q1014 NOSIG








Description
Zhengzhou Xinzheng International Airport is the principal airport of Zhengzhou, Henan Province, People's Republic of China.
Climatology
Humid subtropical climate (Köppen climate classification Cfa.) Hot muggy summers with frequent thunderstorms. Winters are mild and precipitation during this season comes from mid-latitude cyclones. This climate type is quite common on the east coasts of continents.














Airport map






Aerial View