ZSWZ








Wenzhou Yongqiang International





Airport

ICAO code


  ZSWZ






Summary

ICAO Region

APAC



ICAO Territory





China






 








Location

Wenzhou, Zhejiang,




Serving

Wenzhou



Coordinates



    27°
    54'
          57"
        N
  
      ,
    
    120°
    50'
          53"
        E
  





Metar
ZSWZ 061100Z VRB01MPS 9999 FEW015 SCT050 28/26 Q1010 NOSIG








Wenzhou Yongqiang International Airport is the airport serving the city of Wenzhou in southern Zhejiang Province, China. The airport is located 24 km southeast of the city.














Airport map






Aerial View