SLTJ








Capitan Oriel Lea Plaza Airport





Airport

ICAO code


  SLTJ





IATA Code

TJA




Summary

ICAO Region

CARSAM



ICAO Territory





Bolivia






 








Location

Tarija, Tarija




Serving

Tarija



Elevation

6079 ft



Coordinates



    21°
    33'
          21"
        S
  
      ,
    
    64°
    42'
          5"
        W
  




KCC

BSh




Metar
SLTJ 062300Z 13006KT 9000 NSC 24/08 Q1013








Airport serving Tarija, the capital of the Tarija Department of Bolivia. The airport is in the southeastern section of the city, which is within a basin of the Cordillera Central mountain range. There is mountainous terrain in all quadrants.
Climatology
Semi-arid climate (Köppen climate classification BSh).






Runways






Designator
Length
Width
Surface
Rops




13/31          
3050          
45          
ASP          
No/No          













Airport map






Aerial View