UAKD








Zhezkazgan Airport





Airport

ICAO code


  UAKD





IATA Code

DZN




Summary

ICAO Region

APAC



ICAO Territory





Kazakhstan






 








Location

Zhezkazgan,




Serving

Zhezkazgan



Elevation

1250 ft



Coordinates



    47°
    42'
          30"
        N
  
      ,
    
    67°
    43'
          60"
        E
  





Metar
UAKD 071400Z 25003MPS CAVOK 16/M01 Q1022 NOSIG RMK QFE733/0977








Description
Zhezkazgan Airport is the international airport in Zhezkazgan, Kazakhstan.






Runways






Designator
Length
Width
Surface
Rops




4/22          
2600          
42          
CON          
No/No          













Airport map






Aerial View