SEMC








Coronel E Carvajal Airport





Airport

ICAO code


  SEMC





IATA Code

XMS




Summary

ICAO Region

CARSAM



ICAO Territory





Ecuador






 








Location

, Morona-Santiago




Serving

Macas



Elevation

3452 ft



Coordinates



    2°
    17'
          57"
        S
  
      ,
    
    78°
    7'
          15"
        W
  





Metar
SEMC 071300Z 13003KT 1500 BR BKN005 OVC080 17/17 Q1019 RMK A3009









Runways






Designator
Length
Width
Surface
Rops




1/19          
2500          
30          
ASP          
No/No          













Airport map






Aerial View