BIEG








Egilsstaðir Airport





Airport

ICAO code


  BIEG





IATA Code

EGS




Summary

ICAO Region

NAT



ICAO Territory





Iceland






 








Location

, Austurland




Serving

Egilsstadir



Elevation

76 ft



Coordinates



    65°
    16'
          60"
        N
  
      ,
    
    14°
    24'
          5"
        W
  





Metar
BIEG 071300Z 21013KT 9999 FEW055 BKN150 16/06 Q1003









Runways






Designator
Length
Width
Surface
Rops




4/22          
2000          
45          
ASP          
Yes/Yes          













Airport map






Aerial View