EGVA








RAF Fairford





Airport

ICAO code


  EGVA





IATA Code

FFD




Summary

ICAO Region

EUR



ICAO Territory





United Kingdom






 








Location

, England




Serving

Fairford



Elevation

286 ft



Coordinates



    51°
    40'
          56"
        N
  
      ,
    
    1°
    47'
          24"
        W
  





Metar
EGVA 071430Z AUTO 00000KT 3600 HZ SCT090 19/15 A2977 RMK AO2 VIS 2600V3600 SLP084 PWINO TSNO $









Runways






Designator
Length
Width
Surface
Rops




9/27          
3046          
61          
ASP          
No/No          













Airport map






Aerial View