LEAM








Almería International Airport





Airport

ICAO code


  LEAM





IATA Code

LEI




Summary

ICAO Region

EUR



ICAO Territory





Spain






 








Location

, Andalucia




Serving

Almeria



Elevation

70 ft



Coordinates



    36°
    50'
          38"
        N
  
      ,
    
    2°
    22'
          12"
        W
  




KCC

BWh




Metar
LEAM 071400Z 20010KT 170V240 CAVOK 30/19 Q1008









Runways






Designator
Length
Width
Surface
Rops




8/26          
3200          
45          
ASP          
Yes/Yes          













Airport map






Aerial View