VYNT








Nay Pyi Taw International Airport





Airport

ICAO code


  VYNT





IATA Code

NYT




Summary

ICAO Region

APAC



ICAO Territory





Myanmar






 








Location

Pyinmana, Naypyidaw Union Territory




Serving

Nay Pyi Taw



Elevation

109 ft



Coordinates



    19°
    36'
          54"
        N
  
      ,
    
    96°
    12'
          47"
        E
  




KCC

Aw




Metar
VYNT 071200Z 20010KT 6000 BKN018 FEW023CB BKN110 30/25 Q1004 NOSIG








Nay Pyi Taw International Airport, previously known as Ela Airport, is located 16 km southeast of Nay Pyi Taw, the capital of Myanmar.
Climatology
Tropical Savanna climate (Köppen climate classification Aw)














Airport map






Aerial View