KTYR








Tyler Pounds Regional Airport





Airport

ICAO code


  KTYR






Summary

ICAO Region

NAM



ICAO Territory





United States






 








Location

Tyler, Texas,




Coordinates



    32°
    21'
          4"
        N
  
      ,
    
    95°
    24'
          35"
        W
  




KCC

Cfa




Metar
KTYR 071353Z 04010KT 10SM CLR 23/14 A3008 RMK AO2 SLP178 T02280139








Description
Tyler Pounds Regional Airport is a public use airport located 6 km west of the central business district of Tyler, a city in Smith County, Texas.
Climatology
Humid “subtropical” climate (Köppen climate classification Cfa) - characterized by hot, humid summers and cool winters. Significant amounts of precipitation occur in all seasons in most areas. Winter rainfall (and sometimes snowfall) is associated with large storms that the westerlies steer from west to east. Most summer rainfall occurs during thunderstorms and occasional tropical storms (hurricanes).






Runways






Designator
Length
Width
Surface
Rops




17/35          
1478          
46          
ASP          
Yes/Yes          


13/31          
1585          
46          
ASP          
Yes/Yes          


4/22          
2195          
46          
ASP          
Yes/Yes          













Airport map






Aerial View