KBTM








Bert Mooney Airport





Airport

ICAO code


  KBTM





IATA Code

BTM




Summary

ICAO Region

NAM



ICAO Territory





United States






 








Location

Butte, Montana




Serving

Butte



Elevation

5550 ft



Coordinates



    45°
    57'
          17"
        N
  
      ,
    
    112°
    29'
          50"
        W
  




KCC

BSk



Airport CFIT

Altimeter Temperature Error Correction



Airport RE

Hot and High Operations



Airport WX

Mountain Waves




Metar
KBTM 071353Z AUTO 00000KT 10SM CLR 07/02 A3028 RMK AO2 SLP210 T00670022 $








Description
Bert Mooney Airport is a public use airport located 3 nm southeast of the central business district of Butte, a city in Silver Bow County, Montana, USA.














Airport map






Aerial View