RJEC








Asahikawa Airport





Airport

ICAO code


  RJEC





IATA Code

AKJ




Summary

ICAO Region

APAC



ICAO Territory





Japan






 








Location

Higashikagura, Hokkaidō




Serving

Asahikawa



Elevation

690 ft



Coordinates



    43°
    40'
          17"
        N
  
      ,
    
    142°
    27'
          13"
        E
  




KCC

Dfa




Metar
RJEC 071300Z AUTO 15009KT 9999 NSC 17/12 Q1012








Asahikawa Airport is a single-runway regional airport in Hokkaidō, Japan, straddling the cities of Asahikawa and Higashikagura.
Climatology
Humid continental climate (Köppen climate classification Dfa) - characterized by four seasons: cold, windy, snowy winters, mild springs, hot, humid summers, and crisp and relatively short autumns. Precipitation reaches its lowest in January and February and peaks in summer and latter half of spring.






Runways






Designator
Length
Width
Surface
Rops




16/34          
2499          
61          
ASP          
Yes/Yes          













Airport map






Aerial View