EPLL








Łódź Władysław Reymont Airport





Airport

ICAO code


  EPLL






Summary

ICAO Region

EUR



ICAO Territory





Poland






 








Location

Charzew, Lodz Voivodeship




Serving

Lodz



Elevation

607 ft



Coordinates



    51°
    43'
          19"
        N
  
      ,
    
    19°
    23'
          53"
        E
  




KCC

Dfb




Metar
EPLL 071230Z 10008KT 070V150 CAVOK 30/11 Q1018








Lodz Airport Central Poland, formerly known as Łódź-Lublinek Airport, is a regional airport in central Poland






Runways






Designator
Length
Width
Surface
Rops




7/25          
0          
0          
UNK          
No/No          


07L/25R          
2445          
45          
ASP          
No/No          













Airport map






Aerial View