RJOA








Hiroshima Airport





Airport

ICAO code


  RJOA





IATA Code

HIJ




Summary

ICAO Region

APAC



ICAO Territory





Japan






 








Location

Mihara, Hiroshima, Chūgoku




Serving

Hiroshima



Elevation

1086 ft



Coordinates



    34°
    26'
          23"
        N
  
      ,
    
    132°
    55'
          9"
        E
  




KCC

Cfa




Metar
RJOA 071300Z 29003KT 9999 FEW025 26/20 Q1016








Airport in the city of Mihara, Hiroshima Prefecture, Japan. Located 50 km east of Hiroshima, it is the largest airport in the Chūgoku region.
Climatology
Humid Sub-tropical climate (Köppen climate classification Cfa)






Runways






Designator
Length
Width
Surface
Rops




10/28          
3000          
61          
ASP          
Yes/Yes          













Airport map






Aerial View








Airport accidents



A320, Hiroshima Japan, 2015