SAWG








Piloto Civil N. Fernández Airport





Airport

ICAO code


  SAWG





IATA Code

RGL




Summary

ICAO Region

CARSAM



ICAO Territory





Argentina






 








Location

Rio Gallegos, Santa Cruz




Serving

Rio Gallegos



Elevation

61 ft



Coordinates



    51°
    36'
          32"
        S
  
      ,
    
    69°
    18'
          45"
        W
  




KCC

BSk




Metar
SAWG 071300Z 29008KT CAVOK 06/M00 Q0994








Airport 2.5km west of Rio Gallegos, Santa Cruz Province, Argentina
Climatology
Cold semi-arid climate (Köppen climate classification BSk).






Runways






Designator
Length
Width
Surface
Rops




7/25          
3549          
45          
CON          
Yes/Yes          













Airport map






Aerial View