YPKU








East Kimberley Regional Airport





Airport

ICAO code


  YPKU





IATA Code

KNX




Summary

ICAO Region

APAC



ICAO Territory





Australia






 








Location

Kununurra, Western Australia




Serving

Kununurra



Elevation

145 ft



Coordinates



    15°
    46'
          41"
        S
  
      ,
    
    128°
    42'
          34"
        E
  





Metar
YPKU 071330Z AUTO 02005KT 320V120 9999 // NCD 27/19 Q1014 RF00.0/000.0








Kununurra Airport is an airport in Kununurra, Western Australia. The airport is 2.5 km from the town centre.














Airport map






Aerial View