LIME








Bergamo/Orio al Serio Airport





Airport

ICAO code


  LIME





IATA Code

BGY




Summary

ICAO Region

EUR



ICAO Territory





Italy






 








Location

Orio al Serio, Lombardia




Serving

Bergamo



Elevation

782 ft



Coordinates



    45°
    40'
          5"
        N
  
      ,
    
    9°
    42'
          2"
        E
  




KCC

Cfa




Metar
LIME 071420Z 23005KT 180V270 9999 FEW040 27/17 Q1016 NOSIG








International airport serving Bergamo in northern Italy. Officially also known as Il Caravaggio International Airport
Climatology
Humid “subtropical” climate (Köppen climate classification Cfa) - characterized by hot, humid summers and cool winters. Significant amounts of precipitation occur in all seasons in most areas. Winter rainfall (and sometimes snowfall) is associated with large storms that the westerlies steer from west to east. Most summer rainfall occurs during thunderstorms.






Runways






Designator
Length
Width
Surface
Rops




12/30          
778          
18          
ASP          
Yes/Yes          


10/28          
2937          
45          
ASP          
Yes/Yes          













Airport map






Aerial View