YBRK








Rockhampton Airport





Airport

ICAO code


  YBRK





IATA Code

ROK




Summary

ICAO Region

APAC



ICAO Territory





Australia






 








Location

, Queensland




Serving

Rockhampton



Elevation

34 ft



Coordinates



    23°
    22'
          55"
        S
  
      ,
    
    150°
    28'
          31"
        E
  





Metar
YBRK 071200Z AUTO 00000KT 9999 // NCD 17/16 Q1024 RF00.0/000.0

















Airport map






Aerial View