PAHL








Huslia Airport





Airport

ICAO code


  PAHL





IATA Code

HSL




Summary

ICAO Region

NAM



ICAO Territory





Alaska






 








Location

, Alaska




Serving

Huslia



Elevation

220 ft



Coordinates



    65°
    41'
          52"
        N
  
      ,
    
    156°
    21'
          5"
        W
  





Metar
PAHL 071311Z AUTO VRB04KT 10SM BKN013 03/02 A2985 RMK AO2 TSNO









Runways






Designator
Length
Width
Surface
Rops




3/21          
1219          
23          
GVL          
No/No          













Airport map






Aerial View