OIBL








Bandar Lengeh Airport





Airport

ICAO code


  OIBL





IATA Code

BDH




Summary

ICAO Region

MID



ICAO Territory





Iran






 








Location

Sadaf, Bandar Lengeh




Serving

Bandar Lengeh



Elevation

67 ft



Coordinates



    26°
    31'
          53"
        N
  
      ,
    
    54°
    49'
          40"
        E
  




KCC

BWh




Metar
OIBL 071400Z 23006KT 6000 NSC 35/24 Q1001








Airport 6km southwest of Bandar Length, Iran.
Climatology
Hot Desert climate (Köppen climate classification BWh).






Runways






Designator
Length
Width
Surface
Rops




8/26          
2500          
45          
ASP          
No/No          













Airport map






Aerial View