LRBC








Bacău Airport





Airport

ICAO code


  LRBC





IATA Code

BCM




Summary

ICAO Region

EUR



ICAO Territory





Romania






 








Location

, Bacau




Serving

Bacau



Elevation

607 ft



Coordinates



    46°
    31'
          19"
        N
  
      ,
    
    26°
    54'
          37"
        E
  





Metar
LRBC 071530Z 09006KT 060V130 CAVOK 25/05 Q1021









Runways






Designator
Length
Width
Surface
Rops




16/34          
2500          
80          
CON          
Yes/Yes          













Airport map






Aerial View