EFMA








Mariehamn





Airport

ICAO code


  EFMA






Summary

ICAO Region

EUR



ICAO Territory





Finland






 








Location

Jomala, Aland,




Coordinates



    60°
    7'
          25"
        N
  
      ,
    
    19°
    53'
          59"
        E
  




KCC

Dfb



Airport GND

Aircraft Ground De/Anti Icing



Airport RE

Landing on Contaminated Runways




Metar
EFMA 071220Z AUTO 19008KT CAVOK 21/18 Q1023








Description
Regional airport on the island of Åland, an autonomous, Swedish speaking region of Finland.
Climatology
Humid Continental climate (Köppen climate classification Dfb) - Variable weather patterns and a large seasonal temperature variance. Summers are often warm and humid with frequent thunderstorms and winters can be very cold with frequent snowfall and persistent snow cover.






Runways






Designator
Length
Width
Surface
Rops




3/21          
1903          
60          
ASP          
Yes/Yes          













Airport map






Aerial View








Airport accidents



SF34, vicinity Mariehamn Finland, 2012