PAQH








Quinhagak Airport





Airport

ICAO code


  PAQH





IATA Code

KWN




Summary

ICAO Region

NAM



ICAO Territory





Alaska






 








Location

, Alaska




Serving

Quinhagak



Elevation

42 ft



Coordinates



    59°
    45'
          18"
        N
  
      ,
    
    161°
    50'
          43"
        W
  





Metar
PAQH 071056Z AUTO 28003KT 10SM OVC016 11/08 A3000 RMK AO2 SLP160 T01060083









Runways






Designator
Length
Width
Surface
Rops




12/30          
1219          
23          
GRVL          
No/No          













Airport map






Aerial View