EGQK








Kinloss Barracks





Airport

ICAO code


  EGQK





IATA Code

FSS




Summary

ICAO Region

EUR



ICAO Territory





United Kingdom






 








Location

Kinloss, Moray




Serving

Elgin



Elevation

22 ft



Coordinates



    57°
    38'
          58"
        N
  
      ,
    
    3°
    33'
          38"
        W
  




KCC

Cfb




Metar
EGQK 071250Z AUTO 03006KT 2900 -DZ BKN001/// 13/13 Q1014








Description
Military airfield. The former RAF Kinloss is now an Army base but the airfield nis maintained as a relief landing ground for aircraft from nearby RAF Lossiemouth.






Runways






Designator
Length
Width
Surface
Rops




8/26          
2311          
46          
ASP          
Yes/Yes          













Airport map






Aerial View








Airport accidents



NIM / AS32, vicinity RAF Kinloss UK, 2006