EGAE








City of Derry Airport





Airport

ICAO code


  EGAE





IATA Code

LDY




Summary

ICAO Region

EUR



ICAO Territory





United Kingdom






 








Location

Eglinton, County Londonderry, Northern Ireland




Serving

Derry



Elevation

23 ft



Coordinates



    55°
    2'
          33"
        N
  
      ,
    
    7°
    9'
          45"
        W
  




KCC

Cfb




Metar
EGAE 071450Z 06007KT CAVOK 20/17 Q1012








Description
Airport serving the city of Derry/Londonderry in the Northern Ireland, part of the UK.
Climatology
Temperate Marine climate/Oceanic climate (Köppen climate classification Cfb). Moderately cool summer and comparatively warm winter.






Runways






Designator
Length
Width
Surface
Rops




2/20          
1205          
45          
ASP          
Yes/Yes          


8/26          
1852          
45          
ASP          
Yes/Yes          













Airport map






Aerial View