KLNS








Lancaster Airport





Airport

ICAO code


  KLNS





IATA Code

LNS




Summary

ICAO Region

NAM



ICAO Territory





United States






 








Location

Lititz, Pennsylvania




Serving

Lancaster



Elevation

403 ft



Coordinates



    40°
    7'
          23"
        N
  
      ,
    
    76°
    17'
          29"
        W
  




KCC

Dfa



Airport WX

Cumulonimbus




Metar
KLNS 071353Z 20008KT 10SM BKN021 BKN060 BKN090 23/18 A2984 RMK AO2 SLP101 T02280178








Lancaster Airport is a public use airport located 4 nm north of the central business district of Lancaster, a city in Lancaster County, Pennsylvania, USA.






Runways






Designator
Length
Width
Surface
Rops




13/31          
1250          
30          
ASP          
Yes/Yes          


8/26          
2113          
46          
ASP          
Yes/Yes          













Airport map






Aerial View