RORS








Shimojishima Airport





Airport

ICAO code


  RORS





IATA Code

SHI




Summary

ICAO Region

APAC



ICAO Territory





Japan






 








Location

Shimojishima, Okinawa Prefecture




Serving

Miyakojima



Elevation

25 ft



Coordinates



    24°
    49'
          37"
        N
  
      ,
    
    125°
    8'
          57"
        E
  




KCC

Cfa




Metar
RORS 071300Z AUTO 14002KT 9999 FEW024 SCT027 //////TCU 27/26 Q1011








Shimojishima Airport is located on the island of Shimojishima in Miyakojima, Okinawa Prefecture, Japan.
Climatology
Humid Sub-tropical climate (Köppen climate classification Cfa)






Runways






Designator
Length
Width
Surface
Rops




17/35          
3000          
61          
ASP          
Yes/Yes          













Airport map






Aerial View