OISF








Fasa Airport





Airport

ICAO code


  OISF





IATA Code

FAZ




Summary

ICAO Region

MID



ICAO Territory





Iran






 








Location

Fasa, Fars




Serving

Fasa



Elevation

4261 ft



Coordinates



    28°
    53'
          54"
        N
  
      ,
    
    53°
    43'
          15"
        E
  




KCC

BSh




Metar
OISF 071400Z 19006KT 9999 SCT035 SCT100 37/03 Q1012 A2989








Airport serving Fast in the Far province of Iran.
Climatology
Warm Semi-arid climate (Köppen climate classification Bsh).






Runways






Designator
Length
Width
Surface
Rops




14/32          
1982          
30          
ASP          
No/No          













Airport map






Aerial View