SBAT








Alta Floresta Airport





Airport

ICAO code


  SBAT





IATA Code

AFL




Summary

ICAO Region

CARSAM



ICAO Territory





Brazil






 








Location

Alta Floresta, Mato Grosso




Serving

Alta Floresta



Elevation

947 ft



Coordinates



    9°
    51'
          59"
        S
  
      ,
    
    56°
    6'
          18"
        W
  




KCC

Aw




Metar
SBAT 071200Z 11002KT 1800 FU HZ NSC 23/16 Q1013








Piloto Osvaldo Marques Dias Airport is the airport serving Alta Floresta, Brazil.
Climatology
Tropical savanna climate (Köppen climate classification Aw)






Runways






Designator
Length
Width
Surface
Rops




3/21          
2500          
30          
ASP          
No/No          













Airport map






Aerial View