FMMT








Toamasina Airport





Airport

ICAO code


  FMMT





IATA Code

TMM




Summary

ICAO Region

AFI



ICAO Territory





Madagascar






 








Location

Toamasina, Atsinanana Region




Serving

Toamasina



Elevation

22 ft



Coordinates



    18°
    6'
          34"
        S
  
      ,
    
    49°
    23'
          33"
        E
  




KCC

Af




Metar
FMMT 071200Z 15005KT 080V190 9999 FEW017 SCT033 27/21 Q1021 NOSIG








Toamasina Airport is an airport in Toamasina, Atsinanana Region, Madagascar.
Climatology
Tropical rainforest climate (Köppen climate classification Af)






Runways






Designator
Length
Width
Surface
Rops




1/19          
2200          
40          
ASP          
No/No          













Airport map






Aerial View