HTKJ








Kilimanjaro International Airport





Airport

ICAO code


  HTKJ





IATA Code

JRO




Summary

ICAO Region

AFI



ICAO Territory





Tanzania






 








Location

Boma Ngombe, Kilimanjaro Region




Serving

Arusha



Elevation

2932 ft



Coordinates



    3°
    25'
          46"
        S
  
      ,
    
    37°
    4'
          28"
        E
  




KCC

Cwb




Metar
HTKJ 062300Z 11004KT 9999 SCT022 19/17 Q1021 NOSIG








Kilimanjaro International Airport (KIA) (IATA: JRO, ICAO: HTKJ) is an international airport in northern Tanzania that serves the cities of Arusha and Moshi.
Climatology
Subtropical highland climate (Köppen climate classification Cwb)






Runways






Designator
Length
Width
Surface
Rops




9/27          
3607          
45          
ASP          
Yes/Yes          













Airport map






Aerial View