BIBD








Bildudalur Airport





Airport

ICAO code


  BIBD





IATA Code

BIU




Summary

ICAO Region

NAT



ICAO Territory





Iceland






 








Location

, Vestfiroir




Serving

Bildudalur



Elevation

18 ft



Coordinates



    65°
    38'
          29"
        N
  
      ,
    
    23°
    32'
          46"
        W
  





Metar
BIBD 061600Z 18014KT 9999 SHRA SCT018 OVC025 10/07 Q1010









Runways






Designator
Length
Width
Surface
Rops




5/23          
940          
30          
BIT          
No/No          













Airport map






Aerial View