ESSA








Stockholm/Arlanda





Airport

ICAO code


  ESSA






Summary

ICAO Region

EUR



ICAO Territory





Sweden






 








Location

Stockholm,




Elevation

137 ft



Coordinates



    59°
    39'
          7"
        N
  
      ,
    
    17°
    55'
          7"
        E
  




KCC

Dfb



Airport LOS

Parallel Runway Operation




Metar
ESSA 071350Z 15008KT CAVOK 24/15 Q1022 NOSIG








Description
International airport serving the Swedish capital.
Climatology
Humid Continental climate (Köppen climate classification Dfb) - Variable weather patterns and a large seasonal temperature variance. Summers are often warm and humid with frequent thunderstorms and winters can be very cold with frequent snowfall and persistent snow cover.






Runways






Designator
Length
Width
Surface
Rops




01R/19L          
2500          
45          
ASP          
Yes/Yes          


8/26          
2500          
45          
CON          
Yes/Yes          


01L/19R          
3301          
45          
CON          
Yes/Yes          













Airport map






Aerial View








Airport accidents



A306, Stockholm Sweden, 2010
A319 / UNKN, Stockholm Arlanda Sweden, 2011
SB20, Stockholm Arlanda, 2001
B74S, Stockholm Arlanda Sweden, 1996
B742, Stockholm Arlanda Sweden, 2007
B74S, Stockholm Arlanda Sweden, 2006
SF34 / E145, Stockholm Sweden, 2002
MD81, vicinity Stockholm Arlanda Sweden, 1991