CYQR








Regina International Airport





Airport

ICAO code


  CYQR






Summary

ICAO Region

NAM



ICAO Territory





Canada






 








Location

Regina, Saskatchewan,




Coordinates



    50°
    25'
          55"
        N
  
      ,
    
    104°
    39'
          57"
        W
  




KCC

Dfb



Airport CFIT

Altimeter Temperature Error Correction



Airport GND

Aircraft Ground De/Anti Icing



Airport RE

Landing on Contaminated Runways



Airport WX

Cumulonimbus




Metar
CYQR 071400Z 13009KT 15SM FEW240 BKN270 11/04 A3009 RMK CI1CI7 CI TR SLP198








Description
International airport serving Regina, Saskatchewan.
Climatology
Humid Continental climate (Köppen climate classification Dfb) - Variable weather patterns and a large seasonal temperature variance. Summers are often warm and humid with frequent thunderstorms and winters can be very cold with frequent snowfall and persistent snow cover.






Runways






Designator
Length
Width
Surface
Rops




8/26          
1890          
46          
ASP          
Yes/Yes          


13/31          
2408          
46          
ASP          
Yes/Yes          













Airport map






Aerial View