KDVL








Devils Lake Regional Airport





Airport

ICAO code


  KDVL





IATA Code

DVL




Summary

ICAO Region

NAM



ICAO Territory





United States






 








Location

Devils Lake, North Dakota




Serving

Devils Lake



Elevation

1456 ft



Coordinates



    48°
    6'
          51"
        N
  
      ,
    
    98°
    54'
          31"
        W
  




KCC

Dfb



Airport CFIT

Altimeter Temperature Error Correction



Airport RE

Landing on Contaminated Runways



Airport WX

Cumulonimbus




Metar
KDVL 071356Z AUTO 20008KT 10SM CLR 14/08 A3024 RMK AO2 SLP247 T01390078








Description
Devils Lake Regional Airport is a public use airport located 2 nm west of the central business district of Devils Lake, a city in Ramsey County, North Dakota.














Airport map






Aerial View