CYQU








Grande Prairie





Airport

ICAO code


  CYQU






Summary

ICAO Region

NAM



ICAO Territory





Canada






 








Location

Grande Prairie, Alberta,




Coordinates



    55°
    10'
          47"
        N
  
      ,
    
    118°
    53'
          6"
        W
  




KCC

Dfc




Metar
CYQU 071500Z 26003KT 6SM FU BKN110 BKN200 14/07 A2998 RMK FU3AC3CI1 SLP159 DENSITY ALT 2600FT








Description
Grande Prairie Airport is located 3 nm west northwest of Grande Prairie, Alberta, Canada.
Climatology
Subarctic climate (Köppen climate classification Dfc) - long, usually very cold winters, and short, cool to mild summers.






Runways






Designator
Length
Width
Surface
Rops




7/25          
1890          
61          
ASP          
Yes/Yes          


12/30          
1981          
61          
ASP          
Yes/Yes          













Airport map






Aerial View