MDLR








La Romana International Airport





Airport

ICAO code


  MDLR





IATA Code

LRM




Summary

ICAO Region

CARSAM



ICAO Territory





Dominican Republic






 








Location

La Romana, Dominican Republic




Serving

La Romana



Elevation

213 ft



Coordinates



    18°
    26'
          54"
        N
  
      ,
    
    68°
    54'
          43"
        W
  




KCC

Aw



Airport WX

Tropical Revolving Storm




Metar
MDLR 071300Z 09006KT 9999 FEW018 28/26 Q1012








International Airport located on the southeastern coast of the Dominican Republic, adjacent to the tourist town of La Romana and the resort of Casa de Campo.
Climatology
Tropical savannah climate (Köppen climate classification Aw)






Runways






Designator
Length
Width
Surface
Rops




11/29          
2949          
45          
ASP          
Yes/Yes          













Airport map






Aerial View