DIYO








Yamoussoukro International Airport





Airport

ICAO code


  DIYO





IATA Code

ASK




Summary

ICAO Region

AFI



ICAO Territory





Côte d’Ivoire






 








Location

Yamoussoukro, Yamoussoukro district




Serving

Yamoussoukro



Elevation

699 ft



Coordinates



    6°
    54'
          17"
        N
  
      ,
    
    5°
    21'
          44"
        W
  




KCC

Aw




Metar
DIYO 071400Z 26006KT 9999 BKN015 32/22 Q1013 NOSIG








Yamoussoukro International Airport is a regional airport serving Yamoussoukro in Côte d'Ivoire.
Climatology
Tropical Savannah climate (Köppen climate classification Aw)






Runways






Designator
Length
Width
Surface
Rops




5/23          
3000          
45          
ASP          
No/No          













Airport map






Aerial View