KPAH








Barkley Regional Airport





Airport

ICAO code


  KPAH





IATA Code

PAH




Summary

ICAO Region

NAM



ICAO Territory





United States






 








Location

Paducah, Kentucky




Serving

Paducah



Elevation

410 ft



Coordinates



    37°
    3'
          39"
        N
  
      ,
    
    88°
    46'
          21"
        W
  




KCC

Cfa




Metar
KPAH 071353Z 05008KT 10SM CLR 18/10 A3016 RMK AO2 SLP210 T01830100 $








Description
Barkley Regional Airport is 14 nm west of Paducah, Kentucky, USA. It is used for general aviation.






Runways






Designator
Length
Width
Surface
Rops




14/32          
1676          
46          
ASP          
Yes/Yes          


4/22          
1981          
46          
ASP          
Yes/Yes          













Airport map






Aerial View