PHMK








Molokai Airport





Airport

ICAO code


  PHMK





IATA Code

MKK




Summary

ICAO Region

NAM



ICAO Territory





Hawaii






 








Location

Kaunakakai, Hawaii




Serving

Molokai



Elevation

454 ft



Coordinates



    21°
    9'
          10"
        N
  
      ,
    
    157°
    5'
          47"
        W
  




KCC

As




Metar
PHMK 071054Z AUTO 00000KT 10SM SCT019 SCT030 23/19 A3004 RMK AO2 SLP172 T02330189 TSNO








Description
Molokai Airport is a state owned, public use airport located 11 km northwest of Kaunakakai, on the island of Molokai in Maui County, Hawaii.
Climatology
Tropical Savanna climate (Köppen climate classification As) - monthly mean temperature above 18°C in every month of the year and a pronounced dry season.






Runways






Designator
Length
Width
Surface
Rops




17/35          
950          
30          
ASP          
Yes/Yes          


5/23          
1370          
30          
ASP          
Yes/Yes          













Airport map






Aerial View