FZQA








Lubumbashi International Airport





Airport

ICAO code


  FZQA





IATA Code

FBM




Summary

ICAO Region

AFI



ICAO Territory





Democratic Republic of the Congo






 








Location

, Katanga




Serving

Lubumashi



Elevation

4295 ft



Coordinates



    11°
    35'
          29"
        S
  
      ,
    
    27°
    31'
          51"
        E
  





Metar
FZQA 060830Z 11008KT CAVOK 25/10 Q1022 NOSIG









Runways






Designator
Length
Width
Surface
Rops




7/25          
3238          
50          
ASP          
No/No          













Airport map






Aerial View