LIRN








Naples





Airport

ICAO code


  LIRN





IATA Code

NAP




Summary

ICAO Region

EUR



ICAO Territory





Italy






 








Location

Capodichino, Campania




Serving

Naples



Elevation

294 ft



Coordinates



    40°
    53'
          7"
        N
  
      ,
    
    14°
    17'
          19"
        E
  




KCC

Csa



Airport CFIT

Runway Visual Perspective




Metar
LIRN 071320Z 23007KT 190V260 CAVOK 31/14 Q1016 NOSIG








Naples Airport is the airport serving Naples, Italy. It is located 3.2 nm north-northeast of the city in the Capodichino district of Naples.
Climatology
Dry-summer subtropical ”Mediterranean" climate (Köppen climate classification Csa) - characterized by hot, dry summers and mild winters. During the summer, subtropical high pressure cells dominate, making rainfall unlikely except for the occasional thunderstorm. In the winter, periodic storms bring rain (snow at higher elevations).






Runways






Designator
Length
Width
Surface
Rops




6/24          
2628          
45          
ASP          
Yes/Yes          













Airport map






Aerial View