PAOO








Toksook Bay Airport





Airport

ICAO code


  PAOO





IATA Code

OOK




Summary

ICAO Region

NAM



ICAO Territory





Alaska






 








Location

, Alaska




Serving

Toksook Bay



Elevation

59 ft



Coordinates



    60°
    32'
          29"
        N
  
      ,
    
    165°
    5'
          14"
        W
  





Metar
PAOO 071056Z AUTO 05004KT 10SM OVC006 06/06 A2999 RMK AO2 SLP160 T00610061 TSNO $









Runways






Designator
Length
Width
Surface
Rops




16/34          
981          
18          
GVL          
No/No          













Airport map






Aerial View