ZJHK








Haikou Meilan International





Airport

ICAO code


  ZJHK





IATA Code

HAK




Summary

ICAO Region

APAC



ICAO Territory





China






 








Location

Haikou, Hainan,




Serving

Hainan



Coordinates



    19°
    56'
          5"
        N
  
      ,
    
    110°
    27'
          32"
        E
  




KCC

Cwa




Metar
ZJHK 071300Z 11003MPS CAVOK 27/25 Q1004 NOSIG








Description
Haikou Meilan International Airport is the largest and newest airport on the island of Hainan in the People's Republic of China. It is located 25 km southeast of the main provincial city of Haikou.
Climatology
Within the Köppen Climate Classification System, ((Koppen climate classification Cwa)) this climate type generally has warm and humid summers with mild winters. Its extent is from 30 to 50° of latitude mainly on the eastern and western borders of most continents. During the winter, the main weather feature is the mid-latitude cyclone. Convective thunderstorms provide precipitation in the summer months.














Airport map






Aerial View