EDDP








Leipzig/Halle Airport





Airport

ICAO code


  EDDP





IATA Code

LEJ




Summary

ICAO Region

EUR



ICAO Territory





Germany






 








Location

Schkeuditz,




Serving

Leipzig



Elevation

470 ft



Coordinates



    51°
    25'
          19"
        N
  
      ,
    
    12°
    13'
          13"
        E
  





Metar
EDDP 071420Z AUTO 12012KT CAVOK 31/12 Q1012 NOSIG









Runways






Designator
Length
Width
Surface
Rops




08L/26R          
3600          
45          
CON          
Yes/Yes          


08R/26L          
3600          
60          
CON          
Yes/Yes          













Airport map






Aerial View