KLRD








Laredo International Airport





Airport

ICAO code


  KLRD





IATA Code

LRD




Summary

ICAO Region

NAM



ICAO Territory





United States






 








Location

Laredo, Texas




Serving

Laredo



Elevation

508 ft



Coordinates



    27°
    32'
          37"
        N
  
      ,
    
    99°
    27'
          15"
        W
  




KCC

BSh



Airport LOS

Parallel Runway Operation




Metar
KLRD 071356Z 01012G17KT 10SM CLR 25/18 A3002 RMK AO2 SLP162 T02500178








Laredo International Airport is a public use airport located 3 nm northeast of the central business district of Laredo, a city in Webb County, Texas, USA.






Runways






Designator
Length
Width
Surface
Rops




14/32          
1807          
46          
CON          
Yes/Yes          


17R/35L          
2387          
46          
ASP          
Yes/Yes          


17L/35R          
2510          
46          
CON          
Yes/Yes          













Airport map






Aerial View