KBQK








Brunswick Golden Isles Airport





Airport

ICAO code


  KBQK





IATA Code

BQK




Summary

ICAO Region

NAM



ICAO Territory





United States






 








Location

Brunswick, Georgia




Serving

Brunswick



Elevation

26 ft



Coordinates



    31°
    15'
          26"
        N
  
      ,
    
    81°
    28'
          8"
        W
  




KCC

Cfa




Metar
KBQK 071435Z AUTO 00000KT 10SM OVC007 24/22 A2991 RMK AO2 T02360218








Description
Brunswick Golden Isles Airport, previously known as Glynco Jetport, is a public-use airport located 5 nm north of Brunswick, Georgia, USA.














Airport map






Aerial View