KNIP








Naval Air Station Jacksonville





Airport

ICAO code


  KNIP






Summary

ICAO Region

NAM



ICAO Territory





United States






 








Location

Jacksonville, Florida,




Coordinates



    30°
    13'
          56"
        N
  
      ,
    
    81°
    40'
          49"
        W
  




KCC

Cfa




Metar
KNIP 071353Z 23003KT 10SM SCT018 SCT030 BKN150 OVC220 26/24 A2989 RMK AO2 SLP117 T02610239








Description
Naval Air Station Jacksonville, or NAS Jacksonville, is a military airport located 6 km south of the central business district of Jacksonville, Florida.
Climatology
Humid “subtropical” climate (Köppen climate classification Cfa) - characterized by hot, humid summers and cool winters. Significant amounts of precipitation occur in all seasons in most areas. Winter rainfall (and sometimes snowfall) is associated with large storms that the westerlies steer from west to east. Most summer rainfall occurs during thunderstorms and occasional tropical storms (hurricanes).






Runways






Designator
Length
Width
Surface
Rops




14/32          
1824          
61          
ASP          
Yes/Yes          


10/28          
2439          
61          
ASPH          
Yes/Yes          













Airport map






Aerial View








Airport accidents



B738, Jacksonville FL USA, 2019