PABA








Barter Island LRRS Airport





Airport

ICAO code


  PABA





IATA Code

BTI




Summary

ICAO Region

NAM



ICAO Territory





Alaska






 








Location

Barter Island, Alaska




Serving

Barter Island



Elevation

2 ft



Coordinates



    70°
    8'
          2"
        N
  
      ,
    
    143°
    34'
          55"
        W
  





Metar
PABA 071252Z AUTO 29009KT 10SM OVC019 04/04 A2979 RMK AO2 RAE1157 SLP095 P0000 T00440039









Runways






Designator
Length
Width
Surface
Rops




7/25          
1469          
30          
GRAVEL-P          
Yes/Yes          













Airport map






Aerial View