LGKL








Kalamata International Airport





Airport

ICAO code


  LGKL





IATA Code

KLX




Summary

ICAO Region

EUR



ICAO Territory





Greece






 








Location

Kalamata, Messenia




Serving

Kalamata



Elevation

26 ft



Coordinates



    37°
    4'
          6"
        N
  
      ,
    
    22°
    1'
          30"
        E
  




KCC

Csa




Metar
LGKL 071350Z 02008KT 9999 FEW030 35/18 Q1012








Kalamata International Airport "Captain Vassilis Constantakopoulos" is an airport in the city of Kalamata, Greece.
Climatology
Warm mediterranean climate (Köppen climate classification Csa)






Runways






Designator
Length
Width
Surface
Rops




17R/35L          
2822          
45          
ASP          
Yes/Yes          













Airport map






Aerial View