LYPG








Podgorica





Airport

ICAO code


  LYPG






Summary

ICAO Region

EUR



ICAO Territory





Montenegro






 








Location

Podgorica,




Coordinates



    42°
    21'
          34"
        N
  
      ,
    
    19°
    15'
          7"
        E
  




KCC

Cfb




Metar
LYPG 071430Z 20010KT 9999 FEW050 33/16 Q1013 NOSIG








Description
Podgorica Airport (IATA: TGD) is an international airport located 11 km south of Podgorica, Montenegro.
Climatology
Temperate Marine climate/Oceanic climate (Köppen climate classification Cfb) - Moderately cool summer and comparatively warm winter.






Runways






Designator
Length
Width
Surface
Rops




8/26          
2178          
15          
ASP          
No/No          


18/36          
2500          
45          
ASP          
Yes/Yes          













Airport map






Aerial View