OOKB








Khasab International Airport





Airport

ICAO code


  OOKB





IATA Code

KHS




Summary

ICAO Region

MID



ICAO Territory





Oman






 








Location

Khasab, Musandam Governate, Musandam




Serving

Khasab



Elevation

100 ft



Coordinates



    26°
    10'
          13"
        N
  
      ,
    
    56°
    14'
          25"
        E
  




KCC

BWh



Airport WX

Sand Storm




Metar
OOKB 071350Z AUTO 01010KT CAVOK ////// 38/13 Q1001 NOSIG








International airport serving Khasab, capital of Musandam Governate, Oman.
Climatology
Hot Desert Climate (Köppen climate classification BWh)






Runways






Designator
Length
Width
Surface
Rops




1/19          
2500          
23          
ASP          
No/No          













Airport map






Aerial View