KBED








Laurence G. Hanscom Field





Airport

ICAO code


  KBED





IATA Code

BED




Summary

ICAO Region

NAM



ICAO Territory





United States






 








Location

Bedford, Massachusetts




Serving

Bedford



Elevation

133 ft



Coordinates



    42°
    28'
          15"
        N
  
      ,
    
    71°
    17'
          22"
        W
  




KCC

Dfa



Airport WX

Cumulonimbus




Metar
KBED 071351Z 35004KT 10SM SCT014 19/14 A2988 RMK AO2 SLP130 T01940144








Description
Laurence G. Hanscom Field, also known as both Hanscom Field and Hanscom Air Force Base, is a public use airport located in Bedford, Massachusetts.














Airport map






Aerial View








Airport accidents



GLF4, Bedford MA USA, 2014