UGKO








Kutaisi/Kopitnari International Airport





Airport

ICAO code


  UGKO





IATA Code

KUT




Summary

ICAO Region

APAC



ICAO Territory





Georgia






 








Location

Kutaisi,




Serving

Kutaisi



Elevation

223 ft



Coordinates



    42°
    10'
          36"
        N
  
      ,
    
    42°
    28'
          57"
        E
  





Metar
UGKO 071400Z 08022G34KT CAVOK 29/12 Q1011 NOSIG








Description
Kutaisi Airport also known as David the Builder Kutaisi International Airport is an airport located 14 km west of Kutaisi, the second largest city in Georgia and capital of the western region of Imereti. It is one of three international airports currently in operation in Georgia, along with Tbilisi International Airport serving the Georgian capital and Batumi International Airport near the Adjara Black Sea resort.






Runways






Designator
Length
Width
Surface
Rops




8/26          
2500          
44          
CON          
No/No          













Airport map






Aerial View