RKTU








Cheongju International Airport





Airport

ICAO code


  RKTU





IATA Code

CJJ




Summary

ICAO Region

APAC



ICAO Territory





South Korea






 








Location

, Ch&#039;ungch&#039;ong-bukto




Serving

Chongju



Elevation

191 ft



Coordinates



    36°
    42'
          60"
        N
  
      ,
    
    127°
    29'
          57"
        E
  





Metar
RKTU 071300Z 21001KT CAVOK 25/21 Q1014









Runways






Designator
Length
Width
Surface
Rops




06L/24R          
2743          
61          
CON          
Yes/Yes          


06R/24L          
2743          
46          
CON          
Yes/Yes          













Airport map






Aerial View








Airport accidents



A319 / B738, Cheongju South Korea, 2016