NVSS








Santo-Pekoa International Airport





Airport

ICAO code


  NVSS





IATA Code

SON




Summary

ICAO Region

APAC



ICAO Territory





Vanuatu






 








Location

Luganville, Sanma province




Serving

Espiritu Santo



Elevation

184 ft



Coordinates



    15°
    30'
          21"
        S
  
      ,
    
    167°
    13'
          17"
        E
  




KCC

Af




Metar
NVSS 071200Z AUTO 12012KT //// // NCD 24/18 Q1017








Santo-Pekoa International Airport is an airport in Luganville on Espiritu Santo in Vanuatu.
Climatology
Tropical Rainforest climate (Köppen climate classification Af)






Runways






Designator
Length
Width
Surface
Rops




12/30          
1988          
30          
ASP          
No/No          













Airport map






Aerial View