ESGJ








Jonkoping Airport





Airport

ICAO code


  ESGJ






Summary

ICAO Region

EUR



ICAO Territory





Sweden






 








Location

Jonkoping, Sweden,




Coordinates



    57°
    45'
          30"
        N
  
      ,
    
    14°
    4'
          9"
        E
  




KCC

Dfb




Metar
ESGJ 071220Z AUTO 04006KT 360V080 9999 NCD 22/18 Q1020








Description
International airport serving Jonkoping, south central Sweden.
Climatology
Humid Continental climate (Köppen climate classification Dfb) - Variable weather patterns and a large seasonal temperature variance. Summers are often warm and humid with frequent thunderstorms and winters can be very cold with frequent snowfall and persistent snow cover.






Runways






Designator
Length
Width
Surface
Rops




11/29          
600          
25          
GRE          
No/No          


1/19          
2203          
45          
ASP          
Yes/Yes          













Airport map






Aerial View