KFLL








Fort Lauderdale Hollywood International Airport





Airport

ICAO code


  KFLL





IATA Code

FLL




Summary

ICAO Region

NAM



ICAO Territory





United States






 








Location

Dania Beach, Florida




Serving

Fort Lauderdale



Elevation

9 ft



Coordinates



    26°
    4'
          21"
        N
  
      ,
    
    80°
    9'
          10"
        W
  




KCC

Am



Airport RE

Engineered Materials Arresting System



Airport WX

Tropical Revolving Storm




Metar
KFLL 071253Z 00000KT 10SM -RA SCT030 SCT070 BKN085 28/26 A2987 RMK AO2 RAB41 SLP112 P0000 T02780256








International airport 3 nm southwest of downtown Fort Lauderdale, Florida, USA.














Airport map






Aerial View








Airport accidents



DC10, Fort Lauderdale FL USA, 2017