LEVC








Valencia





Airport

ICAO code


  LEVC






Summary

ICAO Region

EUR



ICAO Territory





Spain






 








Location

Manises,




Coordinates



    39°
    29'
          21"
        N
  
      ,
    
    0°
    28'
          54"
        W
  




KCC

Csa




Metar
LEVC 071400Z 26012KT CAVOK 33/05 Q1008 NOSIG








Description
Valencia Airport in Manises, also known as Manises Airport. It is situated 8 km west of the city of Valencia.
Climatology
Dry-summer subtropical ”Mediterranean" climate (Köppen climate classification Csa) - characterized by hot, dry summers and mild winters. During the summer, subtropical high pressure cells dominate, making rainfall unlikely except for the occasional thunderstorm. In the winter, periodic storms bring rain (snow at higher elevations).






Runways






Designator
Length
Width
Surface
Rops




4/22          
1644          
45          
ASP          
Yes/Yes          


12/30          
2700          
45          
ASP          
Yes/Yes          













Airport map






Aerial View








Airport accidents



A321, Valencia Spain, 2019
DH8C / GALX, Valencia Spain, 2008