VOCL








Calicut International Airport





Airport

ICAO code


  VOCL






Summary

ICAO Region

APAC



ICAO Territory





India






 








Location

Kozhikode, Kerala,




Coordinates



    11°
    8'
          22"
        N
  
      ,
    
    75°
    57'
          6"
        E
  




KCC

Am



Airport WX

Cumulonimbus




Metar
VOCL 071330Z 25006KT 5000 BR SCT012 FEW025CB BKN080 27/24 Q1010 TEMPO 3000 RA BR








Description
Calicut International Airport, also known as Karipur Airport, is a public airport located 28 km southeast of Kozhikode (Calicut) and 25 km northwest of Malappuram, cities in the state of Kerala, India.
Climatology
Tropical Monsoon climate (Köppen climate classification Am) - monthly mean temperatures above 18°C in every month of the year and features wet and dry seasons. A tropical monsoon climate typically features less pronounced dry seasons than a tropical savanna climate and sees less variance in temperatures during the course of the year. The driest month nearly always occurs at or soon after the "winter" solstice.














Airport map






Aerial View








Airport accidents



B738, Calicut (Kozhikode) India, 2020
A320, Calicut India, 2019