KJLN








Joplin Regional Airport





Airport

ICAO code


  KJLN





IATA Code

JLN




Summary

ICAO Region

NAM



ICAO Territory





United States






 








Location

Joplin, Missouri




Serving

Joplin



Elevation

981 ft



Coordinates



    37°
    8'
          55"
        N
  
      ,
    
    94°
    29'
          57"
        W
  




KCC

Cfa




Metar
KJLN 071353Z 05005KT 10SM CLR 16/09 A3026 RMK AO2 SLP239 T01610089








Joplin Regional Airport is a public use airport located 4 nm north of the central business district of Joplin, in Jasper County, Missouri, USA.














Airport map






Aerial View