CYEG








Edmonton International Airport





Airport

ICAO code


  CYEG





IATA Code

YEG




Summary

ICAO Region

NAM



ICAO Territory





Canada






 








Location

Edmonton, Alberta




Serving

Edmonton



Elevation

2373 ft



Coordinates



    53°
    18'
          29"
        N
  
      ,
    
    113°
    35'
          2"
        W
  




KCC

Dfb




Metar
CYEG 071400Z 21003KT 15SM BKN250 09/09 A2998 RMK CI5 SLP161








Description
International airport serving Edmonton, Alberta.
Climatology
Humid Continental climate (Köppen climate classification Dfb) - Variable weather patterns and a large seasonal temperature variance. Summers are often warm and humid with frequent thunderstorms and winters can be very cold with frequent snowfall and persistent snow cover.






Runways






Designator
Length
Width
Surface
Rops




12/30          
3109          
61          
ASP          
Yes/Yes          


2/20          
3353          
61          
ASP          
Yes/Yes          













Airport map






Aerial View








Airport accidents



DH8D, Edmonton AB Canada, 2014