KLBB








Lubbock Preston Smith International





Airport

ICAO code


  KLBB





IATA Code

LBB




Summary

ICAO Region

NAM



ICAO Territory





United States






 








Location

Lubbock, Texas




Serving

Lubbock



Elevation

3282 ft



Coordinates



    33°
    39'
          24"
        N
  
      ,
    
    101°
    49'
          21"
        W
  




KCC

BSh




Metar
KLBB 071253Z 08006KT 10SM FEW060 FEW200 17/15 A3028 RMK AO2 SLP216 T01720150








Lubbock Preston Smith International Airport is an airport located just north of Lubbock, Texas. Originally known as Lubbock International Airport.






Runways






Designator
Length
Width
Surface
Rops




17L/35R          
881          
23          
ASP          
Yes/Yes          


8/26          
2439          
46          
CON          
Yes/Yes          


17R/35L          
3505          
46          
CON          
Yes/Yes          













Airport map






Aerial View








Airport accidents



AT43, Lubbock TX USA, 2009