CYYE








Fort Nelson Airport





Airport

ICAO code


  CYYE






Summary

ICAO Region

NAM



ICAO Territory





Canada






 








Location

Fort Nelson, BC,




Coordinates



    58°
    50'
          18"
        N
  
      ,
    
    122°
    35'
          47"
        W
  




KCC

Dfc




Metar
CYYE 071500Z VRB02KT 30SM BKN150 BKN200 BKN240 11/09 A2983 RMK AC5CI1CI1 SLP111








Description
Also known as Northern Rockies Regional Airport, the iarport is located 8 nm east northeast of Fort Nelson, British Columbia, Canada.
Climatology
Subarctic climate (Köppen climate classification Dfc) - long, usually very cold winters, and short, cool to mild summers.






Runways






Designator
Length
Width
Surface
Rops




8/26          
0          
0          
UNK          
Yes/Yes          


7/25          
1240          
23          
ASP          
No/No          


3/21          
1951          
61          
ASP          
Yes/Yes          













Airport map






Aerial View








Airport accidents



B737, Fort Nelson BC Canada, 2012