SKRH








Almirante Padilla Airport





Airport

ICAO code


  SKRH





IATA Code

RCH




Summary

ICAO Region

CARSAM



ICAO Territory





Colombia






 








Location

Riohacha, Guajira Department




Serving

Riohacha



Elevation

43 ft



Coordinates



    11°
    31'
          43"
        N
  
      ,
    
    72°
    55'
          9"
        W
  




KCC

BSh




Metar
SKRH 062300Z 27009KT 230V310 9999 -TSRA SCT015 FEW020CB 24/23 Q1007 RMK CB/W








Almirante Padilla Airport is an airport serving the Caribbean coastal city of Riohacha in the Guajira Department of Colombia. The airport is on the southwestern edge of the city.
Climatology
Semi-arid climate (Köppen climate classification BSh)






Runways






Designator
Length
Width
Surface
Rops




10/28          
0          
0          
UNK          
Yes/Yes          


9/27          
1650          
30          
ASP          
No/No          













Airport map






Aerial View