KLEB








Lebanon Municipal Airport





Airport

ICAO code


  KLEB





IATA Code

LEB




Summary

ICAO Region

NAM



ICAO Territory





United States






 








Location

Lebanon, New Hampshire




Serving

Lebanon



Elevation

603 ft



Coordinates



    43°
    37'
          43"
        N
  
      ,
    
    72°
    18'
          23"
        W
  




KCC

Dfa



Airport WX

Cumulonimbus




Metar
KLEB 071353Z 16004KT 10SM SCT044 18/13 A2989 RMK AO2 SLP116 T01830133








Lebanon Municipal Airport is a public use airport located 3 nm west of the central business district of Lebanon, a city in Grafton County, New Hampshire, USA.






Runways






Designator
Length
Width
Surface
Rops




18/36          
1585          
30          
ASP          
Yes/Yes          


7/25          
1675          
30          
ASP          
Yes/Yes          













Airport map






Aerial View