KDOV








Dover Air Force Base





Airport

ICAO code


  KDOV





IATA Code

DOV




Summary

ICAO Region

NAM



ICAO Territory





United States






 








Location

Dover, Delaware




Serving

Dover



Elevation

29 ft



Coordinates



    39°
    7'
          41"
        N
  
      ,
    
    75°
    27'
          52"
        W
  




KCC

Cfa



Airport BS

Bird Strike




Metar
KDOV 071355Z AUTO 20005KT 10SM SCT009 22/19 A2984 RMK AO2 SLP108 T02220192








Description
Dover Air Force Base or Dover AFB is a United States Air Force base located 2 nm southeast of the city of Dover, Delaware. Civilian use and a Civil Air Terminal are available on a prior permission basis.














Airport map






Aerial View