SESM








Rio Amazonas Airport





Airport

ICAO code


  SESM





IATA Code

PTZ




Summary

ICAO Region

CARSAM



ICAO Territory





Ecuador






 








Location

, Pastaza




Serving

Pastaza



Elevation

3465 ft



Coordinates



    2°
    0'
          0"
        S
  
      ,
    
    77°
    0'
          0"
        W
  





Metar
SESM 071300Z 33003KT 9999 SCT030 BKN100 20/17 Q1017 RMK A3005









Runways






Designator
Length
Width
Surface
Rops




12/30          
1540          
25          
ASP          
No/No          













Airport map






Aerial View