SETU








Teniente Coronel Luis a Mantilla Airport





Airport

ICAO code


  SETU





IATA Code

TUA




Summary

ICAO Region

CARSAM



ICAO Territory





Ecuador






 








Location

, Carchi




Serving

Tulcan



Elevation

9649 ft



Coordinates



    0°
    48'
          34"
        N
  
      ,
    
    77°
    42'
          29"
        W
  





Metar
SETU 062100Z 12011G21KT 9999 BKN020 15/05 Q1030









Runways






Designator
Length
Width
Surface
Rops




5/23          
2460          
30          
ASP          
No/No          













Airport map






Aerial View