PABT








Bettles Airport





Airport

ICAO code


  PABT





IATA Code

BTT




Summary

ICAO Region

NAM



ICAO Territory





Alaska






 








Location

, Alaska




Serving

Bettles



Elevation

647 ft



Coordinates



    66°
    54'
          50"
        N
  
      ,
    
    151°
    31'
          45"
        W
  





Metar
PABT 071253Z 13005KT 10SM FEW008 SCT039 BKN075 07/06 A2971 RMK AO2 SLP068 T00670056 $









Runways






Designator
Length
Width
Surface
Rops




1/19          
1582          
46          
GVL          
No/No          













Airport map






Aerial View