KBFD








Bradford Regional Airport





Airport

ICAO code


  KBFD





IATA Code

BFD




Summary

ICAO Region

NAM



ICAO Territory





United States






 








Location

Lafayette Township, Pennsylvania




Serving

Bradford



Elevation

2143 ft



Coordinates



    41°
    47'
          58"
        N
  
      ,
    
    78°
    38'
          23"
        W
  




KCC

Dfb



Airport GND

Aircraft Ground De/Anti Icing



Airport RE

Landing on Contaminated Runways



Airport WX

Cumulonimbus




Metar
KBFD 071355Z AUTO 27007KT 10SM SCT010 BKN015 OVC024 14/13 A2991 RMK AO2 T01390128








Description
Bradford Regional Airport is a public use airport located in Lewis Run, 11 nm south of the central business district of Bradford, a city in McKean County, Pennsylvania.














Airport map






Aerial View