PALU








Cape Lisburne LRRS Airport





Airport

ICAO code


  PALU





IATA Code

LUR




Summary

ICAO Region

NAM



ICAO Territory





Alaska






 








Location

Cape Lisburne, Alaska




Serving

Cape Lisburne



Elevation

16 ft



Coordinates



    68°
    52'
          30"
        N
  
      ,
    
    166°
    6'
          36"
        W
  





Metar
PALU 071326Z AUTO 12007KT 10SM OVC013 02/02 A2981 RMK AO2 SLP095









Runways






Designator
Length
Width
Surface
Rops




8/26          
1463          
41          
GVL          
No/No          













Airport map






Aerial View