SLRQ








Rurrenabaque Airport





Airport

ICAO code


  SLRQ





IATA Code

RBQ




Summary

ICAO Region

CARSAM



ICAO Territory





Bolivia






 








Location

Rurrenabaque, El Beni




Serving

Rurrenabaque



Elevation

898 ft



Coordinates



    14°
    25'
          39"
        S
  
      ,
    
    67°
    29'
          53"
        W
  





Metar
SLRQ 071200Z 16005KT 2000 FU SCT080 20/19 Q1012








Rurrenabaque Airport is an airport in Rurrenabaque, Bolivia.














Airport map






Aerial View