BGKK








Kulusuk Airport





Airport

ICAO code


  BGKK





IATA Code

KUS




Summary

ICAO Region

NAT



ICAO Territory





Greenland






 








Location

Kulusuk Island, Sermersooq




Serving

Kulusuk



Elevation

131 ft



Coordinates



    65°
    34'
          25"
        N
  
      ,
    
    37°
    7'
          25"
        W
  




KCC

ET



Airport CFIT

Altimeter Temperature Error Correction




Metar
BGKK 070950Z 33024G34KT 9999 FEW170 09/M07 Q0997








Description
Kulusuk Airport is an airport in Kulusuk, a settlement on an island of the same name off the shore of the North Atlantic in the Sermersooq municipality in southeastern Greenland.
Climatology
Tundra Climate (Köppen climate classification ET) - average temperature below 10°C in all twelve months of the year with very little precipitation.






Runways






Designator
Length
Width
Surface
Rops




11/29          
1199          
0          
UNK          
No/No          













Airport map






Aerial View