KGGG








East Texas Regional Airport





Airport

ICAO code


  KGGG





IATA Code

GGG




Summary

ICAO Region

NAM



ICAO Territory





United States






 








Location

Lakeport, Texas




Serving

Longview



Elevation

365 ft



Coordinates



    32°
    23'
          13"
        N
  
      ,
    
    94°
    42'
          47"
        W
  




KCC

Cfa




Metar
KGGG 071253Z VRB05G15KT 10SM CLR 22/14 A3005 RMK AO2 SLP169 T02170139








East Texas Regional Airport is a public use airport located 8 nm south of the central business district of Longview, in Gregg County, Texas, USA.














Airport map






Aerial View