KBMI








Central Illinois Regional Airport





Airport

ICAO code


  KBMI





IATA Code

BMI




Summary

ICAO Region

NAM



ICAO Territory





United States






 








Location

McLean County, Illinois




Serving

Bloomington/Normal



Elevation

871 ft



Coordinates



    40°
    28'
          38"
        N
  
      ,
    
    88°
    54'
          57"
        W
  




KCC

Dfa



Airport CFIT

Altimeter Temperature Error Correction




Metar
KBMI 071356Z 36011KT 10SM CLR 12/07 A3026 RMK AO2 SLP242 T01220067








Description
Central Illinois Regional Airport at Bloomington-Normal is a public use airport located 3 nm east of the central business district of the city of Bloomington and southeast of the town of Normal, in McLean County, Illinois, USA.














Airport map






Aerial View