KMWH








Grant County International Airport





Airport

ICAO code


  KMWH





IATA Code

MWH




Summary

ICAO Region

NAM



ICAO Territory





United States






 








Location

Moses Lake, Washington




Serving

Moses Lake



Elevation

1189 ft



Coordinates



    47°
    12'
          16"
        N
  
      ,
    
    119°
    18'
          59"
        W
  





Metar
KMWH 071352Z 35004KT 10SM CLR 16/05 A2996 RMK AO2 SLP138 T01560050








Grant County International Airport is a public use airport located 9.7 km northwest of the central business district of Moses Lake, a city in Grant County, Washington, United States.






Runways






Designator
Length
Width
Surface
Rops




14R/32L          
895          
23          
CON          
Yes/Yes          


18/36          
1008          
23          
ASP          
Yes/Yes          


9/27          
1067          
27          
CON          
Yes/Yes          


4/22          
3048          
30          
PEM          
Yes/Yes          


14L/32R          
4116          
61          
PEM          
Yes/Yes          













Airport map






Aerial View