KJMS








Jamestown Regional Airport





Airport

ICAO code


  KJMS





IATA Code

JMS




Summary

ICAO Region

NAM



ICAO Territory





United States






 








Location

Jamestown, North Dakota




Serving

Jamestown



Elevation

1500 ft



Coordinates



    46°
    55'
          35"
        N
  
      ,
    
    98°
    40'
          44"
        W
  




KCC

Dfb



Airport CFIT

Altimeter Temperature Error Correction



Airport WX

Cumulonimbus




Metar
KJMS 071356Z AUTO 16004KT 10SM CLR 11/08 A3025 RMK AO2 SLP250 T01110083








Jamestown Regional Airport is a public use airport located 2 nm northeast of the central business district of Jamestown, a city in Stutsman County, North Dakota, USA.














Airport map






Aerial View