RPVP








Puerto Princesa International Airport





Airport

ICAO code


  RPVP





IATA Code

PPS




Summary

ICAO Region

APAC



ICAO Territory





Philippines






 








Location

San Miguel, Palawan




Serving

Puerto Princesa



Elevation

71 ft



Coordinates



    9°
    44'
          31"
        N
  
      ,
    
    118°
    45'
          32"
        E
  




KCC

Am




Metar
RPVP 070100Z 21004KT 9999 SCT019 SCT240 29/26 Q1012 RMK A2988








Puerto Princesa International Airport is an airport serving the general area of Puerto Princesa, located in the province of Palawan in the Philippines.
Climatology
Tropical monsoon climate (Köppen climate classification Am)






Runways






Designator
Length
Width
Surface
Rops




9/27          
2600          
45          
CON          
Yes/Yes          













Airport map






Aerial View