PHNY








Lanai Airport





Airport

ICAO code


  PHNY






Summary

ICAO Region

NAM



ICAO Territory





Hawaii






 








Location

Lanai City,




Coordinates



    20°
    47'
          8"
        N
  
      ,
    
    156°
    57'
          5"
        W
  




KCC

As




Metar
PHNY 071156Z AUTO 06011G18KT 10SM CLR 21/18 A3005 RMK AO2 SLP153 T02110183 10222 20194 58015 $








Description
Lanai Airport, is a public use airport located 6 km southwest of the central business district of Lanai City, in Maui County, Hawaii. It is the only airport serving the island of Lanai.
Climatology
Tropical Savanna climate (Köppen climate classification As) - monthly mean temperature above 18°C in every month of the year and a pronounced dry season.






Runways






Designator
Length
Width
Surface
Rops




3/21          
1524          
46          
ASP          
Yes/Yes          













Airport map






Aerial View