WBSB








Brunei International Airport





Airport

ICAO code


  WBSB





IATA Code

BWN




Summary

ICAO Region

APAC



ICAO Territory





Brunei Darussalam






 








Location

Bandar Seri Begawan, Brunei Muara




Serving

Brunei



Elevation

73 ft



Coordinates



    4°
    56'
          47"
        N
  
      ,
    
    114°
    55'
          55"
        E
  




KCC

Af




Metar
WBSB 071230Z 06003KT 9000 -RA FEW015 FEW016CB BKN150 27/25 Q1011 RETSRA TEMPO 7000 -TSRA








International airport serving the sultanate of Brunei.
Climatology
Tropical Rainforest climate (Köppen climate classification Af) - almost no distinct seasons, average daily temperature around 27°C throughout the year. Extensive cloud cover and heavy rainfall prevent temperatures from rising much over 33°C. The diurnal temperature change is between 2°C and 5°C which is greater than the annual temperature range of 2°C. Rainfall is heavy and is usually convectional and in the afternoon.














Airport map






Aerial View








Airport accidents



A320, Brunei, 2014