KDLH








Duluth International Airport





Airport

ICAO code


  KDLH





IATA Code

DLH




Summary

ICAO Region

NAM



ICAO Territory





United States






 








Location

Duluth, Minnesota




Serving

Duluth



Elevation

1428 ft



Coordinates



    46°
    50'
          29"
        N
  
      ,
    
    92°
    10'
          60"
        W
  




KCC

Dfb



Airport CFIT

Altimeter Temperature Error Correction



Airport GND

Aircraft Ground De/Anti Icing



Airport RE

Landing on Contaminated Runways




Metar
KDLH 071355Z 24007KT 10SM CLR 10/06 A3032 RMK AO2 SLP277 T01000056 $








Description
Duluth International Airport is a public-use, joint civil-military (ANG) airport located 5 nm northwest of the central business district of Duluth, a city in St. Louis County, Minnesota.














Airport map






Aerial View