LICD








Lampedusa Airport





Airport

ICAO code


  LICD





IATA Code

LMP




Summary

ICAO Region

EUR



ICAO Territory





Italy






 








Location

Lampedusa, Sicily




Serving

Lampedusa



Elevation

69 ft



Coordinates



    35°
    29'
          55"
        N
  
      ,
    
    12°
    37'
          20"
        E
  




KCC

BSh




Metar
LICD 071350Z 15008KT CAVOK 31/27 Q1014








Lampedusa Airport is an airport on the Italian island of Lampedusa.
Climatology
Warm semi-arid climate (Köppen climate classification BSh)






Runways






Designator
Length
Width
Surface
Rops




8/26          
1800          
45          
ASP          
Yes/Yes          













Airport map






Aerial View