EGQS








RAF Lossiemouth





Airport

ICAO code


  EGQS






Summary

ICAO Region

EUR



ICAO Territory





United Kingdom






 








Location

Lossiemouth, Moray, Scotland,




Elevation

42 ft



Coordinates



    57°
    42'
          19"
        N
  
      ,
    
    3°
    20'
          21"
        W
  




KCC

Cfb




Metar
EGQS 071350Z 06005KT 0500 FG OVC001 13/12 Q1014 RMK RED








Description
RAF Lossiemouth (IATA: LMO) is a Royal Air Force station to the west of the town of Lossiemouth in Moray, Scotland. It is one of the RAF's biggest bases and currently Britain's main base for Tornado GR4s.
Climatology
Temperate Marine climate/Oceanic climate (Köppen climate classification Cfb) - Moderately cool summer and comparatively warm winter.






Runways






Designator
Length
Width
Surface
Rops




10/28          
1849          
46          
ASP          
No/No          


5/23          
2771          
46          
ASP          
No/No          













Airport map






Aerial View