FBSK








Sir Seretse Khama International Airport





Airport

ICAO code


  FBSK





IATA Code

GBE




Summary

ICAO Region

AFI



ICAO Territory





Botswana






 








Location

Gaborone, Gaberone




Serving

Gaborone



Elevation

3299 ft



Coordinates



    24°
    33'
          21"
        S
  
      ,
    
    25°
    55'
          8"
        E
  




KCC

BSh




Metar
FBSK 071500Z 02006KT 350V060 CAVOK 30/M00 Q1019 NOSIG








International airport serving the city of Goborone, Botswana.
Climatology
Hot, semi-arid/Steppe climate (Köppen climate classification BSh)






Runways






Designator
Length
Width
Surface
Rops




8/26          
3000          
45          
CON          
Yes/Yes          













Airport map






Aerial View