KETB








West Bend Municipal Airport





Airport

ICAO code


  KETB






Summary

ICAO Region

NAM



ICAO Territory





United States






 








Location

West Bend, Wisconsin,




Elevation

887 ft



Coordinates



    43°
    25'
          28"
        N
  
      ,
    
    88°
    7'
          48"
        W
  




KCC

Dfa



Airport WX

Cumulonimbus




Metar
KETB 071415Z AUTO 35009G18KT 10SM CLR 10/03 A3026 RMK AO2








Description
West Bend Municipal Airport is a public use airport located 6 km east of the central business district of West Bend, a city in Washington County, Wisconsin.
Climatology
Humid continental climate (Köppen climate classification Dfa) - characterized by four seasons: cold, windy, snowy winters, mild springs, hot, humid summers, and crisp and relatively short autumns. Precipitation reaches its lowest in January and February and peaks in summer and latter half of spring.














Airport map






Aerial View