KBID








Block Island State Airport





Airport

ICAO code


  KBID





IATA Code

BID




Summary

ICAO Region

NAM



ICAO Territory





United States






 








Location

Block Island, Rhode Island




Serving

Block Island



Elevation

108 ft



Coordinates



    41°
    10'
          5"
        N
  
      ,
    
    71°
    34'
          41"
        W
  




KCC

Dfb



Airport BS

Bird Strike




Metar
KBID 071406Z AUTO 07007KT 10SM FEW009 18/15 A2990 RMK AO2 PNO $








Description
Block Island State Airport is a public use airport located on Block Island, in Washington County, Rhode Island, USA.














Airport map






Aerial View