LSMM








Meiringen Airport





Airport

ICAO code


  LSMM






Summary

ICAO Region

EUR



ICAO Territory





Switzerland






 








Location

Unterbach, Bern




Serving

Meiringen



Elevation

1895 ft



Coordinates



    46°
    44'
          36"
        N
  
      ,
    
    8°
    6'
          36"
        E
  





Metar
LSMM 071420Z AUTO 11017KT 070V140 9999NDV FEW220 27/11 Q1011 RMK








Meiringen air base, also known as the Unterbach military airfield, is a Swiss military airbase located near the hamlet of Unterbach and the town of Meiringen, in the canton of Bern, Switzerland.
Climatology
Humid continental climate (Köppen climate classification Dfb)






Runways






Designator
Length
Width
Surface
Rops




10/28          
2003          
40          
ASP          
No/No          













Airport map






Aerial View