KRST








Rochester International Airport





Airport

ICAO code


  KRST






Summary

ICAO Region

NAM



ICAO Territory





United States






 








Location

Rochester, Minnesota,




Coordinates



    43°
    54'
          26"
        N
  
      ,
    
    92°
    29'
          56"
        W
  




KCC

Dfa



Airport CFIT

Altimeter Temperature Error Correction



Airport GND

Aircraft Ground De/Anti Icing



Airport RE

Landing on Contaminated Runways




Metar
KRST 071354Z 15005KT 10SM CLR 09/06 A3035 RMK AO2 SLP282 T00940056








Description
Rochester International Airport is a primary airport located 11 km southwest of the central business district of Rochester, a city in Olmsted County, Minnesota.
Climatology
Humid continental climate (Köppen climate classification Dfa) - characterized by four seasons: cold, windy, snowy winters, mild springs, hot, humid summers, and crisp and relatively short autumns. Precipitation reaches its lowest in January and February and peaks in summer and latter half of spring.






Runways






Designator
Length
Width
Surface
Rops




2/20          
2225          
46          
CON          
Yes/Yes          


13/31          
2753          
46          
CON          
Yes/Yes          













Airport map






Aerial View