KGPT








Gulfport-Biloxi International





Airport

ICAO code


  KGPT





IATA Code

GPT




Summary

ICAO Region

NAM



ICAO Territory





United States






 








Location

Gulfport, Mississippi




Serving

Gulfport



Elevation

28 ft



Coordinates



    30°
    24'
          48"
        N
  
      ,
    
    89°
    4'
          23"
        W
  




KCC

Cfa



Airport BS

Bird Strike



Airport WX

Cumulonimbus




Metar
KGPT 071153Z AUTO 02008KT 10SM OVC005 23/22 A2988 RMK AO2 SLP117 60000 70042 T02330217 10233 20228 53006








Gulfport-Biloxi International Airport is a joint civil-military public use airport located 3 nm northeast of the central business district of Gulfport, a city in Harrison County, Mississippi, USA.














Airport map






Aerial View








Airport accidents



E145/C172, Gulfport MS USA, 2011