KLAR








Laramie Regional Airport





Airport

ICAO code


  KLAR





IATA Code

LAR




Summary

ICAO Region

NAM



ICAO Territory





United States






 








Location

Laramie, Wyoming




Serving

Laramie



Elevation

7284 ft



Coordinates



    41°
    18'
          49"
        N
  
      ,
    
    105°
    40'
          22"
        W
  




KCC

BSk



Airport CFIT

Altimeter Temperature Error Correction



Airport RE

Hot and High Operations




Metar
KLAR 071353Z AUTO 19004KT 10SM CLR 11/04 A3039 RMK AO2 SLP201 T01110039








Laramie Regional Airport is a public use airport located 3 nm west of the central business district of Laramie, a city in Albany County, Wyoming, USA.






Runways






Designator
Length
Width
Surface
Rops




12/30          
1920          
30          
ASP          
Yes/Yes          


3/21          
2591          
46          
ASP          
Yes/Yes          













Airport map






Aerial View