LTFH








Samsun-Çarşamba Airport





Airport

ICAO code


  LTFH





IATA Code

SZF




Summary

ICAO Region

EUR



ICAO Territory





Turkey






 








Location

Samsun,




Serving

Samsun



Elevation

16 ft



Coordinates



    41°
    15'
          23"
        N
  
      ,
    
    36°
    33'
          14"
        E
  





Metar
LTFH 071150Z 36010KT 340V040 9999 SCT032 BKN100 28/21 Q1013 NOSIG









Runways






Designator
Length
Width
Surface
Rops




13/31          
3000          
45          
CON          
Yes/Yes          













Airport map






Aerial View