KLIT








Clinton National Airport





Airport

ICAO code


  KLIT





IATA Code

LIT




Summary

ICAO Region

NAM



ICAO Territory





United States






 








Location

Little Rock, Arkansas




Serving

Little Rock



Elevation

262 ft



Coordinates



    34°
    43'
          48"
        N
  
      ,
    
    92°
    13'
          33"
        W
  




KCC

Cfa



Airport LOS

Parallel Runway Operation



Airport RE

Engineered Materials Arresting System




Metar
KLIT 071153Z 02009KT 10SM SCT120 18/11 A3009 RMK AO2 SLP190 T01780111 10228 20178 53007








Description
Bill and Hillary Clinton Airport, also known as Adams Field, serves Little Rock, Arkansas, USA, located 2 nm east of the city's business district. It is a joint civil-military airport.
 






Runways






Designator
Length
Width
Surface
Rops




18/36          
1562          
46          
CON          
Yes/Yes          


04R/22L          
2195          
46          
CON          
Yes/Yes          


04L/22R          
2522          
46          
CON          
Yes/Yes          













Airport map






Aerial View








Airport accidents



MD82, Little Rock USA, 1999