RJFE








Fukue Airport





Airport

ICAO code


  RJFE





IATA Code

FUJ




Summary

ICAO Region

APAC



ICAO Territory





Japan






 








Location

Goto, Nagasaki Prefecture




Serving

Fukue



Elevation

251 ft



Coordinates



    32°
    40'
          6"
        N
  
      ,
    
    128°
    50'
          15"
        E
  




KCC

Cfa



Airport WX

Tropical Revolving Storm




Metar
RJFE 070100Z 16003KT 070V240 9999 FEW020 29/22 Q1015








Fukue Airport, is an airport located 1.7nm southwest of Gotō, Nagasaki Prefecture, off the western coast of Kyūshū, Japan. The airport also serves the city of Fukue. It is also known as Gotō-Fukue Airport.
Climatology
Humid Sub-tropical climate (Köppen climate classification Cfa)






Runways






Designator
Length
Width
Surface
Rops




3/21          
2000          
46          
ASP          
Yes/Yes          













Airport map






Aerial View








Airport accidents



DH8D, Fukue Japan, 2020