ESSB








Stockholm/Bromma





Airport

ICAO code


  ESSB






Summary

ICAO Region

EUR



ICAO Territory





Sweden






 








Location

Stockholm Municipality,




Elevation

47 ft



Coordinates



    59°
    21'
          16"
        N
  
      ,
    
    17°
    56'
          30"
        E
  




KCC

Cfb




Metar
ESSB 071220Z 10005KT 030V140 CAVOK 25/18 Q1022








Description
Stockholm-Bromma Airport is an airport in Stockholm, Sweden. Stockholm-Bromma Airport is located 4 nm west northwest of downtown Stockholm and is the closest to the city.
Climatology
Temperate Marine climate/Oceanic climate (Köppen climate classification Cfb). Moderately cool summer and comparatively warm winter.






Runways






Designator
Length
Width
Surface
Rops




12/30          
1668          
45          
ASP          
Yes/Yes          













Airport map






Aerial View








Airport accidents



AT72, vicinity Stockholm Bromma Sweden, 2010