SBAU








Aracatuba Airport





Airport

ICAO code


  SBAU





IATA Code

ARU




Summary

ICAO Region

CARSAM



ICAO Territory





Brazil






 








Location

Aracatuba, Sao Paulo




Serving

Aracatuba



Elevation

1361 ft



Coordinates



    21°
    8'
          39"
        S
  
      ,
    
    50°
    25'
          35"
        W
  




KCC

Aw




Metar
SBAU 062200Z 21008KT 7000 NSC 29/15 Q1013








Dario Guarita–Araçatuba State Airport is the airport serving Araçatuba, Brazil.
Climatology
Tropical savanna climate (Köppen climate classification Aw)






Runways






Designator
Length
Width
Surface
Rops




5/23          
2120          
35          
ASP          
No/No          













Airport map






Aerial View