SBVH








Vilhena Airport





Airport

ICAO code


  SBVH





IATA Code

BVH




Summary

ICAO Region

CARSAM



ICAO Territory





Brazil






 








Location

Vilhena, Rondonia




Serving

Vilhena



Elevation

2018 ft



Coordinates



    12°
    41'
          59"
        S
  
      ,
    
    60°
    5'
          60"
        W
  




KCC

Aw




Metar
SBVH 071100Z 08003KT 4000 FU HZ NSC 22/09 Q1014








Brigadeiro Camarão Airport is the airport serving Vilhena, Brazil.
Climatology
Tropical savanna climate (Köppen climate classification Aw)






Runways






Designator
Length
Width
Surface
Rops




3/21          
2600          
30          
ASP          
No/No          













Airport map






Aerial View