UACC








Astana International Airport





Airport

ICAO code


  UACC





IATA Code

TSE




Summary

ICAO Region

APAC



ICAO Territory





Kazakhstan






 








Location

Astana,




Serving

Astana



Elevation

1165 ft



Coordinates



    51°
    1'
          24"
        N
  
      ,
    
    71°
    28'
          5"
        E
  




KCC

BSk



Airport BS

Bird Strike



Airport CFIT

Altimeter Temperature Error Correction



Airport WX

Cumulonimbus




Metar
UACC 071400Z 31002MPS 9999 SCT046CB 13/08 Q1018 NOSIG RMK QFE732/0977








Description
International airport serving Astana (Tselinograd), the capital city of Kazakhstan.
Climatology
Cold Semi-arid climate (Köppen climate classification BSk). - Hot, sometimes extremely hot summers and cold, sometimes very cold winters. Some snowfall during the winter. Areas featuring cold semi-arid climates are sometimes subject to major temperature swings during a 24 hour period.






Runways






Designator
Length
Width
Surface
Rops




4/22          
3500          
45          
ASP          
Yes/Yes          













Airport map






Aerial View