KGFA








Malmstrom Air Force Base





Airport

ICAO code


  KGFA





IATA Code

GFA




Summary

ICAO Region

NAM



ICAO Territory





United States






 








Location

Great Falls, Montana




Serving

Great Falls



Elevation

3471 ft



Coordinates



    47°
    30'
          17"
        N
  
      ,
    
    111°
    11'
          14"
        W
  




KCC

BSk



Airport CFIT

Altimeter Temperature Error Correction



Airport RE

Hot and High Operations




Metar
KGFA 071355Z AUTO 26004KT 10SM CLR 16/06 A3011 RMK AO2 SLP176 T01570056 $








Malmstrom Air Force Base is a United States Air Force installation located 6 nm east of the central business district of Great Falls, a city in Cascade County, Montana, USA.














Airport map






Aerial View