KCRP








Corpus Christi International Airport





Airport

ICAO code


  KCRP





IATA Code

CRP




Summary

ICAO Region

NAM



ICAO Territory





United States






 








Location

Corpus Christi, Texas




Serving

Corpus Christi



Elevation

44 ft



Coordinates



    27°
    46'
          30"
        N
  
      ,
    
    97°
    30'
          8"
        W
  




KCC

Cfa




Metar
KCRP 071351Z 02015G23KT 10SM FEW017 FEW034 FEW250 24/20 A2993 RMK AO2 SLP134 T02440200








Description
Corpus Christi International Airport is a public use airport located 5 nm west of the central business district of Corpus Christi, in Nueces County, Texas, USA.














Airport map






Aerial View