SMZO








Zorg en Hoop Airport





Airport

ICAO code


  SMZO





IATA Code

ORG




Summary

ICAO Region

CARSAM



ICAO Territory





Suriname






 








Location

Paramaribo, Paramaribo




Serving

Paramaribo



Elevation

10 ft



Coordinates



    5°
    48'
          40"
        N
  
      ,
    
    55°
    11'
          27"
        W
  




KCC

Af




Metar
SMZO 071400Z 09008KT 9999 FEW025 31/23 Q1011 NOSIG








Zorg en Hoop Airport is an airport serving general aviation in the city of Paramaribo, Suriname.
Climatology
Tropical rainforest climate (Köppen climate classification Af)














Airport map






Aerial View