UTAM








Mary International Airport





Airport

ICAO code


  UTAM





IATA Code

MYP




Summary

ICAO Region

EUR



ICAO Territory





Turkmenistan






 








Location

Mary, Turmenistan,




Serving

Mary



Elevation

728 ft



Coordinates



    37°
    36'
          24"
        N
  
      ,
    
    61°
    54'
          5"
        E
  





Metar
UTAM 071400Z 35006KT CAVOK 26/M03 Q1018 R88/CLRD70 NOSIG








Description
Mary International Airport is an airport in Turkmenistan. The airport is located 6 km north-east of the centre of Mary.






Runways






Designator
Length
Width
Surface
Rops




18R/36L          
2437          
30          
CON          
Yes/Yes          


18L/36R          
2776          
45          
CON          
Yes/Yes          













Airport map






Aerial View