LKPD








Pardubice Airport





Airport

ICAO code


  LKPD





IATA Code

PED




Summary

ICAO Region

EUR



ICAO Territory





Czech Republic






 








Location

Pardubice, Czech Republic




Serving

Pardubice



Elevation

741 ft



Coordinates



    50°
    0'
          56"
        N
  
      ,
    
    15°
    44'
          24"
        E
  




KCC

Dfb




Metar
LKPD 071330Z 13013KT 110V170 CAVOK 30/13 Q1014 NOSIG RMK BLU BLU








Description
Military airport (permitted to handle civil air traffic) serving the city of Pardubice, Czech Republic. Mainly used for charter flights.
Climatology
Humid Continental climate (Köppen climate classification Dfb) - Variable weather patterns and a large seasonal temperature variance. Summers are often warm and humid with frequent thunderstorms and winters can be very cold with frequent snowfall and persistent snow cover.






Runways






Designator
Length
Width
Surface
Rops




9/27          
2500          
75          
CON          
No/No          













Airport map






Aerial View








Airport accidents



B738, Pardubice Czech Republic, 2013