LBIA








Bezmer Air Base





Airport

ICAO code


  LBIA





IATA Code

JAM




Summary

ICAO Region

EUR



ICAO Territory





Bulgaria






 








Location

Bezmer, Yambol




Serving

Yambol



Elevation

509 ft



Coordinates



    42°
    27'
          17"
        N
  
      ,
    
    26°
    21'
          8"
        E
  




KCC

Dfb




Metar
LBIA 071200Z 03006KT 9999 BKN060 29/13 Q1017








Bezmer Air Base is an air base for the Bulgarian Air Force. The base is situated in the eastern part of the Upper Thracian Lowland, in Yambol Oblast.
Climatology
Humid continental climate (Köppen climate classification Dfb)














Airport map






Aerial View