CYQY








Sydney





Airport

ICAO code


  CYQY






Summary

ICAO Region

NAM



ICAO Territory





Canada






 








Location

Sydney, Nova Scotia,




Coordinates



    46°
    9'
          41"
        N
  
      ,
    
    60°
    2'
          52"
        W
  




KCC

Dfb




Metar
CYQY 071400Z 13020G27KT 15SM OVC014 19/16 A3012 RMK SC8 SLP203 DENSITY ALT 500FT








Description
International airport serving Sydney, Nova Scotia.
Climatology
Humid Continental climate (Köppen climate classification Dfb) - Variable weather patterns and a large seasonal temperature variance. Summers are often warm and humid with frequent thunderstorms and winters can be very cold with frequent snowfall and persistent snow cover.






Runways






Designator
Length
Width
Surface
Rops




1/19          
1829          
46          
ASP          
Yes/Yes          


7/25          
2155          
61          
ASP          
Yes/Yes          













Airport map






Aerial View