OITP








Parsabad-Moghan Airport





Airport

ICAO code


  OITP





IATA Code

PFQ




Summary

ICAO Region

MID



ICAO Territory





Iran






 








Location

Parsabad, Ardabil Province




Serving

Parsabad



Elevation

253 ft



Coordinates



    39°
    36'
          26"
        N
  
      ,
    
    47°
    52'
          37"
        E
  




KCC

BSk




Metar
OITP 071400Z 13010KT CAVOK 28/10 Q1017








Airport serving Parsabad in northern Iran close to the border with Azerbaijan.
Climatology
Temperate semi-arid climate (Köppen climate classification BSk).






Runways






Designator
Length
Width
Surface
Rops




11/29          
2595          
35          
ASP          
No/No          













Airport map






Aerial View