KTIK








Tinker Air Force Base





Airport

ICAO code


  KTIK






Summary

ICAO Region

NAM



ICAO Territory





United States






 








Location

Oklahoma City, Okalahoma,




Coordinates



    35°
    25'
          3"
        N
  
      ,
    
    97°
    23'
          15"
        W
  




KCC

Cfa




Metar
KTIK 071355Z AUTO 06009KT 10SM CLR 19/10 A3019 RMK AO2 SLP215 T01900095 $








Description
Tinker Air Force Base is a United States Air Force installation located 10 km southeast of the central business district of Oklahoma City, Oklahoma.
Climatology
Humid “subtropical” climate (Köppen climate classification Cfa) - characterized by hot, humid summers and cool winters. Significant amounts of precipitation occur in all seasons in most areas. Winter rainfall (and sometimes snowfall) is associated with large storms that the westerlies steer from west to east. Most summer rainfall occurs during thunderstorms and occasional tropical storms (hurricanes).






Runways






Designator
Length
Width
Surface
Rops




12/30          
3048          
61          
PEM          
Yes/Yes          


17/35          
3383          
61          
PEM          
Yes/Yes          













Airport map






Aerial View