KLCH








Lake Charles Regional Airport





Airport

ICAO code


  KLCH





IATA Code

LCH




Summary

ICAO Region

NAM



ICAO Territory





United States






 








Location

Lake Charles, Louisiana




Serving

Lake Charles



Elevation

15 ft



Coordinates



    30°
    7'
          33"
        N
  
      ,
    
    93°
    13'
          24"
        W
  




KCC

Cfa




Metar
KLCH 071353Z 04012G26KT 10SM BKN013 BKN038 23/19 A2992 RMK AO2 PK WND 04026/1345 SLP140 T02330194








Lake Charles Regional Airport is a public use airport located 5 nm south of the central business district of Lake Charles, a city in Calcasieu Parish, Louisiana.
 






Runways






Designator
Length
Width
Surface
Rops




5/23          
1585          
30          
ASP          
Yes/Yes          


15/33          
1981          
46          
CON          
Yes/Yes          













Airport map






Aerial View