PADM








Marshall Don Hunter Sr Airport





Airport

ICAO code


  PADM





IATA Code

MLL




Summary

ICAO Region

NAM



ICAO Territory





Alaska






 








Location

, Alaska




Serving

Marshall



Elevation

103 ft



Coordinates



    61°
    51'
          53"
        N
  
      ,
    
    162°
    1'
          34"
        W
  





Metar
PADM 071231Z AUTO 00000KT 1 1/4SM BR OVC004 04/04 A2998 RMK AO2









Runways






Designator
Length
Width
Surface
Rops




7/25          
976          
30          
GVL          
No/No          













Airport map






Aerial View