LDOS








Osijek Airport





Airport

ICAO code


  LDOS





IATA Code

OSI




Summary

ICAO Region

EUR



ICAO Territory





Croatia






 








Location

Klisa, Slavonia




Serving

Osijek



Elevation

291 ft



Coordinates



    45°
    27'
          39"
        N
  
      ,
    
    18°
    49'
          1"
        E
  




KCC

Dfb




Metar
LDOS 071300Z 16007KT 110V190 CAVOK 30/17 Q1016








Osijek Airport is the international airport of Osijek, Croatia.
Climatology
Humid continental climate (Köppen climate classification Dfb)






Runways






Designator
Length
Width
Surface
Rops




11/29          
2499          
45          
ASP          
No/No          













Airport map






Aerial View