LFBP








Pau Pyrénées Airport





Airport

ICAO code


  LFBP





IATA Code

PUF




Summary

ICAO Region

EUR



ICAO Territory





France






 








Location

Uzein, Aquitaine




Serving

Pau



Elevation

616 ft



Coordinates



    43°
    22'
          46"
        N
  
      ,
    
    0°
    25'
          6"
        W
  




KCC

Cfb




Metar
LFBP 071300Z AUTO 29006KT 240V320 9999 BKN033/// BKN045/// BKN052/// 21/15 Q1010 NOSIG








Description
Pau Pyrénées Airport (French: Aéroport Pau Pyrénées) is an airport serving Pau, France. It is located 10 km northwest of Pau in Uzein.
Climatology
Temperate Marine climate/Oceanic climate (Köppen climate classification Cfb). Moderately cool summer and comparatively warm winter with a temperature range of only 14°C. Prevailing south-westerly winds from the Atlantic Ocean.






Runways






Designator
Length
Width
Surface
Rops




13/31          
2500          
45          
ASP          
Yes/Yes          













Airport map






Aerial View