ESMQ








Kalmar





Airport

ICAO code


  ESMQ






Summary

ICAO Region

EUR



ICAO Territory





Sweden






 








Location

Kalmar,




Elevation

17 ft



Coordinates



    56°
    41'
          8"
        N
  
      ,
    
    16°
    17'
          15"
        E
  




KCC

Cfb




Metar
ESMQ 071220Z AUTO 12007KT 9999 NCD 25/16 Q1020








Description
Kalmar Airport is an airport in southeastern Sweden. The airport is located only some 5 km west of downtown Kalmar.
Climatology
Temperate Marine climate/Oceanic climate (Köppen climate classification Cfb). Moderately cool summer and comparatively warm winter.






Runways






Designator
Length
Width
Surface
Rops




5/23          
664          
40          
ASP          
Yes/Yes          


16/34          
2050          
45          
ASP          
Yes/Yes          













Airport map






Aerial View








Airport accidents



DH8D, vicinity Kalmar Sweden, 2006