KHLN








Helena Regional Airport





Airport

ICAO code


  KHLN





IATA Code

HLN




Summary

ICAO Region

NAM



ICAO Territory





United States






 








Location

Helena, Montana




Serving

Helena



Elevation

3877 ft



Coordinates



    46°
    36'
          35"
        N
  
      ,
    
    111°
    59'
          24"
        W
  




KCC

BSk



Airport CFIT

Altimeter Temperature Error Correction



Airport RE

Hot and High Operations



Airport WX

Mountain Waves




Metar
KHLN 071353Z 00000KT 9SM CLR 13/05 A3018 RMK AO2 SLP206 T01280050








Helena Regional Airport is a public use airport located 2 nm northeast of the central business district of Helena, a city in Lewis and Clark County, Montana, USA.
 














Airport map






Aerial View