UATT








Aktobe / Aktyubinsk Airport





Airport

ICAO code


  UATT





IATA Code

AKX




Summary

ICAO Region

APAC



ICAO Territory





Kazakhstan






 








Location

Aktobe,




Serving

Aktobe



Elevation

738 ft



Coordinates



    50°
    14'
          59"
        N
  
      ,
    
    57°
    12'
          9"
        E
  




KCC

BSk



Airport BS

Bird Strike



Airport CFIT

Altimeter Temperature Error Correction




Metar
UATT 071400Z 34006MPS 9999 FEW047 20/10 Q1023 NOSIG RMK QFE747/0996








Description
International airport serving the city of Aktobe.
Climatology
Cold Semi-arid climate (Köppen climate classification BSk). - Hot, sometimes extremely hot summers and cold, sometimes very cold winters. Some snowfall during the winter. Areas featuring cold semi-arid climates are sometimes subject to major temperature swings during a 24 hour period.






Runways






Designator
Length
Width
Surface
Rops




13/31          
3097          
60          
CON          
No/No          













Airport map






Aerial View