OITK








Khoy Airport





Airport

ICAO code


  OITK





IATA Code

KHY




Summary

ICAO Region

MID



ICAO Territory





Iran






 








Location

Azab, West Azerbaijan Province




Serving

Khoy



Elevation

3981 ft



Coordinates



    38°
    25'
          15"
        N
  
      ,
    
    44°
    58'
          22"
        E
  




KCC

BSk




Metar
OITK 071400Z 35008KT CAVOK 28/07 Q1016 A3000








Airport 12km south of the city of Khoy, Iran.
Climatology
Semi-arid climate (Köppen climate classification BSk).






Runways






Designator
Length
Width
Surface
Rops




15/33          
2801          
30          
ASP          
No/No          













Airport map






Aerial View