WARR








Surabaya/Juanda International Airport





Airport

ICAO code


  WARR





IATA Code

SUB




Summary

ICAO Region

APAC



ICAO Territory





Indonesia






 








Location

Sidoarjo, Jawa Timur




Serving

Surabaya



Elevation

9 ft



Coordinates



    7°
    22'
          47"
        S
  
      ,
    
    112°
    47'
          13"
        E
  




KCC

Aw




Metar
WARR 071430Z 09007KT 9000 NSC 28/25 Q1012 NOSIG








Juanda International Airport is an airport located in Sidoarjo, a small town near Surabaya, East Java. This airport serves Surabaya and surrounding areas.
Climatology
Tropical Savanna climate (Köppen climate classification Aw) - monthly mean temperature above 18°C in every month of the year and a pronounced dry season.














Airport map






Aerial View








Airport accidents



AT76, Surabaya Indonesia, 2014