PAFA








Fairbanks International





Airport

ICAO code


  PAFA






Summary

ICAO Region

NAM



ICAO Territory





Alaska






 








Location

Fairbanks,




Coordinates



    64°
    49'
          12"
        N
  
      ,
    
    147°
    51'
          52"
        W
  




KCC

Dfc



Airport BS

Bird Strike



Airport CFIT

Altimeter Temperature Error Correction




Metar
PAFA 071253Z 22007KT 10SM -RA BKN065 OVC100 12/09 A2974 RMK AO2 RAB1156E33B37 SLP075 P0000 T01220089 $








Description
International airport serving Fairbanks, Alaska.
Climatology
Subarctic climate (Köppen climate classification Dfc) - long, usually very cold winters, and short, cool to mild summers.






Runways






Designator
Length
Width
Surface
Rops




2/20          
884          
23          
GRVL          
Yes/Yes          


02W/20W          
1646          
30          
WATER          
No/No          


02R/20L          
1982          
30          
ASPH-G          
Yes/Yes          


02L/20R          
3597          
46          
ASPH-G          
Yes/Yes          













Airport map






Aerial View