LFST








Strasbourg Airport





Airport

ICAO code


  LFST





IATA Code

SXB




Summary

ICAO Region

EUR



ICAO Territory





France






 








Location

, Alsace




Serving

Strasbourg



Elevation

505 ft



Coordinates



    48°
    32'
          18"
        N
  
      ,
    
    7°
    37'
          42"
        E
  





Metar
LFST 071400Z AUTO 04005KT 340V060 CAVOK 27/20 Q1010 NOSIG









Runways






Designator
Length
Width
Surface
Rops




5/23          
2400          
45          
ASP          
Yes/Yes          













Airport map






Aerial View








Airport accidents



B712 / CRJ7, vicinity Strasbourg France, 2019