LFKF








Figari Sud-Corse Airport





Airport

ICAO code


  LFKF





IATA Code

FSC




Summary

ICAO Region

EUR



ICAO Territory





France






 








Location

, Corse




Serving

Figari



Elevation

87 ft



Coordinates



    41°
    30'
          2"
        N
  
      ,
    
    9°
    5'
          52"
        E
  





Metar
LFKF 071400Z AUTO 07014KT 030V100 CAVOK 30/24 Q1014 TEMPO 08015G25KT FEW040CB








Description
International airport serving Ajaccio south and central Corsica.
Climatology
Dry-summer subtropical ”Mediterranean" climate (Köppen climate classification Csa) - characterized by hot, dry summers and mild winters. During the summer, subtropical high pressure cells dominate, making rainfall unlikely except for the occasional thunderstorm. In the winter, periodic storms bring rain (snow at higher elevations).






Runways






Designator
Length
Width
Surface
Rops




5/23          
2480          
45          
ASP          
Yes/Yes          













Airport map






Aerial View