EGXE








Leeming Airport





Airport

ICAO code


  EGXE






Summary

ICAO Region

EUR



ICAO Territory





United Kingdom






 








Location

, England




Serving

Leeming



Elevation

132 ft



Coordinates



    54°
    17'
          33"
        N
  
      ,
    
    1°
    32'
          7"
        W
  





Metar
EGXE 071420Z 36008KT 9999 FEW009 BKN050 19/16 Q1011 TEMPO SCT022 RMK BLU TEMPO WHT









Runways






Designator
Length
Width
Surface
Rops




16/34          
2292          
46          
ASP          
No/No          













Airport map






Aerial View