GMAD








Agadir  Al Massira Airport





Airport

ICAO code


  GMAD





IATA Code

AGA




Summary

ICAO Region

AFI



ICAO Territory





Morocco






 








Location

Temsia, Souss-Massa region




Serving

Agadir



Elevation

226 ft



Coordinates



    30°
    19'
          30"
        N
  
      ,
    
    9°
    24'
          47"
        W
  




KCC

BSh




Metar
GMAD 071300Z 26014KT 8000 NSC 28/21 Q1008 TEMPO -TSRA SCT033CB BKN080








Agadir – Al Massira Airport is an international airport serving Agadir, a major city in southwest Morocco and the capital of Souss-Massa region.
Climatology
Warm semi-arid climate (Köppen climate classification BSh)






Runways






Designator
Length
Width
Surface
Rops




10/28          
3200          
45          
ASP          
Yes/Yes          













Airport map






Aerial View