LFJR








Angers-Loire Airport





Airport

ICAO code


  LFJR





IATA Code

ANE




Summary

ICAO Region

EUR



ICAO Territory





France






 








Location

Marcé, Pays de la Loire




Serving

Angers



Elevation

194 ft



Coordinates



    47°
    33'
          37"
        N
  
      ,
    
    0°
    18'
          44"
        W
  





Metar
LFJR 071400Z AUTO 20005KT 9999 VCTS ///CB 20/14 Q1008









Runways






Designator
Length
Width
Surface
Rops




8/26          
1800          
45          
ASP          
Yes/Yes          













Airport map






Aerial View