EGPI








Islay Airport





Airport

ICAO code


  EGPI





IATA Code

ILY




Summary

ICAO Region

EUR



ICAO Territory





United Kingdom






 








Location

, Scotland




Serving

Islay



Elevation

56 ft



Coordinates



    55°
    40'
          55"
        N
  
      ,
    
    6°
    15'
          24"
        W
  





Metar
EGPI 071420Z AUTO 27005KT 9999 NCD 19/14 Q1012









Runways






Designator
Length
Width
Surface
Rops




8/26          
635          
18          
ASP          
No/No          


13/31          
1545          
46          
ASP          
No/No          













Airport map






Aerial View