MMCE








Ciudad del Carmen International Airport





Airport

ICAO code


  MMCE





IATA Code

CME




Summary

ICAO Region

CARSAM



ICAO Territory





Mexico






 








Location

Cidad del Carmen, Campeche




Serving

Ciudad Del Carmen



Elevation

10 ft



Coordinates



    18°
    39'
          13"
        N
  
      ,
    
    91°
    47'
          56"
        W
  




KCC

Aw




Metar
MMCE 071244Z 27005KT 3SM BR BKN010 OVC060 26/25 A2969 RMK 8/46/ RAE32 VRB COND








International airport located in Ciudad del Carmen, Campeche, Mexico.
Climatology
Tropical Savannah climate (Köppen climate classification Aw)






Runways






Designator
Length
Width
Surface
Rops




13/31          
2200          
45          
ASP          
Yes/Yes          













Airport map






Aerial View