CYVQ








Norman Wells Airport





Airport

ICAO code


  CYVQ






Summary

ICAO Region

NAM



ICAO Territory





Canada






 








Location

Norman Wells, Northwest Territories,




Coordinates



    65°
    16'
          55"
        N
  
      ,
    
    126°
    48'
          6"
        W
  




KCC

Dfc



Airport BS

Non Avian Wildlife Hazards to Aircraft



Airport CFIT

Altimeter Temperature Error Correction



Airport GND

Aircraft Ground De/Anti Icing



Airport RE

Landing on Contaminated Runways




Metar
CYVQ 071400Z 29007KT 30SM -SHRA FEW050 BKN075 OVC150 12/09 A2963 RMK SC1AC7AC1 SC TR CVCTV CLD EMBD SLP039








Description
Norman Wells Airport is a regional airport located in Norman Wells, Northwest Territories, Canada.
Climatology
Subarctic climate (Köppen climate classification Dfc) - long, usually very cold winters, and short, cool to mild summers.






Runways






Designator
Length
Width
Surface
Rops




9/27          
1828          
46          
ASP          
No/No          













Airport map






Aerial View