RORK








Kitadaito Airport





Airport

ICAO code


  RORK





IATA Code

KTD




Summary

ICAO Region

APAC



ICAO Territory





Japan






 








Location

Kitadaito, Okinawa Prefecture




Serving

Kitadaitojima



Elevation

71 ft



Coordinates



    25°
    56'
          40"
        N
  
      ,
    
    131°
    19'
          28"
        E
  




KCC

Cfa




Metar
RORK 071300Z AUTO 06005KT 030V090 9999 -RA FEW012 SCT080 BKN160 28/26 Q1011








Kitadaitō Airport is located on the island of Kitadaitōjima in the village of Kitadaitō, Shimajiri District, Okinawa Prefecture, Japan.
Climatology
Humid Sub-tropical climate (Köppen climate classification Cfa)






Runways






Designator
Length
Width
Surface
Rops




3/21          
1500          
45          
ASP          
No/No          













Airport map






Aerial View