YSRI








RAAF Base Richmond





Airport

ICAO code


  YSRI





IATA Code

RCM




Summary

ICAO Region

APAC



ICAO Territory





Australia






 








Location

Hawkesbury, New South Wales




Serving

Richmond



Elevation

1 ft



Coordinates



    33°
    36'
          15"
        S
  
      ,
    
    150°
    46'
          55"
        E
  




KCC

Cfb




Metar
YSRI 071200Z AUTO 08004KT 9999 // BKN017 OVC034 18/17 Q1022








Royal Australian Air Force base on northern outskirts of Sydney; home to the Air Lift Group.
Climatology
Temperate Marine climate/Oceanic climate (Köppen climate classification Cfb). Moderately cool summer and comparatively warm winter














Airport map






Aerial View