KWRL








Worland Municipal Airport





Airport

ICAO code


  KWRL






Summary

ICAO Region

NAM



ICAO Territory





United States






 








Location

Worland, Wyoming,




Coordinates



    43°
    57'
          44"
        N
  
      ,
    
    107°
    57'
          2"
        W
  




KCC

BSk



Airport CFIT

Altimeter Temperature Error Correction



Airport WX

Mountain Waves




Metar
KWRL 071353Z AUTO 00000KT 10SM CLR 13/02 A3019 RMK AO2 SLP200 T01280017








Description
Worland Municipal Airport is a public use airport located 6 km south of the central business district of Worland, a city in Washakie County, Wyoming.
Climatology
Semi-arid climate (Köppen climate classification BSk). - Hot, sometimes extremely hot summers and cold, sometimes very cold winters. Some snowfall during the winter. Areas featuring cold semi-arid climates are sometimes subject to major temperature swings during a 24 hour period.






Runways






Designator
Length
Width
Surface
Rops




4/22          
683          
18          
GRS          
No/No          


10/28          
762          
18          
GRS          
No/No          


16/34          
2135          
30          
ASP          
No/No          













Airport map






Aerial View