KMGE








Dobbins Air Reserve Base





Airport

ICAO code


  KMGE





IATA Code

MGE




Summary

ICAO Region

NAM



ICAO Territory





United States






 








Location

Marietta, Georgia




Serving

Marietta



Elevation

1068 ft



Coordinates



    33°
    54'
          55"
        N
  
      ,
    
    84°
    30'
          59"
        W
  




KCC

Cfa




Metar
KMGE 071355Z 32008KT 10SM FEW025 FEW150 FEW250 24/18 A2993 RMK AO2A SLP127 T02410183 $








Dobbins Air Reserve Base or Dobbins ARB is a United States Air Force reserve air base located in Marietta, Georgia about 20 miles northwest of Atlanta.






Runways






Designator
Length
Width
Surface
Rops




110/290          
1219          
18          
ASPH          
No/No          


11/29          
3048          
91          
CON          
Yes/Yes          













Airport map






Aerial View