MMLT








Loreto International Airport





Airport

ICAO code


  MMLT





IATA Code

LTO




Summary

ICAO Region

CARSAM



ICAO Territory





Mexico






 








Location

Loreto Municipality, Baja California Sur




Serving

Loreto



Elevation

34 ft



Coordinates



    25°
    59'
          21"
        N
  
      ,
    
    111°
    20'
          54"
        W
  




KCC

BWh




Metar
MMLT 062340Z 07009KT 10SM SCT030 34/25 A2974 RMK SLP071 8/900 HZY








Loreto International Airport is an international airport located in the city of Loreto, in Loreto Municipality of Baja California Sur state, northwestern Mexico.
Climatology
Hot Desert Climate (Köppen climate classification BWh)






Runways






Designator
Length
Width
Surface
Rops




16/34          
2200          
45          
ASP          
Yes/Yes          













Airport map






Aerial View