LERT








Rota Naval Station Airport





Airport

ICAO code


  LERT






Summary

ICAO Region

EUR



ICAO Territory





Spain






 








Location

, Andalucia




Serving

Rota



Elevation

86 ft



Coordinates



    36°
    38'
          43"
        N
  
      ,
    
    6°
    20'
          58"
        W
  





Metar
LERT 071415Z 28011KT 250V320 9000 -SHRA FEW040CB SCT044 21/15 Q1012 NOSIG









Runways






Designator
Length
Width
Surface
Rops




10/28          
3689          
61          
ASP          
Yes/Yes          













Airport map






Aerial View