PAKP








Anaktuvuk Pass Airport





Airport

ICAO code


  PAKP





IATA Code

AKP




Summary

ICAO Region

NAM



ICAO Territory





Alaska






 








Location

Anaktuvuk Pass, Alaska




Serving

Anaktuvuk Pass



Elevation

2102 ft



Coordinates



    68°
    8'
          1"
        N
  
      ,
    
    151°
    44'
          35"
        W
  





Metar
PAKP 071333Z AUTO 06009KT 1 3/4SM UP BR OVC004 03/02 A2974 RMK AO2 UPB32 P0000









Runways






Designator
Length
Width
Surface
Rops




2/20          
1463          
30          
GRAVEL-G          
No/No          













Airport map






Aerial View