ELLX








Luxembourg





Airport

ICAO code


  ELLX






Summary

ICAO Region

EUR



ICAO Territory





Luxembourg






 








Location

Luxembourg,




Elevation

1234 ft



Coordinates



    49°
    37'
          24"
        N
  
      ,
    
    6°
    12'
          16"
        E
  




KCC

Cfb




Metar
ELLX 071420Z 11007KT CAVOK 25/17 Q1011 NOSIG








Description
International airport serving Luxembourg.
Climatology
Temperate Marine climate/Oceanic climate (Köppen climate classification Cfb). Moderately cool summer and comparatively warm winter with a temperature range of only 14°C. Prevailing south-westerly winds from the Atlantic Ocean.






Runways






Designator
Length
Width
Surface
Rops




6/24          
4000          
60          
PEM          
Yes/Yes          













Airport map






Aerial View








Airport accidents



B744 / Vehicle, Luxembourg Airport, Luxembourg 2010
F50, vicinity Luxembourg, 2002