KCOU








Columbia Regional Airport





Airport

ICAO code


  KCOU





IATA Code

COU




Summary

ICAO Region

NAM



ICAO Territory





United States






 








Location

Columbia, Missouri




Serving

Columbia & Jefferson City



Elevation

889 ft



Coordinates



    38°
    49'
          5"
        N
  
      ,
    
    92°
    13'
          11"
        W
  




KCC

Dfa




Metar
KCOU 071354Z 04008KT 10SM CLR 16/09 A3027 RMK AO2 SLP248 T01560089








Description
Columbia Regional Airport is a public use airport located 12 nm southeast of the central business district of Columbia, in Boone County, Missouri, USA.














Airport map






Aerial View