EHDL








Deelen Air Base





Airport

ICAO code


  EHDL





IATA Code

QAR




Summary

ICAO Region

EUR



ICAO Territory





Netherlands






 








Location

Deelen, Gelderland




Serving

Deelen



Elevation

158 ft



Coordinates



    52°
    3'
          38"
        N
  
      ,
    
    5°
    52'
          23"
        E
  




KCC

Cfb




Metar
EHDL 071425Z AUTO 10007KT 050V220 9999 OVC330 27/17 Q1010 BLU








Deelen Air Base is a military air base in the Netherlands in the province of Gelderland. Though once an active air base, it is now mostly used as a helicopter training site.
Climatology
Temperate Marine climate/Oceanic climate (Köppen climate classification Cfb). Moderately cool summer and comparatively warm winter with a temperature range of only 14°C. Prevailing south-westerly winds from the Atlantic Ocean.






Runways






Designator
Length
Width
Surface
Rops




2/20          
2950          
50          
PEM          
No/No          













Airport map






Aerial View