LEAS








Asturias





Airport

ICAO code


  LEAS






Summary

ICAO Region

EUR



ICAO Territory





Spain






 








Location

Asturias, Spain,




Coordinates



    43°
    33'
          34"
        N
  
      ,
    
    6°
    1'
          52"
        W
  




KCC

Cfb



Airport BS

Bird Strike



Airport WX

Fog




Metar
LEAS 071300Z 30013KT 260V350 9999 FEW060 20/13 Q1012 NOSIG








Description
International airport serving Asturias in northern spain.
Climatology
Temperate Marine climate/Oceanic climate (Köppen climate classification Cfb). Moderately cool summer and comparatively warm winter with a temperature range of only 14°C. Prevailing south-westerly winds from the Atlantic Ocean.






Runways






Designator
Length
Width
Surface
Rops




11/29          
2200          
45          
ASP          
Yes/Yes          













Airport map






Aerial View