KPOB








Pope Field





Airport

ICAO code


  KPOB






Summary

ICAO Region

NAM



ICAO Territory





United States






 








Location

Fayetteville, North Carolina,




Coordinates



    35°
    10'
          15"
        N
  
      ,
    
    79°
    0'
          52"
        W
  




KCC

Cfa




Metar
KPOB 071355Z AUTO 00000KT 10SM FEW005 OVC060 22/20 A2986 RMK AO2 SLP113 T02210204 $








Description
Pope Field, formerly known as Pope Air Force Base, is a military facility located 19 km northwest of the central business district of Fayetteville, in Cumberland County, North Carolina.
Climatology
Humid “subtropical” climate (Köppen climate classification Cfa) - characterized by hot, humid summers and cool winters. Significant amounts of precipitation occur in all seasons in most areas. Winter rainfall (and sometimes snowfall) is associated with large storms that the westerlies steer from west to east. Most summer rainfall occurs during thunderstorms and occasional tropical storms (hurricanes).






Runways






Designator
Length
Width
Surface
Rops




49/229          
914          
18          
ASPH          
No/No          


5/23          
2286          
46          
PEM          
Yes/Yes          













Airport map






Aerial View