VCCJ








Jaffna International Airport





Airport

ICAO code


  VCCJ





IATA Code

JAF




Summary

ICAO Region

APAC



ICAO Territory





Sri Lanka






 








Location

Palaly, Jaffna District




Serving

Jaffna



Elevation

33 ft



Coordinates



    9°
    47'
          32"
        N
  
      ,
    
    80°
    4'
          12"
        E
  




KCC

Aw




Metar
VCCJ 060710Z 20003KT 9999 SCT018 SCT100 32/26 Q1006 NOSIG








Jaffna International Airport, formerly known as Palaly Airport and Jaffna Airport, is an international airport serving northern Sri Lanka. It is also a military airbase known as Sri Lanka Air Force Palaly or SLAF Palaly.
Climatology
Tropical savanna climate (Köppen climate classification Aw)






Runways






Designator
Length
Width
Surface
Rops




5/23          
2286          
30          
ASP          
No/No          













Airport map






Aerial View