EGNH








Blackpool Airport





Airport

ICAO code


  EGNH





IATA Code

BLK




Summary

ICAO Region

EUR



ICAO Territory





United Kingdom






 








Location

St Annes-on-the-Sea, Lancashire, England




Serving

Blackpool



Elevation

34 ft



Coordinates



    53°
    46'
          17"
        N
  
      ,
    
    3°
    1'
          42"
        W
  




KCC

Cfb




Metar
EGNH 071220Z 11011KT 9000 FEW016 BKN021 21/16 Q1011








Privately owned airport near Blackpool, Lancashire, England.
Climatology
Temperate Marine climate/Oceanic climate (Köppen climate classification Cfb).






Runways






Designator
Length
Width
Surface
Rops




7/25          
799          
30          
ASP          
Yes/Yes          


13/31          
1077          
23          
ASP          
Yes/Yes          


10/28          
1869          
46          
ASP          
Yes/Yes          













Airport map






Aerial View