ZBAD








Beijing Daxing International Airport





Airport

ICAO code


  ZBAD





IATA Code

PKX




Summary

ICAO Region

APAC



ICAO Territory





China






 








Location

Tanchengcun, Beijing




Serving

Beijing



Elevation

98 ft



Coordinates



    39°
    30'
          33"
        N
  
      ,
    
    116°
    24'
          38"
        E
  




KCC

Dwa




Metar
ZBAD 071300Z 06003MPS CAVOK 22/19 Q1016 NOSIG








Beijing Daxing International Airport, located on the border of Beijing and Langfang, Hebei Province, is Beijing's second international airport.
Climatology
Humid continental climate (Köppen climate classification Dwa).














Airport map






Aerial View