ESPA








Lulea/Kallax





Airport

ICAO code


  ESPA






Summary

ICAO Region

EUR



ICAO Territory





Sweden






 








Location

Lulea, Sweden,




Elevation

65 ft



Coordinates



    65°
    32'
          38"
        N
  
      ,
    
    22°
    7'
          19"
        E
  




KCC

Dfc




Metar
ESPA 071150Z 17007KT CAVOK 19/15 Q1018








Description
Airport serving northern Sweden.
Climatology
Subarctic climate (Köppen climate classification Dfc) - long, usually very cold winters, and short, cool to mild summers.






Runways






Designator
Length
Width
Surface
Rops




14/32          
3350          
45          
ASP          
Yes/Yes          













Airport map






Aerial View