EFKU








Kuopio





Airport

ICAO code


  EFKU






Summary

ICAO Region

EUR



ICAO Territory





Finland






 








Location

Siilinjarvi,




Coordinates



    63°
    0'
          31"
        N
  
      ,
    
    27°
    47'
          40"
        E
  




KCC

Dfc



Airport GND

Aircraft Ground De/Anti Icing




Metar
EFKU 071120Z AUTO 25009KT CAVOK 22/12 Q1024








Description
Military/civil airport serving the city of Kuopio in Finland. The airport is located 9 nm north of the city centre.
Climatology
Subarctic climate (Köppen climate classification Dfc) - long, usually very cold winters, and short, cool to mild summers.






Runways






Designator
Length
Width
Surface
Rops




6/24          
1500          
45          
ASP          
No/No          


15/33          
2800          
60          
ASP          
Yes/Yes          













Airport map






Aerial View