SARP








Libertador General Jose de San Martin Airport





Airport

ICAO code


  SARP





IATA Code

PSS




Summary

ICAO Region

CARSAM



ICAO Territory





Argentina






 








Location

Posadas, Misiones




Serving

Posadas



Elevation

430 ft



Coordinates



    27°
    23'
          9"
        S
  
      ,
    
    55°
    58'
          15"
        W
  




KCC

Cfa




Metar
SARP 071300Z 07003KT 4000 FU NSC 22/18 Q1013








Airport serving city of Posadas, Misiones province, Argentina
Climatology
Humid Subtropical climate (Köppen climate classification Cfa).






Runways






Designator
Length
Width
Surface
Rops




1/19          
2200          
30          
ASP          
Yes/Yes          













Airport map






Aerial View