MPMG








Albrook Marcos A. Gelabert International Airport





Airport

ICAO code


  MPMG





IATA Code

PAC




Summary

ICAO Region

CARSAM



ICAO Territory





Panama






 








Location

Panama City, Panama




Serving

Panama City



Elevation

30 ft



Coordinates



    8°
    58'
          23"
        N
  
      ,
    
    79°
    33'
          27"
        W
  




KCC

Aw




Metar
MPMG 071300Z 11003KT 9000 -TSRA FEW006 SCT012CB SCT070 27/25 Q1009 NOSIG








Albrook "Marcos A. Gelabert" International Airport is a public airport located 1.5 km west of the center of Panama City, Panama.
Climatology
Tropical savannah climate (Köppen climate classification Aw)






Runways






Designator
Length
Width
Surface
Rops




18/36          
1800          
30          
ASP          
No/No          













Airport map






Aerial View