OIFS








Shahrekord Airport





Airport

ICAO code


  OIFS





IATA Code

CQD




Summary

ICAO Region

MID



ICAO Territory





Iran






 








Location

Shahrekord, Chaharmahal and Bakhtiari Province




Serving

Shahrekord



Elevation

6723 ft



Coordinates



    32°
    17'
          41"
        N
  
      ,
    
    50°
    50'
          16"
        E
  




KCC

BSk




Metar
OIFS 071400Z 22010KT CAVOK 31/M15 Q1019








Airport serving Shahr-e Kord, Iran.
Climatology
Cold Semi-arid climate (Köppen climate classification BSk).






Runways






Designator
Length
Width
Surface
Rops




14/32          
3298          
45          
ASP          
No/No          













Airport map






Aerial View