LIBG








Taranto-Grottaglie Airport





Airport

ICAO code


  LIBG





IATA Code

TAR




Summary

ICAO Region

EUR



ICAO Territory





Italy






 








Location

Moteiasi, Apulia




Serving

Taranto



Elevation

215 ft



Coordinates



    40°
    30'
          38"
        N
  
      ,
    
    17°
    23'
          56"
        E
  




KCC

Csa




Metar
LIBG 071209Z 16009KT 140V210 9999 FEW020 SCT040 26/22 Q1015 RETSRA








Taranto-Grottaglie "Marcello Arlotta" Airport is an airport serving Taranto and Grottaglie, both communes in the province of Taranto in Italy.
Climatology
Warm mediterranean climate (Köppen climate classification Csa)






Runways






Designator
Length
Width
Surface
Rops




17/35          
1710          
45          
ASP          
No/No          













Airport map






Aerial View