RJSY








Shonai Airport





Airport

ICAO code


  RJSY





IATA Code

SYO




Summary

ICAO Region

APAC



ICAO Territory





Japan






 








Location

Shonai, Yamagata Prefecture




Serving

Sakata and Tsuruoka



Elevation

72 ft



Coordinates



    38°
    48'
          57"
        N
  
      ,
    
    139°
    47'
          16"
        E
  




KCC

Dfa




Metar
RJSY 071200Z VRB02KT 9999 FEW002 SCT004 BKN010 23/23 Q1014








Regional airport in Sakata, Yamagata, Japan.
Climatology
Humid continental climate (Köppen climate classification Dfa)






Runways






Designator
Length
Width
Surface
Rops




9/27          
1999          
46          
ASP          
Yes/Yes          













Airport map






Aerial View