KTVF








Thief River Falls Regional Airport





Airport

ICAO code


  KTVF






Summary

ICAO Region

NAM



ICAO Territory





United States






 








Location

Thief River Falls, Minnesota,




Coordinates



    48°
    4'
          2"
        N
  
      ,
    
    96°
    10'
          46"
        W
  




KCC

Dfb



Airport CFIT

Altimeter Temperature Error Correction



Airport GND

Aircraft Ground De/Anti Icing



Airport RE

Landing on Contaminated Runways




Metar
KTVF 071356Z AUTO 20005KT 10SM CLR 12/10 A3027 RMK AO2 SLP257 T01170100








Description
Thief River Falls Regional Airport is a public use airport located 6 km south of the central business district of Thief River Falls, a city in Pennington County, Minnesota.
Climatology
Humid Continental climate (Köppen climate classification Dfb) - Variable weather patterns and a large seasonal temperature variance. Summers are often warm and humid with frequent thunderstorms and winters can be very cold with frequent snowfall and persistent snow cover.






Runways






Designator
Length
Width
Surface
Rops




3/21          
1523          
23          
ASP          
No/No          


13/31          
1982          
46          
ASP          
No/No          













Airport map






Aerial View