FLKK








Kenneth Kaunda International Airport





Airport

ICAO code


  FLKK





IATA Code

LUN




Summary

ICAO Region

AFI



ICAO Territory





Zambia






 








Location

Lusaka, Lusaka Province




Serving

Lusaka



Elevation

3779 ft



Coordinates



    15°
    19'
          43"
        S
  
      ,
    
    28°
    26'
          46"
        E
  




KCC

Cwa




Metar
FLKK 070600Z 11009KT CAVOK 22/06 Q1024








Kenneth Kaunda International Airport is an international airport in Lusaka, Zambia.
Climatology
Humid subtropical climate (Köppen climate classification Cwa)














Airport map






Aerial View