ENVA








Trondheim/Vaernes





Airport

ICAO code


  ENVA






Summary

ICAO Region

EUR



ICAO Territory





Norway






 








Location

Trondheim, Norway,




Elevation

56 ft



Coordinates



    63°
    27'
          28"
        N
  
      ,
    
    10°
    55'
          26"
        E
  




KCC

Cfb




Metar
ENVA 071220Z 25009KT 210V280 CAVOK 21/16 Q1019 NOSIG RMK WIND 670FT 31005KT








International airport serving Trondheim, Norway. Note that the only runway 09/27 is used.
Climatology
Temperate Marine climate/Oceanic climate (Köppen climate classification Cfb). Moderately cool summer and comparatively warm winter with a temperature range of only 14°C. Prevailing south-westerly winds from the Atlantic Ocean.






Runways






Designator
Length
Width
Surface
Rops




14/32          
950          
36          
ASP          
No/No          


13/31          
1454          
36          
ASP          
No/No          


9/27          
2759          
45          
ASP          
Yes/Yes          













Airport map






Aerial View