ESKN








Stockholm-Skavsta





Airport

ICAO code


  ESKN






Summary

ICAO Region

EUR



ICAO Territory





Sweden






 








Location

Nyköping,




Elevation

140 ft



Coordinates



    58°
    47'
          19"
        N
  
      ,
    
    16°
    54'
          44"
        E
  




KCC

Dfb




Metar
ESKN 071050Z 10007KT CAVOK 23/17 Q1022








Description
Stockholm-Skavsta Airport is an international airport near Nyköping, Sweden, approximately 100 km south of Stockholm. It serves Stockholm.
Climatology
Humid Continental climate (Köppen climate classification Dfb) - Variable weather patterns and a large seasonal temperature variance. Summers are often warm and humid with frequent thunderstorms and winters can be very cold with frequent snowfall and persistent snow cover.






Runways






Designator
Length
Width
Surface
Rops




16/34          
2039          
40          
ASP          
Yes/Yes          


8/26          
2878          
45          
ASP          
Yes/Yes          













Airport map






Aerial View








Airport accidents



B738, vicinity Skavsta Sweden, 2004