OINZ








Dasht-e Naz Airport





Airport

ICAO code


  OINZ





IATA Code

SRY




Summary

ICAO Region

MID



ICAO Territory





Iran






 








Location

Shah Abad, Mazandaran Province




Serving

Sari



Elevation

35 ft



Coordinates



    36°
    37'
          37"
        N
  
      ,
    
    53°
    12'
          14"
        E
  




KCC

Cfa




Metar
OINZ 071400Z 24014KT 5000 HZ FEW025CB SCT030 BKN070 26/21 Q1016








Airport located 23km northeast of Sari, Iran.
Climatology
Humid sub-tropical climate (Köppen climate classification Cfa).






Runways






Designator
Length
Width
Surface
Rops




16/34          
2648          
45          
ASP          
No/No          













Airport map






Aerial View