WAAA








Makassar/Sultan Hasanuddin International Airport





Airport

ICAO code


  WAAA





IATA Code

UPG




Summary

ICAO Region

APAC



ICAO Territory





Indonesia






 








Location

Maros, South Sulawesi




Serving

Makassar



Elevation

47 ft



Coordinates



    5°
    4'
          40"
        S
  
      ,
    
    119°
    32'
          58"
        E
  




KCC

Af




Metar
WAAA 071430Z 09003KT 8000 FEW020 26/24 Q1012 NOSIG








Description
Airport located 12nm north east of the city of Makassar, South Sulawesi, Indonesia.
Climatology
Tropical Rainforest climate (Köppen climate classification Af) - almost no distinct seasons, average daily temperature around 27°C throughout the year. Extensive cloud cover and heavy rainfall prevent temperatures from rising much over 33°C. The diurnal temperature change is between 2°C and 5°C which is greater than the annual temperature range of 2°C. Rainfall is heavy and is usually convectional and in the afternoon.














Airport map






Aerial View