KFWA








Fort Wayne International Airport





Airport

ICAO code


  KFWA





IATA Code

FWA




Summary

ICAO Region

NAM



ICAO Territory





United States






 








Location

Waynedale, Indiana




Serving

Fort Wayne



Elevation

814 ft



Coordinates



    40°
    58'
          42"
        N
  
      ,
    
    85°
    11'
          42"
        W
  




KCC

Dfa



Airport WX

Cumulonimbus




Metar
KFWA 071354Z 34011KT 10SM FEW020 FEW060 13/07 A3015 RMK AO2 SLP209 T01280072 $








International Airport located 8 nm southwest of the central business district of Fort Wayne, in Allen County, Indiana, USA.














Airport map






Aerial View