ESSV








Visby Airport





Airport

ICAO code


  ESSV





IATA Code

VBY




Summary

ICAO Region

EUR



ICAO Territory





Sweden






 








Location

Visby, Gotland,




Serving

Visby



Elevation

164 ft



Coordinates



    57°
    39'
          44"
        N
  
      ,
    
    18°
    20'
          38"
        E
  




KCC

Cfb




Metar
ESSV 071220Z 15012KT 120V180 CAVOK 27/14 Q1021








Description
Visby Airport is located about 3.5 km north of Visby, Gotland, Sweden.
Climatology
Temperate Marine climate/Oceanic climate (Köppen climate classification Cfb). Moderately cool summer and comparatively warm winter.






Runways






Designator
Length
Width
Surface
Rops




10/28          
1101          
40          
GRS          
No/No          


3/21          
2000          
45          
ASP          
Yes/Yes          













Airport map






Aerial View