EDFM








Mannheim City Airport





Airport

ICAO code


  EDFM






Summary

ICAO Region

EUR



ICAO Territory





Germany






 








Location

Mannheim, Germany,




Coordinates



    49°
    28'
          21"
        N
  
      ,
    
    8°
    30'
          56"
        E
  




KCC

Cfb




Metar
EDFM 071420Z 06006KT 030V090 CAVOK 30/17 Q1010








Description
Airport serving Mannheim, Germany.
Climatology
Temperate Marine climate/Oceanic climate (Köppen climate classification Cfb) - Moderately cool summer and comparatively warm winter.






Runways






Designator
Length
Width
Surface
Rops




09L/27R          
700          
30          
GRS          
No/No          


9/27          
1066          
25          
ASP          
Yes/Yes          













Airport map






Aerial View








Airport accidents



D328, Mannheim Germany, 2008