EGKA








Shoreham Airport





Airport

ICAO code


  EGKA





IATA Code

ESH




Summary

ICAO Region

EUR



ICAO Territory





United Kingdom






 








Location

, England




Serving

Shoreham By Sea



Elevation

7 ft



Coordinates



    50°
    50'
          8"
        N
  
      ,
    
    0°
    17'
          50"
        W
  




KCC

Cfb




Metar
EGKA 071350Z 01004KT 9999 VCSH FEW014 19/17 Q1008








Description
Also known as Brighton City Airport, Shoreham Airport is 1.9km west Shoreham-by-Sea. The airport is mainly used for general aviation and is the site of an annual airshow in August.
Climatology
Temperate Marine climate/Oceanic climate (Köppen climate classification Cfb). Moderately cool summer and comparatively warm winter with a temperature range of only 14°C. Prevailing south-westerly winds from the Atlantic Ocean.






Runways






Designator
Length
Width
Surface
Rops




13/31          
400          
30          
GRE          
No/No          


7/25          
877          
50          
GRE          
No/No          


2/20          
1036          
18          
ASP          
No/No          













Airport map






Aerial View








Airport accidents



HUNT, manoeuvring, vicinity Shoreham UK, 2015