SPNC








Alferez Fap David Figueroa Fernandini Airport





Airport

ICAO code


  SPNC





IATA Code

HUU




Summary

ICAO Region

CARSAM



ICAO Territory





Peru






 








Location

Amarilis, Huánuco




Serving

Huánuco



Elevation

6070 ft



Coordinates



    9°
    52'
          44"
        S
  
      ,
    
    76°
    12'
          17"
        W
  




KCC

BSh




Metar
SPNC 071300Z 09003KT 9000 FEW030 BKN100 16/11 Q1025 RMK TN12.7 HZ PP000








Airport serving Huánuco, Peru. It is the most important airport in the Huánuco Region and is operated by the civil government.
Climatology
Warm Semi-arid climate (Köppen climate classification BSh).






Runways






Designator
Length
Width
Surface
Rops




7/25          
2500          
30          
ASP          
No/No          













Airport map






Aerial View