KSBP








San Louis Obispo





Airport

ICAO code


  KSBP






Summary

ICAO Region

NAM



ICAO Territory





United States






 








Location

San Luis Obispo, California,




Serving

San Luis Obispo County



Coordinates



    35°
    14'
          16"
        N
  
      ,
    
    120°
    38'
          28"
        W
  




KCC

Csb




Metar
KSBP 071256Z AUTO 00000KT 10SM CLR 16/12 A2986 RMK AO2 SLP107 T01560122








Description
San Luis Obispo County Regional Airport (IATA: SBP), also known as McChesney Field, is an airport located in San Luis Obispo, California serving San Luis Obispo County.
Climatology
Dry-summer subtropical ”Mediterranean" climate (Köppen climate classification Csb) - characterized by warm, dry summers and mild winters.






Runways






Designator
Length
Width
Surface
Rops




7/25          
994          
30          
ASP          
Yes/Yes          


11/29          
1615          
46          
ASP          
Yes/Yes          













Airport map






Aerial View