SCIC








General Freire Airport





Airport

ICAO code


  SCIC






Summary

ICAO Region

CARSAM



ICAO Territory





Chile






 








Location

Curico, Maule




Serving

Curico



Elevation

722 ft



Coordinates



    34°
    58'
          0"
        S
  
      ,
    
    71°
    12'
          59"
        W
  




KCC

Csb




Metar
SCIC 071300Z 15003KT 2000 BR BKN006 OVC010 08/08 Q1021








Airport located on northeastern side of Curico, Maule, Chile.
Climatology
Temperate mediterranean climate (Köppen climate classification Csb)






Runways






Designator
Length
Width
Surface
Rops




1/19          
800          
18          
ASP          
No/No          













Airport map






Aerial View