KDFW








Dallas-Fort Worth International Airport





Airport

ICAO code


  KDFW





IATA Code

DFW




Summary

ICAO Region

NAM



ICAO Territory





United States






 








Location

Dallas, Texas




Serving

Dallas



Elevation

607 ft



Coordinates



    32°
    53'
          55"
        N
  
      ,
    
    97°
    2'
          25"
        W
  




KCC

Cfa



Airport LOS

Parallel Runway Operation




Metar
KDFW 071353Z 02012KT 10SM CLR 22/12 A3012 RMK AO2 SLP193 T02220122 $








Description
Large International airport serving the cities of Dallas and Fort Worth, Texas, USA.














Airport map






Aerial View








Airport accidents



B735/B733, Dallas-Fort Worth TX USA, 2001