PASM








St Mary's Airport





Airport

ICAO code


  PASM





IATA Code

KSM




Summary

ICAO Region

NAM



ICAO Territory





Alaska






 








Location

, Alaska




Serving

St Mary's



Elevation

312 ft



Coordinates



    62°
    3'
          38"
        N
  
      ,
    
    163°
    18'
          7"
        W
  





Metar
PASM 071231Z AUTO 00000KT 1 1/4SM BR SCT002 03/03 A2996 RMK AO2 VIS 1/2V5









Runways






Designator
Length
Width
Surface
Rops




6/24          
579          
18          
GVL          
No/No          


17/35          
1830          
46          
GVL          
No/No          













Airport map






Aerial View