EEKE








Kuressaare





Airport

ICAO code


  EEKE






Summary

ICAO Region

EUR



ICAO Territory





Estonia






 








Location

Kuressaare,




Coordinates



    58°
    13'
          47"
        N
  
      ,
    
    22°
    30'
          36"
        E
  





Metar
EEKE 071220Z AUTO 12008KT 9999 NCD 22/17 Q1024








Kuressaare Airport (IATA: URE, ICAO: EEKE) is an airport in Estonia. The airport is situated 3 km from the town of Kuressaare on Saaremaa island.






Runways






Designator
Length
Width
Surface
Rops




5/23          
799          
30          
ASP          
No/No          


17/35          
1518          
30          
ASP          
No/No          













Airport map






Aerial View