UASK








Oskemen/Ust-Kamenogorsk Airport





Airport

ICAO code


  UASK





IATA Code

UKK




Summary

ICAO Region

APAC



ICAO Territory





Kazakhstan






 








Location

Oskemen,




Serving

Oskemen



Elevation

939 ft



Coordinates



    50°
    1'
          54"
        N
  
      ,
    
    82°
    30'
          4"
        E
  




KCC

BSk



Airport BS

Bird Strike



Airport CFIT

Altimeter Temperature Error Correction




Metar
UASK 071400Z 20002MPS 9999 -SHRA BKN016CB OVC029 09/08 Q1022 NOSIG RMK QFE741/0988








Description
Regional airport serving Oskemen, the capital city of the East Kazakhstan Province.
Climatology
Cold Semi-arid climate (Köppen climate classification BSk). - Hot, sometimes extremely hot summers and cold, sometimes very cold winters. Some snowfall during the winter. Areas featuring cold semi-arid climates are sometimes subject to major temperature swings during a 24 hour period.






Runways






Designator
Length
Width
Surface
Rops




12L/30R          
1856          
61          
GRS          
No/No          


12/30          
2510          
42          
ASP          
No/No          













Airport map






Aerial View