EGMD








Lydd Airport





Airport

ICAO code


  EGMD





IATA Code

LYX




Summary

ICAO Region

EUR



ICAO Territory





United Kingdom






 








Location

, England




Serving

Lydd



Elevation

13 ft



Coordinates



    50°
    57'
          22"
        N
  
      ,
    
    0°
    56'
          21"
        E
  





Metar
EGMD 071420Z 09010KT 9999 FEW040 20/16 Q1009









Runways






Designator
Length
Width
Surface
Rops




14/32          
690          
35          
ASP          
No/No          


3/21          
1505          
37          
ASP          
No/No          













Airport map






Aerial View