DAAV








Jijel Ferhat Abbas Airport





Airport

ICAO code


  DAAV





IATA Code

GJL




Summary

ICAO Region

AFI



ICAO Territory





Algeria






 








Location

,




Serving

Jijel



Elevation

36 ft



Coordinates



    36°
    47'
          42"
        N
  
      ,
    
    5°
    52'
          25"
        E
  





Metar
DAAV 071100Z 35006KT 320V020 8000 NSC 35/16 Q1011









Runways






Designator
Length
Width
Surface
Rops




17/35          
2400          
45          
ASP          
No/No          













Airport map






Aerial View