LFRM








Le Mans-Arnage Airport





Airport

ICAO code


  LFRM





IATA Code

LME




Summary

ICAO Region

EUR



ICAO Territory





France






 








Location

, Pays de la Loire




Serving

Le Mans



Elevation

194 ft



Coordinates



    47°
    56'
          55"
        N
  
      ,
    
    0°
    12'
          6"
        E
  





Metar
LFRM 071400Z AUTO VRB01KT 9999 BKN030/// BKN038/// ///CB 21/16 Q1007 TEMPO VRB15G30KT 2500 TSRAGR BKN012 BKN018CB









Runways






Designator
Length
Width
Surface
Rops




2/20          
1420          
30          
ASP          
No/No          













Airport map






Aerial View