LIEE








Cagliari/Elmas Airport





Airport

ICAO code


  LIEE





IATA Code

CAG




Summary

ICAO Region

EUR



ICAO Territory





Italy






 








Location

Elmas, Sardinia




Serving

Cagliari



Elevation

13 ft



Coordinates



    39°
    15'
          9"
        N
  
      ,
    
    9°
    3'
          18"
        E
  




KCC

Csa




Metar
LIEE 071350Z 17013KT CAVOK 32/24 Q1013








Cagliari-Elmas Airport is an international airport located in the territory of Elmas, near Cagliari, on the island of Sardinia, Italy.
Climatology
Dry-summer subtropical ”Mediterranean" climate (Köppen climate classification Csa) - characterized by hot, dry summers and mild winters. During the summer, subtropical high pressure cells dominate, making rainfall unlikely except for the occasional thunderstorm. In the winter, periodic storms bring rain (snow at higher elevations).






Runways






Designator
Length
Width
Surface
Rops




14/32          
2803          
45          
ASP          
Yes/Yes          













Airport map






Aerial View








Airport accidents



C550, vicinity Cagliari Sardinia Italy, 2004