SPJJ








Francisco Carle Airport





Airport

ICAO code


  SPJJ





IATA Code

JAU




Summary

ICAO Region

CARSAM



ICAO Territory





Peru






 








Location

Jauja, Junin




Serving

Jauja



Elevation

11034 ft



Coordinates



    11°
    46'
          59"
        S
  
      ,
    
    75°
    28'
          24"
        W
  




KCC

Cwb




Metar
SPJJ 071300Z 34006KT CAVOK 08/02 Q1035 RMK PP000








A high-elevation regional airport serving Jauja, in the Junin Region of Peru, and surrounding cities such as Huancayo and Tarma.
Climatology
Sub-tropical Highland climate (Köppen climate classification Cwb).






Runways






Designator
Length
Width
Surface
Rops




13/31          
2810          
45          
ASP          
No/No          













Airport map






Aerial View