SBSL








Marechal Cunha Machado International Airport





Airport

ICAO code


  SBSL





IATA Code

SLZ




Summary

ICAO Region

CARSAM



ICAO Territory





Brazil






 








Location

São Luís, Maranhão




Serving

São Luís



Elevation

178 ft



Coordinates



    2°
    35'
          13"
        S
  
      ,
    
    44°
    14'
          10"
        W
  




KCC

Aw




Metar
SBSL 071200Z 07018KT 9999 FEW025 28/23 Q1013








Marechal Cunha Machado International Airport (IATA: SLZ, ICAO: SBSL), formerly called Tirirical Airport, is the airport serving São Luís, Brazil. Since 17 October 1985 the airport is named after Marechal Cunha Machado.
Climatology
Tropical savanna climate (Köppen climate classification Aw)






Runways






Designator
Length
Width
Surface
Rops




9/27          
1464          
45          
ASP          
Yes/Yes          


6/24          
2386          
45          
ASP          
Yes/Yes          













Airport map






Aerial View