KNFW








Naval Air Station Joint Reserve Base Fort Worth





Airport

ICAO code


  KNFW






Summary

ICAO Region

NAM



ICAO Territory





United States






 








Location

Fort Worth, Texas,




Coordinates



    32°
    46'
          9"
        N
  
      ,
    
    97°
    26'
          29"
        W
  




KCC

Cfa




Metar
KNFW 071352Z 05009KT 10SM CLR 23/11 A3014 RMK AO2 SLP188 T02280111 $








Description
Naval Air Station Fort Worth Joint Reserve Base, also known as NAS Fort Worth JRB, includes Carswell Field, a military aerodrome located 9 km west of the central business district of Fort Worth, in Tarrant County, Texas.
Climatology
Humid “subtropical” climate (Köppen climate classification Cfa) - characterized by hot, humid summers and cool winters. Significant amounts of precipitation occur in all seasons in most areas. Winter rainfall (and sometimes snowfall) is associated with large storms that the westerlies steer from west to east. Most summer rainfall occurs during thunderstorms and occasional tropical storms (hurricanes).






Runways






Designator
Length
Width
Surface
Rops




17/35          
3658          
61          
CON          
Yes/Yes          













Airport map






Aerial View