LFRJ








Landivisiau Air Base





Airport

ICAO code


  LFRJ






Summary

ICAO Region

EUR



ICAO Territory





France






 








Location

, Bretagne




Serving

Landivisiau



Elevation

348 ft



Coordinates



    48°
    31'
          49"
        N
  
      ,
    
    4°
    9'
          6"
        W
  





Metar
LFRJ 071400Z AUTO 20010KT 160V230 9999 FEW026/// SCT038/// ///TCU 20/14 Q1007









Runways






Designator
Length
Width
Surface
Rops




8/26          
2700          
45          
CON          
No/No          













Airport map






Aerial View