EDVE








Braunschweig Airport





Airport

ICAO code


  EDVE





IATA Code

BWE




Summary

ICAO Region

EUR



ICAO Territory





Germany






 








Location

Braunschweig, Lower Saxony




Serving

Braunschweig



Elevation

295 ft



Coordinates



    52°
    19'
          9"
        N
  
      ,
    
    10°
    33'
          12"
        E
  




KCC

Cfb




Metar
EDVE 071420Z 13008KT CAVOK 30/12 Q1012








Description
Airport on the northern edge of Braunschweig, Germany.
Climatology
Temperate Marine climate/Oceanic climate (Köppen climate classification Cfb) - Moderately cool summer and comparatively warm winter.






Runways






Designator
Length
Width
Surface
Rops




08R/26L          
900          
30          
GRS          
No/No          


8/26          
1680          
30          
ASP          
Yes/Yes          













Airport map






Aerial View