KOFF








Offutt Air Force Base





Airport

ICAO code


  KOFF






Summary

ICAO Region

NAM



ICAO Territory





United States






 








Location

Omaha, Nebraska,




Coordinates



    41°
    7'
          10"
        N
  
      ,
    
    95°
    54'
          31"
        W
  




KCC

Dfa




Metar
KOFF 071359Z 00000KT 10SM CLR 14/11 A3031 RMK AO2A SLP269 T01440112








Description
Offutt Air Force Base is a United States Air Force installation located in Sarpy County, Nebraska, 15 km south of the central business district of Omaha, Nebraska.
Climatology
Humid continental climate (Köppen climate classification Dfa) - characterized by four seasons: cold, windy, snowy winters, mild springs, hot, humid summers, and crisp and relatively short autumns. Precipitation reaches its lowest in January and February and peaks in summer and latter half of spring.






Runways






Designator
Length
Width
Surface
Rops




12/30          
3566          
91          
PEM          
Yes/Yes          













Airport map






Aerial View