KSAW








Sawyer International Airport





Airport

ICAO code


  KSAW






Summary

ICAO Region

NAM



ICAO Territory





United States






 








Location

Marquette / Gwinn, Michigan,




Coordinates



    46°
    21'
          16"
        N
  
      ,
    
    87°
    23'
          40"
        W
  




KCC

Dfb



Airport CFIT

Altimeter Temperature Error Correction




Metar
KSAW 071345Z 02013KT 10SM BKN030 OVC035 09/04 A3023








Description
Sawyer International Airport is a public airport located 27 km south of the central business district of Marquette, a city in Marquette County, Michigan.
Climatology
Humid Continental climate (Köppen climate classification Dfb) - Variable weather patterns and a large seasonal temperature variance. Summers are often warm and humid with frequent thunderstorms and winters can be very cold with frequent snowfall and persistent snow cover.






Runways






Designator
Length
Width
Surface
Rops




1/19          
3770          
46          
PEM          
Yes/Yes          













Airport map






Aerial View