YPWR








Woomera Airfield





Airport

ICAO code


  YPWR





IATA Code

UMR




Summary

ICAO Region

APAC



ICAO Territory





Australia






 








Location

Woomera, South Australia




Serving

Woomera



Elevation

548 ft



Coordinates



    31°
    8'
          39"
        S
  
      ,
    
    136°
    49'
          1"
        E
  





Metar
YPWR 071200Z AUTO 22005KT 160V250 9999 // NCD 16/04 Q1026 RF00.0/000.0

















Airport map






Aerial View