DAOF








Tindouf Airport





Airport

ICAO code


  DAOF





IATA Code

TIN




Summary

ICAO Region

AFI



ICAO Territory





Algeria






 








Location

, Tindouf




Serving

Tindouf



Elevation

1453 ft



Coordinates



    27°
    42'
          1"
        N
  
      ,
    
    8°
    10'
          2"
        W
  





Metar
DAOF 071200Z 11014KT 6000 FEW030CB SCT046 35/22 Q1011









Runways






Designator
Length
Width
Surface
Rops




8/26          
2999          
46          
ASP          
No/No          


08R/26L          
2999          
46          
ASP          
No/No          













Airport map






Aerial View