LDSB








Brač Airport





Airport

ICAO code


  LDSB





IATA Code

BWK




Summary

ICAO Region

EUR



ICAO Territory





Croatia






 








Location

Bol, Brač




Serving

Brač



Elevation

1781 ft



Coordinates



    43°
    17'
          9"
        N
  
      ,
    
    16°
    40'
          47"
        E
  




KCC

Csa




Metar
LDSB 071300Z 24008KT 9999 FEW027 27/15 Q1018








Brač Airport is an airport on the Croatian island of Brač, close to the town of Bol, after which it is sometimes also named informally.
Climatology
Warm mediterranean climate (Köppen climate classification Csa)






Runways






Designator
Length
Width
Surface
Rops




4/22          
1440          
30          
ASP          
No/No          













Airport map






Aerial View