MMTJ








General Abelardo L. Rodríguez International Airport





Airport

ICAO code


  MMTJ





IATA Code

TIJ




Summary

ICAO Region

CARSAM



ICAO Territory





Mexico






 








Location

Tijuana, Baja California




Serving

Tijuana



Elevation

489 ft



Coordinates



    32°
    32'
          28"
        N
  
      ,
    
    116°
    58'
          13"
        W
  





Metar
MMTJ 071241Z 00000KT 8SM BKN180 24/19 A2983 RMK 8/008 HZY








Description
Tijuana International Airport is located in Tijuana, Baja California, Mexico.
Climatology
Semi-arid or Mediterranean (Köppen climate classification BSh or Csa/Csb). It enjoys mild, sunny weather throughout the year.






Runways






Designator
Length
Width
Surface
Rops




9/27          
2960          
44          
CON          
Yes/Yes          













Airport map






Aerial View