LESO








San Sebastián





Airport

ICAO code


  LESO






Summary

ICAO Region

EUR



ICAO Territory





Spain






 








Location

Hondarribia, Basque Country,




Coordinates



    43°
    21'
          23"
        N
  
      ,
    
    1°
    47'
          26"
        W
  





Metar
LESO 071400Z 36005KT 290V050 9999 FEW033 21/15 Q1011








Description
San Sebastián Airport is the airport serving San Sebastián in Basque Country, Spain. Despite its name, the facilities are located in the municipality of Hondarribia, with the runway stretching like a spit of land along the river Bidasoa right on the Spanish-French border.
Climatology






Runways






Designator
Length
Width
Surface
Rops




4/22          
1754          
45          
ASP          
Yes/Yes          













Airport map






Aerial View








Airport accidents



CRJ9, San Sebastian Spain, 2013