UMMS








Minsk International Airport





Airport

ICAO code


  UMMS





IATA Code

MSQ




Summary

ICAO Region

EUR



ICAO Territory





Russian Federation






 








Location

Vykacheno, Smalyavichy Raion




Serving

Minsk



Elevation

669 ft



Coordinates



    53°
    53'
          19"
        N
  
      ,
    
    28°
    2'
          9"
        E
  




KCC

Dfb




Metar
UMMS 071100Z 17006G10MPS CAVOK 25/06 Q1028 NOSIG








Minsk National Airport (formerly known as Minsk-2) is the main international airport in Belarus, located 25nm to the east of the capital Minsk.
Climatology
Humid Continental climate (Köppen climate classification Dfb)






Runways






Designator
Length
Width
Surface
Rops




13/31          
3641          
60          
CON          
Yes/Yes          













Airport map






Aerial View