VVPB








Phu Bai International Airport





Airport

ICAO code


  VVPB





IATA Code

HUI




Summary

ICAO Region

APAC



ICAO Territory





Vietnam






 








Location

Phu Bai, Hue




Serving

Hue



Elevation

49 ft



Coordinates



    16°
    24'
          6"
        N
  
      ,
    
    107°
    42'
          10"
        E
  




KCC

Am




Metar
VVPB 071300Z 16001KT 9999 FEW020 30/26 Q1002 NOSIG








Phu Bai International Airport is located just south of the central city of Huế, former capital of Vietnam.
Climatology
Tropical monsoon climate (Köppen climate classification Am)














Airport map






Aerial View