CYQX








Gander International





Airport

ICAO code


  CYQX





IATA Code

YQX




Summary

ICAO Region

NAM



ICAO Territory





Canada






 








Location

Gander, Newfoundland,




Serving

Gander



Elevation

496 ft



Coordinates



    48°
    56'
          13"
        N
  
      ,
    
    54°
    34'
          5"
        W
  




KCC

Dfb




Metar
CYQX 071500Z 16006KT 120V230 20SM BKN210 25/07 A3030 RMK CC5 SLP261 DENSITY ALT 1400FT








Description
International airport serving Gander, Newfoundland.
Climatology
Humid Continental climate (Köppen climate classification Dfb) - Variable weather patterns and a large seasonal temperature variance. Summers are often warm and humid with frequent thunderstorms and winters can be very cold with frequent snowfall and persistent snow cover.
The separate article climate Newfoundland contains more detail on the climate of Newfoundland and associated weather phenomena.






Runways






Designator
Length
Width
Surface
Rops




9/27          
572          
15          
ASP          
Yes/Yes          


13/31          
2713          
61          
ASP          
Yes/Yes          


3/21          
3109          
61          
ASP          
Yes/Yes          













Airport map






Aerial View