SLVM








Teniente Coronel Rafael Pabón Airport





Airport

ICAO code


  SLVM






Summary

ICAO Region

CARSAM



ICAO Territory





Bolivia






 








Location

Vilamontes, Tarija




Serving

Villamontes



Elevation

1305 ft



Coordinates



    21°
    15'
          19"
        S
  
      ,
    
    63°
    24'
          20"
        W
  




KCC

Cwa




Metar
SLVM 062100Z 36004KT 5000 FU NSC 36/19 Q1002








Airport serving the city of Villamontes in the Gran Chaco Province of the Tarija Department of Bolivia.
Climatology
Humid sub tropical climate (Köppen climate classification Cwa).






Runways






Designator
Length
Width
Surface
Rops




18/36          
1499          
35          
ASP          
No/No          













Airport map






Aerial View