DIBK








Bouaké Airport





Airport

ICAO code


  DIBK





IATA Code

BYK




Summary

ICAO Region

AFI



ICAO Territory





Côte d’Ivoire






 








Location

Bouaké, Gebeke Region




Serving

Bouaké



Elevation

1231 ft



Coordinates



    7°
    44'
          20"
        N
  
      ,
    
    5°
    4'
          25"
        W
  




KCC

Aw




Metar
DIBK 071400Z 22006KT 9999 BKN015 28/22 Q1014 NOSIG








Bouaké Airport is an airport located in Bouaké, the second largest city in Côte d'Ivoire.
Climatology
Tropical Savannah climate (Köppen climate classification Aw)






Runways






Designator
Length
Width
Surface
Rops




3/21          
3300          
45          
ASP          
No/No          













Airport map






Aerial View