PAEH








Cape Newenham LRRS Airport





Airport

ICAO code


  PAEH





IATA Code

EHM




Summary

ICAO Region

NAM



ICAO Territory





Alaska






 








Location

Cape Newenham, Alaska




Serving

Cape Newenham



Elevation

541 ft



Coordinates



    58°
    38'
          47"
        N
  
      ,
    
    162°
    3'
          46"
        W
  





Metar
PAEH 071255Z AUTO 30005KT 10SM OVC006 08/07 A3002 RMK AO2 SLP169 T00810071 $









Runways






Designator
Length
Width
Surface
Rops




14/32          
1204          
46          
GVL          
No/No          













Airport map






Aerial View