CYKA








Kamloops Airport





Airport

ICAO code


  CYKA






Summary

ICAO Region

NAM



ICAO Territory





Canada






 








Location

Kamloops, British Columbia,




Coordinates



    50°
    42'
          8"
        N
  
      ,
    
    120°
    26'
          31"
        W
  




KCC

BSk



Airport BS

Bird Strike




Metar
CYKA 071400Z 00000KT 30SM SKC 12/08 A3006 RMK FU SLP181








Description
Regional airport located near Kamloops, British Columbia.
Climatology
Semi-arid Steppe climate (Köppen climate classification BSk) - Little precipitation, hot summers and cold winters, sometimes with large changes in temperature in a 24 hour period.






Runways






Designator
Length
Width
Surface
Rops




4/22          
632          
15          
ASP          
Yes/Yes          


8/26          
1829          
45          
ASP          
Yes/Yes          













Airport map






Aerial View