KNCA








Marine Corps Air Station New River





Airport

ICAO code


  KNCA






Summary

ICAO Region

NAM



ICAO Territory





United States






 








Location

Jacksonville, North Carolina




Serving

Jacksonville



Elevation

26 ft



Coordinates



    34°
    42'
          38"
        N
  
      ,
    
    77°
    26'
          21"
        W
  




KCC

Cfa




Metar
KNCA 071356Z AUTO 03005KT 9SM -RA SCT006 OVC026 22/21 A2984 RMK AO2 RAE10B31 SLP106 P0001 T02170211 $








Marine Corps Air Station New River is a United States Marine Corps helicopter and tilt-rotor base located 2 nm south of the central business district of Jacksonville, North Carolina, USA.






Runways






Designator
Length
Width
Surface
Rops




1/19          
1460          
46          
ASP          
Yes/Yes          


5/23          
1559          
46          
ASP          
Yes/Yes          













Airport map






Aerial View