SPSO








Capitán FAP Renán Elías Olivera International Airport





Airport

ICAO code


  SPSO





IATA Code

PIO




Summary

ICAO Region

CARSAM



ICAO Territory





Peru






 








Location

Pisco, Ica




Serving

Pisco



Elevation

39 ft



Coordinates



    13°
    44'
          42"
        S
  
      ,
    
    76°
    13'
          13"
        W
  




KCC

BWh




Metar
SPSO 071300Z 00000KT 4000 BR BKN010 17/14 Q1014 RMK BIRD HAZARD RWY 22/04 PP000








airport serving Pisco, an oceanside city in the Ica Region of Peru. It is used by the Peruvian Army, but it can be also used by civil aircraft.
Climatology
Warm Desert climate (Köppen climate classification BWh).






Runways






Designator
Length
Width
Surface
Rops




4/22          
3020          
45          
ASP          
No/No          













Airport map






Aerial View