LEAL








Alicante-Elche Airport





Airport

ICAO code


  LEAL





IATA Code

ALC




Summary

ICAO Region

EUR



ICAO Territory





Spain






 








Location

Elche, Alicante




Serving

Alicante



Elevation

142 ft



Coordinates



    38°
    17'
          2"
        N
  
      ,
    
    0°
    33'
          37"
        W
  




KCC

Csa




Metar
LEAL 071230Z 11008KT 070V140 CAVOK 30/17 Q1009 NOSIG








Description
International airport serving Alicante, Spain. Alicante Airport, originally named El Altet is the main airport for the Province of Alicante and the Region of Murcia. The airport is situated 9 km southwest of Alicante in the municipality of Elche on Mediterranean coast.
Climatology
Dry-summer subtropical ”Mediterranean" climate (Köppen climate classification Csa) - characterized by hot, dry summers and mild winters. During the summer, subtropical high pressure cells dominate, making rainfall unlikely except for the occasional thunderstorm. In the winter, periodic storms bring rain (snow at higher elevations).






Runways






Designator
Length
Width
Surface
Rops




10/28          
3000          
45          
ASP          
Yes/Yes          













Airport map






Aerial View








Airport accidents



B752, Alicante Spain, 2017
B738, Alicante Spain, 2018
B738, Alicante Spain, 2013