SCCH








Gral. Bernardo O´Higgins Airport





Airport

ICAO code


  SCCH





IATA Code

YAI




Summary

ICAO Region

CARSAM



ICAO Territory





Chile






 








Location

Chillan, Bio-Bio




Serving

Chillan



Elevation

495 ft



Coordinates



    36°
    34'
          57"
        S
  
      ,
    
    72°
    1'
          53"
        W
  




KCC

Csa




Metar
SCCH 071300Z VRB03KT 9999 SCT020 08/06 Q1022








Airport located at Chilean in the Nuble province of the Bio-Bio region on Chile.
Climatology
Mediterranean climate (Köppen climate classification Csa)






Runways






Designator
Length
Width
Surface
Rops




4/22          
1750          
30          
ASP          
No/No          













Airport map






Aerial View