TUPJ








Beef Island/Terrance B. Lettsome International





Airport

ICAO code


  TUPJ





IATA Code

EIS




Summary

ICAO Region

CARSAM



ICAO Territory





British Virgin Islands






 








Location

Beef Island, BVI




Serving

Tortola



Elevation

16 ft



Coordinates



    18°
    26'
          45"
        N
  
      ,
    
    64°
    32'
          30"
        W
  




KCC

Aw




Metar
TUPJ 071400Z 07008KT 10SM VCSH FEW016CB BKN019 30/26 A2988 RMK Q1011 VIS16KM








Description
Terrance B. Lettsome International Airport, previously known as Beef Island Airport, is the main airport serving the British Virgin Islands, a British overseas territory in the Caribbean. The airport serves as the gateway to just about all of the islands within the BVI. Many travelers fly into Beef Island, with the intention of taking the ferry to the other smaller British Virgin Islands. The airport is located on Beef Island, a small island off the main island of Tortola, to which it is connected by the Queen Elizabeth II Bridge.
Climatology
Tropical Savanna climate (Köppen climate classification Aw)






Runways






Designator
Length
Width
Surface
Rops




7/25          
1415          
27          
ASP          
No/No          













Airport map






Aerial View