OIAH








Gachsaran Airport





Airport

ICAO code


  OIAH





IATA Code

GCH




Summary

ICAO Region

MID



ICAO Territory





Iran






 








Location

Sharak-E-Hedyat, Kohgiluyeh and Boer-Ahmad Province




Serving

Gachsaran



Elevation

2414 ft



Coordinates



    30°
    20'
          10"
        N
  
      ,
    
    50°
    49'
          50"
        E
  




KCC

BWh




Metar
OIAH 071400Z 30012KT CAVOK 38/07 Q1008








Airport serving Gachsaran, Iran,
Climatology
Warm Desert climate (Köppen climate classification BWh).






Runways






Designator
Length
Width
Surface
Rops




12/30          
1850          
45          
ASP          
No/No          













Airport map






Aerial View