EKBI








Billund





Airport

ICAO code


  EKBI






Summary

ICAO Region

EUR



ICAO Territory





Denmark






 








Location

Billund,




Elevation

247 ft



Coordinates



    55°
    44'
          25"
        N
  
      ,
    
    9°
    9'
          6"
        E
  




KCC

Cfb




Metar
EKBI 071220Z AUTO 09010KT 050V120 9999 NCD 24/16 Q1014








Description
Billund Airport located 1 nm northeast of Billund, Denmark.
Climatology
Temperate Marine climate/Oceanic climate (Köppen climate classification Cfb). Moderately cool summer and comparatively warm winter with a temperature range of only 14°C. Prevailing south-westerly winds from the Atlantic Ocean.






Runways






Designator
Length
Width
Surface
Rops




9/27          
3100          
45          
ASP          
Yes/Yes          













Airport map






Aerial View








Airport accidents



SB20, vicinity Billund Denmark, 2015
B735, vicinity Billund Denmark, 1999