RJDB








Iki Airport





Airport

ICAO code


  RJDB





IATA Code

IKI




Summary

ICAO Region

APAC



ICAO Territory





Japan






 








Location

Iki, Nagasaki Prefecture




Serving

Iki



Elevation

41 ft



Coordinates



    33°
    45'
          1"
        N
  
      ,
    
    129°
    47'
          3"
        E
  




KCC

Cfa




Metar
RJDB 071300Z AUTO 30003KT 240V310 9999 NCD 26/24 Q1014








Small airport in the city of Iki on Iki Island in Nagasaki Prefecture, Japan.
Climatology
Humid Sub-tropical climate (Köppen climate classification Cfa)






Runways






Designator
Length
Width
Surface
Rops




2/20          
1320          
30          
ASP          
Yes/Yes          













Airport map






Aerial View