FNUB








Lubango Airport





Airport

ICAO code


  FNUB





IATA Code

SDD




Summary

ICAO Region

AFI



ICAO Territory





Angola






 








Location

, Huila




Serving

Lubango



Elevation

5778 ft



Coordinates



    14°
    55'
          29"
        S
  
      ,
    
    13°
    34'
          30"
        E
  





Metar
FNUB 071400Z 12008KT 9000 NSC 30/M05 Q1023 RMKHZ









Runways






Designator
Length
Width
Surface
Rops




10/28          
2917          
45          
ASP          
No/No          













Airport map






Aerial View