MDPC








Punta Cana international Airport





Airport

ICAO code


  MDPC





IATA Code

PUJ




Summary

ICAO Region

CARSAM



ICAO Territory





Dominican Republic






 








Location

Punta Cana, Dominican Republic




Serving

Punta Cana



Elevation

40 ft



Coordinates



    18°
    33'
          44"
        N
  
      ,
    
    68°
    22'
          6"
        W
  




KCC

Am



Airport WX

Tropical Revolving Storm




Metar
MDPC 071300Z 09006KT 9999 FEW020 30/26 Q1012








International airport serving the eastern Dominican Republic.
Climatology
Tropical Monsoon climate (Köppen climate classification Am) - monthly mean temperatures above 18°C in every month of the year and features wet and dry seasons. A tropical monsoon climate typically features less pronounced dry seasons than a tropical savanna climate and see less variance in temperatures during the course of the year. The driest month nearly always occurs at or soon after the "winter" solstice.






Runways






Designator
Length
Width
Surface
Rops




9/27          
3100          
48          
ASP          
Yes/Yes          













Airport map






Aerial View