ETSH








Holzdorf Air Base





Airport

ICAO code


  ETSH






Summary

ICAO Region

EUR



ICAO Territory





Germany






 








Location

Holzdorf, Saxony-Anhalt,




Coordinates



    51°
    46'
          4"
        N
  
      ,
    
    13°
    10'
          3"
        E
  





Metar
ETSH 071420Z 13012KT 9999 FEW070 31/12 Q1012 BLU+








Description
Holzdorf Air Base is a military airfield operated by the German Air Force. It is located 3 km east of Holzdorf, Saxony-Anhalt.






Runways






Designator
Length
Width
Surface
Rops




9/27          
2419          
30          
PEM          
No/No          













Airport map






Aerial View