CYBK








Baker Lake Airport





Airport

ICAO code


  CYBK





IATA Code

YBK




Summary

ICAO Region

NAM



ICAO Territory





Canada






 








Location

Baker Lake, Nunavut




Serving

Baker Lake



Elevation

61 ft



Coordinates



    64°
    17'
          56"
        N
  
      ,
    
    96°
    4'
          40"
        W
  




KCC

Dfc




Metar
CYBK 071500Z 29010KT 25SM BKN081 12/10 A2964 RMK AC7 SLP040








Baker Lake Airport, is located 3 nm southwest of Baker Lake, Nunavut, Canada. It is operated by the government of Nunavut.
Climatology
Subarctic climate (Köppen climate classification Dfc)






Runways






Designator
Length
Width
Surface
Rops




16T/34T          
1280          
30          
GVL          
No/No          













Airport map






Aerial View