VEAT








Agartala Airport





Airport

ICAO code


  VEAT






Summary

ICAO Region

APAC



ICAO Territory





India






 








Location

Agartala, Tripura,




Coordinates



    23°
    53'
          34"
        N
  
      ,
    
    91°
    14'
          38"
        E
  




KCC

Aw



Airport WX

Tropical Revolving Storm




Metar
VEAT 071400Z 20004KT 5000 BR FEW018 FEW030CB SCT100 32/28 Q1003 NOSIG








Description
Agartala Airport is a commercial airport located 12 km northwest of the city of Agartala, the capital of the state of Tripura.
Climatology
Tropical Savanna climate (Köppen climate classification Aw) - monthly mean temperatures above 18°C, and a pronounced dry season. A Tropical Savanna climate has more pronounced dry seasons than a Tropical Monsoon climate.














Airport map






Aerial View