YSSY








Sydney Airport





Airport

ICAO code


  YSSY





IATA Code

SYD




Summary

ICAO Region

APAC



ICAO Territory





Australia






 








Location

Mascot, New South Wales




Serving

Sydney



Elevation

21 ft



Coordinates



    33°
    56'
          23"
        S
  
      ,
    
    151°
    10'
          32"
        E
  




KCC

Cfb



Airport BS

Bird Strike




Metar
YSSY 071430Z AUTO 21005KT 9999 // FEW045 16/15 Q1021 RF00.0/000.0








International airport serving Sydney, Australia.
 














Airport map






Aerial View








Airport accidents



B738 / B738, vicinity Sydney Australia, 2023
B789 / A332, vicinity Sydney Australia, 2022
A333, Sydney Australia, 2017
SF34, vicinity Sydney Australia, 2017
DH8D / B772, vicinity Sydney Australia, 2016
A332, Sydney Australia 2009
DH8C, vicinity Sydney Australia, 2008
B738, Sydney Australia, 2007
B744, Sydney Australia, 2007
SF34, vicinity Sydney Australia, 2008
B703, Sydney Australia, 1969