UASS








Semipalatinsk Airport





Airport

ICAO code


  UASS





IATA Code

PLX




Summary

ICAO Region

APAC



ICAO Territory





Kazakhstan






 








Location

Semey, Kazakhstan,




Serving

Semey



Elevation

731 ft



Coordinates



    50°
    21'
          5"
        N
  
      ,
    
    80°
    14'
          4"
        E
  





Metar
UASS 071400Z VRB01MPS 9999 OVC043 10/09 Q1021 NOSIG RMK QFE747/0996








Description
Semipalatinsk Airport (Semey) is an airport in Semipalatinsk, Kazakhstan located 10 km southwest of the city.






Runways






Designator
Length
Width
Surface
Rops




2/20          
997          
77          
CON          
No/No          


8/26          
3096          
44          
CON          
No/No          













Airport map






Aerial View