ENEV








Harstad/Narvik





Airport

ICAO code


  ENEV






Summary

ICAO Region

EUR



ICAO Territory





Norway






 








Location

Evenes, Norway,




Serving

Harstad/Narvik



Coordinates



    68°
    29'
          18"
        N
  
      ,
    
    16°
    40'
          42"
        E
  




KCC

Cfc



Airport WX

Low Level Turbulence




Metar
ENEV 071350Z 25004KT 190V330 9999 BKN030 14/11 Q1019 RMK WIND 1400FT 22010KT








Description
International airport at Evenes which serves the towns of Harstad and Narvik, northern Norway.
Climatology
Subpolar Oceanic climate (Köppen climate classification Cfc) - uniform precipitation distribution, temperatures are moderated by the proximity of the ocean and warm currents - cool summers and comparatively mild winters.






Runways






Designator
Length
Width
Surface
Rops




17/35          
2815          
45          
ASP          
Yes/Yes          













Airport map






Aerial View








Airport accidents



A320, Harstad/Narvik Norway 2004