KCGI








Cape Girardeau Regional Airport





Airport

ICAO code


  KCGI





IATA Code

CGI




Summary

ICAO Region

NAM



ICAO Territory





United States






 








Location

Scott City, Missouri




Serving

Cape Girardeau



Elevation

342 ft



Coordinates



    37°
    13'
          36"
        N
  
      ,
    
    89°
    33'
          53"
        W
  




KCC

Dfa




Metar
KCGI 071353Z 04010KT 10SM CLR 19/11 A3018 RMK AO2 SLP218 T01890111








Description
Cape Girardeau Regional Airport is a public-use airport in Scott County, Missouri. It located 5 nm southwest of the central business district of Cape Girardeau, a city in Cape Girardeau County, Missouri.
 














Airport map






Aerial View