RJFO








Oita Airport





Airport

ICAO code


  RJFO





IATA Code

OIT




Summary

ICAO Region

APAC



ICAO Territory





Japan






 








Location

Kunisaki, Oita Prefecture, Kyushu




Serving

Oita



Elevation

17 ft



Coordinates



    33°
    28'
          35"
        N
  
      ,
    
    131°
    43'
          58"
        E
  




KCC

Cfa




Metar
RJFO 071300Z 26003KT 9999 FEW030 25/23 Q1014








Airport in Kunisaki, Ōita, Japan, 30km northeast of Ōita.
Climatology
Humid Sub-tropical climate (Köppen climate classification Cfa)






Runways






Designator
Length
Width
Surface
Rops




1/19          
2999          
46          
ASP          
Yes/Yes          













Airport map






Aerial View