OISY








Yasuj Airport





Airport

ICAO code


  OISY





IATA Code

YES




Summary

ICAO Region

MID



ICAO Territory





Iran






 








Location

Balahzar, Kohgiluyeh and Boyer-Ahmad Province




Serving

Yasuj



Elevation

5939 ft



Coordinates



    30°
    41'
          59"
        N
  
      ,
    
    51°
    33'
          10"
        E
  




KCC

Csa




Metar
OISY 071500Z 16006KT CAVOK 28/00 Q1018








Airport serving the city of Yasuj, Iran.
Climatology
Mediterranean climate (Köppen climate classification Csa). Hot summers and frequent rain in the winter months.






Runways






Designator
Length
Width
Surface
Rops




13/31          
2598          
45          
ASP          
No/No          













Airport map






Aerial View








Airport accidents



AT75, vicinity Yasouj Iran, 2018