SKCL








Alfonso Bonilla Aragón International Airport





Airport

ICAO code


  SKCL





IATA Code

CLO




Summary

ICAO Region

CARSAM



ICAO Territory





Colombia






 








Location

Palmira, Valle del Cauca Department




Serving

Cali



Elevation

3162 ft



Coordinates



    3°
    32'
          38"
        N
  
      ,
    
    76°
    23'
          3"
        W
  




KCC

Aw




Metar
SKCL 071222Z VRB02KT 6000 SCT020 21/18 Q1015 NOSIG RMK HZ








Alfonso Bonilla Aragón International Airport also known as Palmaseca International Airport is an airport located in Palmira, Colombia, serving Cali and its suburbs.
Climatology
Tropical savanna climate (Köppen climate classification Aw)






Runways






Designator
Length
Width
Surface
Rops




1/19          
3000          
45          
ASP          
Yes/Yes          













Airport map






Aerial View