VRMG








Gan Island Airport





Airport

ICAO code


  VRMG





IATA Code

GAN




Summary

ICAO Region

APAC



ICAO Territory





Maldives






 








Location

Gan Island, Addu Atoll




Serving

Addu Atoll



Elevation

6 ft



Coordinates



    0°
    41'
          36"
        S
  
      ,
    
    73°
    9'
          20"
        E
  




KCC

Am




Metar
VRMG 071200Z 25008KT 9999 FEW018 BKN260 31/24 Q1011 NOSIG








Gan International Airport is located on the island of Gan in Addu Atoll (previously known as Seenu Atoll) in the Maldives. As of June 2019, it is one of three international airports in the Maldives.
Climatology
Tropical monsoon climate (Köppen climate classification Am)














Airport map






Aerial View