MMVR








General Heriberto Jara International Airport





Airport

ICAO code


  MMVR





IATA Code

VER




Summary

ICAO Region

CARSAM



ICAO Territory





Mexico






 








Location

Veracruz, Veracruz-Llave




Serving

Vera Cruz



Elevation

90 ft



Coordinates



    19°
    8'
          45"
        N
  
      ,
    
    96°
    11'
          14"
        W
  




KCC

Am



Airport BS

Bird Strike




Metar
MMVR 071250Z 00000KT 6SM -RA SCT020 OVC070 25/25 A2977 RMK 60005 8/46/ RAB40








Description
General Heriberto Jara International Airport is located in the city of Veracruz, Mexico.
Climatology
Tropical Monsoon climate (Köppen climate classification Am) - monthly mean temperatures above 18°C in every month of the year and features wet and dry seasons. A tropical monsoon climate typically features less pronounced dry seasons than a tropical savanna climate and see less variance in temperatures during the course of the year. The driest month nearly always occurs at or soon after the "winter" solstice.
The Hurricane season lasts from May to December with the rainy season extending into January.






Runways






Designator
Length
Width
Surface
Rops




9/27          
1523          
45          
ASP          
Yes/Yes          


18/36          
2400          
45          
ASP          
Yes/Yes          













Airport map






Aerial View