ZGNN








Nanning Wuxu International Airport





Airport

ICAO code


  ZGNN





IATA Code

NNG




Summary

ICAO Region

APAC



ICAO Territory





China






 








Location

Nanning Wuxu,




Serving

Nanning Wuxu



Coordinates



    22°
    36'
          35"
        N
  
      ,
    
    108°
    10'
          18"
        E
  




KCC

Cwa




Metar
ZGNN 071300Z 07008MPS 040V100 8000 -SHRA SCT009 SCT016 FEW026CB BKN033 26/26 Q1003 NOSIG








Description
Nanning Wuxu Airport is an airport serving Nanning, the capital of Guangxi Autonomous Region, China. It is located 32 km southwest of the centre of the city. The airport was built in 1962, with improvements made in 1990. With 178,000 m2 of apron, 33,470 m2 of terminal space and six jet bridges, the airport was designed to handle 2.5 million passengers traffic annually. After reaching 1 million passenger traffic in 2002, the number of passengers jumped to 2 million in 2006. In 2011, 6.46 million passengers used this airport.
Climatology
Within the Köppen Climate Classification System, ((Koppen climate classification Cwa)) this climate type generally has warm and humid summers with mild winters. Its extent is from 30 to 50° of latitude mainly on the eastern and western borders of most continents. During the winter, the main weather feature is the mid-latitude cyclone. Convective thunderstorms provide precipitation in the summer months.














Airport map






Aerial View