KAPF








Naples Airport (Florida)





Airport

ICAO code


  KAPF





IATA Code

APF




Summary

ICAO Region

NAM



ICAO Territory





United States






 








Location

Naples, Florida




Serving

Naples



Elevation

8 ft



Coordinates



    26°
    9'
          9"
        N
  
      ,
    
    81°
    46'
          32"
        W
  




KCC

Aw




Metar
KAPF 071353Z 12007KT 10SM CLR 30/27 A2986 RMK AO2 SLP112 T03000267 $








Naples Airport, formerly known as Naples Municipal Airport, is a public use airport located 4km northeast of the central business district of Naples, Florida, USA.
Climatology
Tropical Savanna climate (Köppen climate classification Aw)














Airport map






Aerial View