KEAU








Chippewa Valley Regional Airport





Airport

ICAO code


  KEAU





IATA Code

EAU




Summary

ICAO Region

NAM



ICAO Territory





United States






 








Location

Eau Claire, Wisconsin




Serving

Eau Claire



Elevation

913 ft



Coordinates



    44°
    51'
          47"
        N
  
      ,
    
    91°
    28'
          46"
        W
  




KCC

Dfa



Airport CFIT

Altimeter Temperature Error Correction



Airport RE

Landing on Contaminated Runways




Metar
KEAU 071356Z 00000KT 10SM CLR 10/07 A3034 RMK AO2 SLP278 T01000067








Description
Chippewa Valley Regional Airport is a public use airport located 3.5 nm north of the central business district of the city of Eau Claire, in Chippewa County, Wisconsin, USA.














Airport map






Aerial View