KFFO








Wright-Patterson Air Force Base





Airport

ICAO code


  KFFO






Summary

ICAO Region

NAM



ICAO Territory





United States






 








Location

Dayton, Ohio,




Elevation

823 ft



Coordinates



    39°
    49'
          23"
        N
  
      ,
    
    84°
    2'
          58"
        W
  




KCC

Dfa



Airport LOS

Parallel Runway Operation



Airport WX

Cumulonimbus




Metar
KFFO 071355Z 33012KT 10SM SCT015 13/09 A3012 RMK AO2A SLP201 T01340085








Description
Wright-Patterson Air Force Base is a United States Air Force installation located in Greene and Montgomery counties in the state of Ohio. It includes both Wright and Patterson Fields. Patterson Field is located approximately 16 km northeast of Dayton; Wright Field is located approximately 8 km northeast of Dayton.
Climatology
Humid continental climate (Köppen climate classification Dfa) - characterized by four seasons: cold, windy, snowy winters, mild springs, hot, humid summers, and crisp and relatively short autumns. Precipitation reaches its lowest in January and February and peaks in summer and latter half of spring.














Airport map






Aerial View