SLCO








Capitán Aníbal Arab Airport





Airport

ICAO code


  SLCO





IATA Code

CIJ




Summary

ICAO Region

CARSAM



ICAO Territory





Bolivia






 








Location

Cobija, Pando




Serving

Cobija



Elevation

889 ft



Coordinates



    11°
    2'
          26"
        S
  
      ,
    
    68°
    46'
          59"
        W
  




KCC

Aw




Metar
SLCO 071200Z 00000KT 1500 FU NSC 20/18 Q1011








International airport serving the Acre River port city of Cobija, the capital of the Pando Department of Bolivia.
Climatology
Tropical Savanna climate (Köppen climate classification Aw).






Runways






Designator
Length
Width
Surface
Rops




2/20          
2000          
30          
ASP          
No/No          













Airport map






Aerial View