CYQL








Lethbridge County Airport





Airport

ICAO code


  CYQL






Summary

ICAO Region

NAM



ICAO Territory





Canada






 








Location

Lethbridge, Alberta,




Coordinates



    49°
    37'
          47"
        N
  
      ,
    
    112°
    47'
          25"
        W
  




KCC

Dfb




Metar
CYQL 071500Z 24012KT 60SM FEW300 18/07 A3005 RMK CI1 SLP170 DENSITY ALT 4000FT








Description
Regional airport serving Lethbridge, Alberta, Canada.
Climatology
Humid Continental climate (Köppen climate classification Dfb) - Variable weather patterns and a large seasonal temperature variance. Summers are often warm and humid with frequent thunderstorms and winters can be very cold with frequent snowfall and persistent snow cover.






Runways






Designator
Length
Width
Surface
Rops




12/30          
1676          
46          
ASP          
Yes/Yes          


5/23          
1981          
61          
ASP          
Yes/Yes          













Airport map






Aerial View