KMKS








Berkeley County Airport





Airport

ICAO code


  KMKS





IATA Code

-




Summary

ICAO Region

NAM



ICAO Territory





United States






 








Location

Moncks Corner, South Carolina




Serving

Moncks Corner



Elevation

73 ft



Coordinates



    33°
    11'
          10"
        N
  
      ,
    
    80°
    2'
          8"
        W
  




KCC

Cfa




Metar
KMKS 071435Z AUTO 01007KT 10SM BKN011 BKN027 OVC035 22/20 A2988 RMK AO2








Description
A public-use airport in Berkeley County, South Carolina, United States. It is located 1 nm southwest of the central business district of Moncks Corner, South Carolina.
 






Runways






Designator
Length
Width
Surface
Rops




5/23          
1326          
23          
ASP          
No/No          













Airport map






Aerial View








Airport accidents



F16 / C150, vicinity Berkeley County SC USA, 2015