EFKK








Kokkola-Pietarsaari





Airport

ICAO code


  EFKK






Summary

ICAO Region

EUR



ICAO Territory





Finland






 








Location

Kronoby,




Coordinates



    63°
    43'
          16"
        N
  
      ,
    
    23°
    8'
          37"
        E
  




KCC

Dfc



Airport CFIT

Altimeter Temperature Error Correction



Airport GND

Aircraft Ground De/Anti Icing



Airport RE

Landing on Contaminated Runways




Metar
EFKK 071220Z AUTO 19011KT 160V220 CAVOK 22/11 Q1021








Description
Largely domestic but also international airport serving the cities of Kokkola and Jakobstad in Finland. The airport is located 12 nm south of Kokkola city centre.
Climatology
Subarctic climate (Köppen climate classification Dfc) - long, usually very cold winters, and short, cool to mild summers.






Runways






Designator
Length
Width
Surface
Rops




11/29          
700          
20          
ASP          
Yes/Yes          


1/19          
2500          
60          
ASP          
Yes/Yes          













Airport map






Aerial View