HESN








Aswan International Airport





Airport

ICAO code


  HESN





IATA Code

ASW




Summary

ICAO Region

AFI



ICAO Territory





Egypt






 








Location

Aswan, Aswan




Serving

Aswan



Elevation

662 ft



Coordinates



    23°
    57'
          52"
        N
  
      ,
    
    32°
    49'
          12"
        E
  





Metar
HESN 071200Z 31007KT CAVOK 39/09 Q1009 NOSIG









Runways






Designator
Length
Width
Surface
Rops




17/35          
3402          
45          
ASP          
Yes/Yes          













Airport map






Aerial View