LIML








Milan/Linate Airport





Airport

ICAO code


  LIML





IATA Code

LIN




Summary

ICAO Region

EUR



ICAO Territory





Italy






 








Location

Linate, Lombardy




Serving

Milan



Elevation

353 ft



Coordinates



    45°
    26'
          39"
        N
  
      ,
    
    9°
    16'
          39"
        E
  




KCC

Cfa




Metar
LIML 071350Z 16005KT 110V200 9999 SCT040 28/19 Q1016 NOSIG








International airport serving Milan and the Po Valley of northern Italy. Milan's principal airport is Malpensa.
Climatology
Humid “subtropical” climate (Köppen climate classification Cfa) - characterized by hot, humid summers and cool winters. Significant amounts of precipitation occur in all seasons in most areas. Winter rainfall (and sometimes snowfall) is associated with large storms that the westerlies steer from west to east. Most summer rainfall occurs during thunderstorms.






Runways






Designator
Length
Width
Surface
Rops




17/35          
601          
22          
BIT          
Yes/Yes          


18/36          
2440          
60          
ASP          
Yes/Yes          













Airport map






Aerial View








Airport accidents



MD87 / C525, Milan Linate, 2001