EDFH








Frankfurt Hahn





Airport

ICAO code


  EDFH






Summary

ICAO Region

EUR



ICAO Territory





Germany






 








Location

Frankfurt Hahn,




Elevation

1649 ft



Coordinates



    49°
    56'
          55"
        N
  
      ,
    
    7°
    15'
          50"
        E
  




KCC

Cfb




Metar
EDFH 071420Z 14008KT CAVOK 25/17 Q1012








Description
International airport serving the district of Rhineland-Palatinate to the west of central Germany. Despite its name, the airport is situated over 120 km (75 mi) to the west of the city of Frankfurt (by road).
Climatology
Temperate Marine climate/Oceanic climate (Köppen climate classification Cfb) - Moderately cool summer and comparatively warm winter.






Runways






Designator
Length
Width
Surface
Rops




3/21          
3800          
45          
ASP          
Yes/Yes          













Airport map






Aerial View