OITZ








Zahedan Airport





Airport

ICAO code


  OITZ





IATA Code

ZAH




Summary

ICAO Region

MID



ICAO Territory





Iran






 








Location

Zahedan, Sistan and Baluchistan Province




Serving

Zahedan



Elevation

4564 ft



Coordinates



    29°
    28'
          32"
        N
  
      ,
    
    60°
    54'
          2"
        E
  




KCC

BWh




Metar
OITZ 071400Z 07021KT CAVOK 26/09 Q1019 A3009








Airport on the eastern side of the city of Zahedan, Iran, close to the Afghan border.
Climatology
Hot Desert climate (Köppen climate classification BWh). Hot summers and cool winters.






Runways






Designator
Length
Width
Surface
Rops




12/30          
2999          
45          
ASP          
No/No          













Airport map






Aerial View