VMMC








Macau International Airport





Airport

ICAO code


  VMMC





IATA Code

MFM




Summary

ICAO Region

APAC



ICAO Territory





Macau






 








Location

Taipa,




Serving

Macau



Elevation

20 ft



Coordinates



    22°
    8'
          58"
        N
  
      ,
    
    113°
    35'
          29"
        E
  




KCC

Cwa




Metar
VMMC 071330Z 11012KT 9999 FEW008 SCT020 29/28 Q1009 NOSIG








Description
Macau International Airport situated at the eastern end of Taipa island and neighbouring waters, is the only airport in Macau. Since then the airport has been a common transfer point for people traveling between mainland China and Taiwan, as well as a passenger hub for destinations in mainland China and Southeast Asia.
Climatology
Humid “subtropical” climate (Köppen climate classification Cwa) - characterized by hot, humid summers and cool winters. Winter months are drier than the summer months. Winter rainfall (and sometimes snowfall) is associated with large storms that the westerlies steer from west to east. Most summer rainfall occurs during thunderstorms and the area is subject to frequent tropical typhoons.














Airport map






Aerial View








Airport accidents



A320, Macau SAR China, 2018 (1)
A320, Macau SAR China, 2018 (2)
DC10, Macau SAR China, 2005