MKJP








Kingston/Norman Manley International Airport





Airport

ICAO code


  MKJP





IATA Code

KIN




Summary

ICAO Region

CARSAM



ICAO Territory





Jamaica






 








Location

Palisadoes,




Serving

Kingston



Elevation

10 ft



Coordinates



    17°
    56'
          8"
        N
  
      ,
    
    76°
    47'
          13"
        W
  




KCC

Aw



Airport RE

Landing on Contaminated Runways




Metar
MKJP 071200Z 35005KT 9999 FEW022 30/24 Q1010








Description
International airport serving Kingston, Jamaica.
Climatology
Tropical Savanna climate (Köppen climate classification Aw) - monthly mean temperatures above 18°C, and a pronounced dry season. A Tropical Savanna climate has more pronounced dry seasons than a Tropical Monsoon climate.
Jamaica is vulnerable to Hurricanes from July to October.






Runways






Designator
Length
Width
Surface
Rops




12/30          
2713          
46          
ASP          
Yes/Yes          













Airport map






Aerial View








Airport accidents



B738, Kingston Jamaica, 2009