LTFE








Milas Bodrum International Airport





Airport

ICAO code


  LTFE





IATA Code

BJV




Summary

ICAO Region

EUR



ICAO Territory





Turkey






 








Location

Ekinambarı, Muğla




Serving

Bodrum and Milas



Elevation

21 ft



Coordinates



    37°
    14'
          56"
        N
  
      ,
    
    27°
    40'
          1"
        E
  





Metar
LTFE 071220Z 33012G22KT CAVOK 37/10 Q1009 NOSIG









Runways






Designator
Length
Width
Surface
Rops




11/29          
3000          
45          
CON          
Yes/Yes          













Airport map






Aerial View