EGLF








TAG London Farnborough Airport





Airport

ICAO code


  EGLF





IATA Code

FAB




Summary

ICAO Region

EUR



ICAO Territory





United Kingdom






 








Location

Farnborough, England




Serving

Farnborough



Elevation

238 ft



Coordinates



    51°
    16'
          43"
        N
  
      ,
    
    0°
    46'
          18"
        W
  




KCC

Cfb




Metar
EGLF 071350Z AUTO 36004KT 290V050 9999 NCD 18/15 Q1009








Description
Business Airport to the south west of London which serves as a corporate and private jet hub. Farnborough also hosts the Farnborough International Air Show every 2 years.
Climatology
Temperate Marine climate/Oceanic climate (Köppen climate classification Cfb). Moderately cool summer and comparatively warm winter with a temperature range of only 14°C. Prevailing south-westerly winds from the Atlantic Ocean.






Runways






Designator
Length
Width
Surface
Rops




6/24          
2440          
45          
ASP          
Yes/Yes          













Airport map






Aerial View