KEAT








Pangborn Memorial Airport





Airport

ICAO code


  KEAT






Summary

ICAO Region

NAM



ICAO Territory





United States






 








Location

Wenatchee, Washington,




Elevation

1249 ft



Coordinates



    47°
    23'
          55"
        N
  
      ,
    
    120°
    12'
          24"
        W
  




KCC

BSk



Airport CFIT

Altimeter Temperature Error Correction



Airport WX

Mountain Waves




Metar
KEAT 071355Z AUTO 31010KT 10SM CLR 19/08 A2999 RMK AO2 SLP144 T01940083








Description
Pangborn Memorial Airport is a public use airport in Douglas County, Washington, located 7 km east of the central business district of Wenatchee.
Climatology
Semi-arid climate (Köppen climate classification BSk) - Little precipitation, hot summers and cold winters, sometimes with large changes in temperature in a 24 hour period.














Airport map






Aerial View