OODQ








Duqm Jaaluni Airport





Airport

ICAO code


  OODQ





IATA Code

DQM




Summary

ICAO Region

MID



ICAO Territory





Oman






 








Location

Duqm, AlWusta




Serving

Duqm



Elevation

364 ft



Coordinates



    19°
    29'
          53"
        N
  
      ,
    
    57°
    38'
          28"
        E
  




KCC

BWh




Metar
OODQ 071350Z AUTO 11010KT //// R22///// SCT005 25/24 Q1004 NOSIG








Airport in the vicinity of Duqm in the Al Wusta Region of Oman.
Climatology
Hot Desert Climate (Köppen climate classification BWh)














Airport map






Aerial View