SVMC








La Chinita International Airport





Airport

ICAO code


  SVMC





IATA Code

MAR




Summary

ICAO Region

CARSAM



ICAO Territory





Venezuela






 








Location

Maracaibo, Zulia




Serving

Maracaibo



Elevation

235 ft



Coordinates



    10°
    33'
          30"
        N
  
      ,
    
    71°
    43'
          40"
        W
  




KCC

BSh




Metar
SVMC 071503Z AUTO 18001KT NCD 26/26 Q1010








La Chinita International Airport is an airport serving Maracaibo, in the Zulia state of Venezuela. La Chinita is Venezuela's second most important airport in terms of passenger and aircraft movements, after Simón Bolívar International Airport near Caracas.
Climatology
Hot semi-arid climate (Köppen climate classification BSh)






Runways






Designator
Length
Width
Surface
Rops




03R/21L          
2500          
30          
concrete          
Yes/Yes          


03L/21R          
3000          
45          
concrete          
Yes/Yes          













Airport map






Aerial View