LEMI








Región de Murcia International Airport





Airport

ICAO code


  LEMI





IATA Code

RMU




Summary

ICAO Region

EUR



ICAO Territory





Spain






 








Location

Corvera, Murcia




Serving

Murcia



Elevation

633 ft



Coordinates



    37°
    48'
          9"
        N
  
      ,
    
    1°
    7'
          31"
        W
  




KCC

BSk




Metar
LEMI 071400Z 13006KT 100V170 CAVOK 30/20 Q1010








Región de Murcia International Airport, informally also known as Murcia-Corvera, is an international airport replacing Murcia–San Javier Airport. It is situated between the villages of Corvera, Los Martínez del Puerto and Valladolises within the municipality of Murcia.
Climatology
Semi-arid climate (Köppen climate classification BSK)














Airport map






Aerial View