SPCL








Cap FAP David Abenzur Rengifo International Airport





Airport

ICAO code


  SPCL





IATA Code

PCL




Summary

ICAO Region

CARSAM



ICAO Territory





Peru






 








Location

Pucallpa, Ucayali




Serving

Pucallpa



Elevation

513 ft



Coordinates



    8°
    22'
          41"
        S
  
      ,
    
    74°
    34'
          27"
        W
  




KCC

Am




Metar
SPCL 071300Z 30003KT 6000 NSC 27/24 Q1013 RMK BR PP000








airport serving the city of Pucallpa in the Ucayali Region of Peru.
Climatology
Tropical Monsoon climate (Köppen climate classification Am).






Runways






Designator
Length
Width
Surface
Rops




2/20          
2800          
45          
ASP          
No/No          













Airport map






Aerial View