PAMO








Mountain Village Airport





Airport

ICAO code


  PAMO





IATA Code

MOU




Summary

ICAO Region

NAM



ICAO Territory





Alaska






 








Location

, Alaska




Serving

Mountain Village



Elevation

337 ft



Coordinates



    62°
    5'
          43"
        N
  
      ,
    
    163°
    40'
          55"
        W
  





Metar
PAMO 071211Z AUTO 23004KT 6SM BR SCT003 06/05 A2995 RMK AO2









Runways






Designator
Length
Width
Surface
Rops




2/20          
1067          
23          
GRVL-P          
No/No          













Airport map






Aerial View