KSWF








Newburgh





Airport

ICAO code


  KSWF






Summary

ICAO Region

NAM



ICAO Territory





United States






 








Location

Newburgh, NY,




Coordinates



    41°
    30'
          15"
        N
  
      ,
    
    74°
    6'
          17"
        W
  




KCC

Dfa




Metar
KSWF 071245Z VRB04KT 7SM OVC015 18/17 A2987








Description
Stewart International Airport is located west of Newburgh, New York, in the southern Hudson Valley, 88.5 km north of New York City and, 23 km southwest of Poughkeepsie, New York.
Climatology
Humid continental climate (Köppen climate classification Dfa) - characterized by four seasons: cold, windy, snowy winters, mild springs, hot, humid summers, and crisp and relatively short autumns. Precipitation reaches its lowest in January and February and peaks in summer and latter half of spring.






Runways






Designator
Length
Width
Surface
Rops




16/34          
1831          
46          
ASP          
Yes/Yes          


9/27          
3602          
46          
ASP          
Yes/Yes          













Airport map






Aerial View








Airport accidents



DC10, Newburgh NY USA, 1996