KSVN








Hunter Army Airfield





Airport

ICAO code


  KSVN





IATA Code

SVN




Summary

ICAO Region

NAM



ICAO Territory





United States






 








Location

Savannah, Georgia




Serving

Savannah



Elevation

42 ft



Coordinates



    32°
    0'
          41"
        N
  
      ,
    
    81°
    8'
          47"
        W
  




KCC

Cfa




Metar
KSVN 071308Z AUTO 00000KT 10SM -RA OVC005 22/21 A2986 RMK AO2 RAB08 SLP115 $








Hunter Army Airfield, located in Savannah, Georgia, United States, is a military airfield and subordinate installation to Fort Stewart located in Hinesville, Georgia, USA.






Runways






Designator
Length
Width
Surface
Rops




10/28          
3467          
61          
ASP          
Yes/Yes          













Airport map






Aerial View