LFGA








Colmar-Houssen Airport





Airport

ICAO code


  LFGA





IATA Code

CMR




Summary

ICAO Region

EUR



ICAO Territory





France






 








Location

, Alsace




Serving

Colmar



Elevation

628 ft



Coordinates



    48°
    6'
          35"
        N
  
      ,
    
    7°
    21'
          32"
        E
  





Metar
LFGA 071400Z AUTO 08003KT 010V130 CAVOK 27/19 Q1010









Runways






Designator
Length
Width
Surface
Rops




1/19          
1610          
30          
ASP          
No/No          













Airport map






Aerial View