LFML








Marseille/Provence





Airport

ICAO code


  LFML






Summary

ICAO Region

EUR



ICAO Territory





France






 








Location

Marseille, Provence-Alpes-Cote d&#039; Azur,




Coordinates



    43°
    26'
          5"
        N
  
      ,
    
    5°
    12'
          60"
        E
  




KCC

Csa




Metar
LFML 071500Z AUTO 13019G30KT 9999 FEW052 31/21 Q1009 NOSIG








Description
International airport serving Marseille.
Climatology
Dry-summer subtropical ”Mediterranean" climate (Köppen climate classification Csa) - characterized by hot, dry summers and mild winters. During the summer, subtropical high pressure cells dominate, making rainfall unlikely except for the occasional thunderstorm. In the winter, periodic storms bring rain.






Runways






Designator
Length
Width
Surface
Rops




13R/31L          
2370          
45          
ASP          
Yes/Yes          


14R/32L          
2370          
45          
ASP          
Yes/Yes          


13L/31R          
3500          
45          
ASP          
Yes/Yes          


14L/32R          
3500          
45          
ASP          
Yes/Yes          













Airport map






Aerial View








Airport accidents



A319 / AS32, vicinity Marseille France, 2016