HTMP








Mpanda Airport





Airport

ICAO code


  HTMP





IATA Code

NPY




Summary

ICAO Region

AFI



ICAO Territory





Tanzania






 








Location

Mpanda, Katavi Region




Serving

Katavi Region



Elevation

3565 ft



Coordinates



    6°
    21'
          20"
        S
  
      ,
    
    31°
    4'
          50"
        E
  




KCC

Aw




Metar
HTMP 071200Z 09005KT 9999 SCT028 FEW030CB BKN150 32/10 Q1018








Mpanda Airport is an airport in western Tanzania serving the town of Mpanda and the surrounding Katavi Region.
Climatology
Tropical Savanna climate (Köppen climate classification Aw)














Airport map






Aerial View