OMDW








Dubai World Central - Al Maktoum International Airport





Airport

ICAO code


  OMDW





IATA Code

DWC




Summary

ICAO Region

MID



ICAO Territory





United Arab Emirates






 








Location

Jebel Ali,




Serving

Dubai



Elevation

171 ft



Coordinates



    24°
    53'
          44"
        N
  
      ,
    
    55°
    9'
          33"
        E
  




KCC

BWh




Metar
OMDW 071200Z 32013KT 7000 NSC 38/25 Q1001 NOSIG








Description
International airport serving the Emirate of Dubai, UAE. It opened on 27 June 2010, previous interim names included "Jebel Ali International Airport", "Jebel Ali Airport City", and "Dubai World Central International Airport".
Climatology
Hot Desert Climate (Köppen climate classification BWh) - Hot desert climates are typically found in the subtropics where there is unbroken sunshine for the whole year due to the stable descending air and high pressure, little or no precipitation. Maximum temperatures of 40°C to 45°C are not uncommon, particularly during the warmer months of the year.






Runways






Designator
Length
Width
Surface
Rops




12/30          
4500          
60          
ASPHALT          
Yes/Yes          













Airport map






Aerial View