CYHM








Hamilton/John C. Munro Hamilton International Airport





Airport

ICAO code


  CYHM





IATA Code

YHM




Summary

ICAO Region

NAM



ICAO Territory





Canada






 








Location

Hamilton, Ontario,




Serving

Hamilton



Elevation

780 ft



Coordinates



    43°
    10'
          23"
        N
  
      ,
    
    79°
    56'
          6"
        W
  




KCC

Dfa




Metar
CYHM 071400Z 30010KT 15SM FEW013 BKN018 14/11 A2990 RMK SF2SC5 SLP126








Description
John C. Munro Hamilton International Airport or Hamilton International, is an international airport in Hamilton, Ontario, Canada.
Climatology
Humid continental climate (Köppen climate classification Dfa) - characterized by four seasons: cold, windy, snowy winters, mild springs, hot, humid summers, and crisp and relatively short autumns. Precipitation reaches its lowest in January and February and peaks in summer and latter half of spring.






Runways






Designator
Length
Width
Surface
Rops




6/24          
1829          
46          
ASP          
Yes/Yes          


12/30          
3048          
61          
ASP          
Yes/Yes          













Airport map






Aerial View








Airport accidents



Vehicles / B722, Hamilton ON Canada, 2013
B722, Hamilton OT Canada 2008