KOXB








Ocean City Municipal Airport (Maryland)





Airport

ICAO code


  KOXB





IATA Code

OCE




Summary

ICAO Region

NAM



ICAO Territory





United States






 








Location

Ocean City, Maryland,




Serving

Ocean City, Maryland



Elevation

11 ft



Coordinates



    38°
    18'
          38"
        N
  
      ,
    
    75°
    7'
          26"
        W
  





Metar
KOXB 071353Z AUTO 21005KT 10SM FEW009 SCT038 22/20 A2988 RMK AO2 SLP118 T02220200 PWINO








Description
Barkley Regional Airport is a public use airport located 22 km west of the central business district of Paducah, a city in McCracken County, Kentucky.
Climatology
Humid “subtropical” climate (Köppen climate classification Cfa) - characterized by hot, humid summers and cool winters. Significant amounts of precipitation occur in all seasons in most areas. Winter rainfall (and sometimes snowfall) is associated with large storms that the westerlies steer from west to east. Most summer rainfall occurs during thunderstorms.






Runways






Designator
Length
Width
Surface
Rops




2/20          
976          
23          
PEM          
No/No          


14/32          
1241          
23          
PEM          
No/No          













Airport map






Aerial View