OIBV








Lavan Airport





Airport

ICAO code


  OIBV





IATA Code

LVP




Summary

ICAO Region

MID



ICAO Territory





Iran






 








Location

Lavan, Hormozgan Province




Serving

Lavan Island



Elevation

76 ft



Coordinates



    26°
    48'
          39"
        N
  
      ,
    
    53°
    21'
          11"
        E
  




KCC

BWh




Metar
OIBV 071400Z 22004KT 3500 HZ NSC 35/28 Q1001








Airport located on Lavan Island in the Persian Gulf.
Climatology
Warm Desert climate (Köppen climate classification BWh).






Runways






Designator
Length
Width
Surface
Rops




11/29          
2077          
45          
ASP          
No/No          













Airport map






Aerial View