KMTJ








Montrose





Airport

ICAO code


  KMTJ





IATA Code

MTJ




Summary

ICAO Region

NAM



ICAO Territory





United States






 








Location

Montrose, Colorado




Serving

Montrose



Elevation

5759 ft



Coordinates



    38°
    30'
          30"
        N
  
      ,
    
    107°
    53'
          44"
        W
  




KCC

BSk



Airport CFIT

Altimeter Temperature Error Correction



Airport GND

Aircraft Ground De/Anti Icing



Airport RE

Hot and High Operations
Landing on Contaminated Runways




Metar
KMTJ 071253Z AUTO 13004KT 10SM BKN100 12/06 A3035 RMK AO2 SLP206 T01220056








Montrose Regional Airport is a non-towered public airport located at the northwest edge of Montrose, Colorado, USA.






Runways






Designator
Length
Width
Surface
Rops




13/31          
2286          
30          
ASP          
Yes/Yes          


17/35          
3048          
46          
ASP          
Yes/Yes          













Airport map






Aerial View








Airport accidents



CL60, Montrose USA, 2004