KELD








South Arkansas Regional Airport/ Goodwin Field





Airport

ICAO code


  KELD






Summary

ICAO Region

NAM



ICAO Territory





United States






 








Location

El Dorado, Arkansas,




Elevation

277 ft



Coordinates



    33°
    13'
          14"
        N
  
      ,
    
    92°
    48'
          37"
        W
  




KCC

Cfa




Metar
KELD 071353Z AUTO 36007G18KT 10SM CLR 21/13 A3006 RMK AO2 SLP177 T02110133








Description
General Aviation airport serving El Dorado, Arkansas located 8 nm west of the city's business district.
Climatology
Humid “subtropical” climate (Köppen climate classification Cfa) - characterized by hot, humid summers and cool winters. Significant amounts of precipitation occur in all seasons in most areas. Winter rainfall (and sometimes snowfall) is associated with large storms that the westerlies steer from west to east. Most summer rainfall occurs during thunderstorms and occasional tropical storms (hurricanes).














Airport map






Aerial View