PFWS








South Naknek Nr 2 Airport





Airport

ICAO code


  PFWS





IATA Code

WSN




Summary

ICAO Region

NAM



ICAO Territory





Alaska






 








Location

, Alaska




Serving

South Naknek



Elevation

162 ft



Coordinates



    58°
    42'
          8"
        N
  
      ,
    
    157°
    0'
          9"
        W
  





Metar
PFWS 071056Z AUTO 27004KT 10SM BKN080 11/09 A2993 RMK AO2 SLP176 T01060094









Runways






Designator
Length
Width
Surface
Rops




4/22          
690          
18          
GRVL-F          
No/No          


12/30          
1010          
18          
GRVL-DIRT-          
No/No          













Airport map






Aerial View