OSKL








Kamishly Airport





Airport

ICAO code


  OSKL





IATA Code

KAC




Summary

ICAO Region

MID



ICAO Territory





Syria






 








Location

Qamishli, Al Hasakah




Serving

Qamishli



Elevation

1480 ft



Coordinates



    37°
    1'
          14"
        N
  
      ,
    
    41°
    11'
          29"
        E
  





Metar
OSKL 071200Z 24004KT CAVOK 38/06 Q1007








Description
Kamishly Airport is an airport serving Qamishli (also known as Kamishli or Qamishli), a city in northeastern Syria.






Runways






Designator
Length
Width
Surface
Rops




3/21          
3615          
46          
ASP          
No/No          













Airport map






Aerial View