EBOS








Ostend-Bruges International





Airport

ICAO code


  EBOS






Summary

ICAO Region

EUR



ICAO Territory





Belgium






 








Location

Ostend,




Coordinates



    51°
    11'
          56"
        N
  
      ,
    
    2°
    51'
          44"
        E
  




KCC

Cfb




Metar
EBOS 071250Z 12008KT CAVOK 25/16 Q1009 NOSIG








Description
Ostend-Bruges International Airport is located in Ostend, Belgium, near the coast and about 25 km from the city centre of Bruges. Although an important proportion of the activities focuses on freight transport, it is increasingly used for passenger flights, mainly charter and holiday flights organised by the tour operators. It is also often used for private business flights.
Climatology
Temperate Marine climate/Oceanic climate (Köppen climate classification Cfb) - Moderately cool summer and comparatively warm winter.






Runways






Designator
Length
Width
Surface
Rops




14/32          
627          
45          
GRS          
No/No          


8/26          
3200          
45          
CON          
Yes/Yes          













Airport map






Aerial View