LFOZ








Orléans-Saint-Denis-de-l'Hôtel Airport





Airport

ICAO code


  LFOZ






Summary

ICAO Region

EUR



ICAO Territory





France






 








Location

, Centre




Serving

Orleans



Elevation

396 ft



Coordinates



    47°
    53'
          49"
        N
  
      ,
    
    2°
    9'
          48"
        E
  





Metar
LFOZ 071400Z AUTO 22006KT 9999 -RA FEW026/// OVC100/// ///CB 19/17 Q1010









Runways






Designator
Length
Width
Surface
Rops




5/23          
1392          
30          
ASP          
No/No          













Airport map






Aerial View