RJOW








Iwami Airport





Airport

ICAO code


  RJOW





IATA Code

IWJ




Summary

ICAO Region

APAC



ICAO Territory





Japan






 








Location

Masuda, Shimane Prefecture




Serving

Iwami



Elevation

177 ft



Coordinates



    34°
    40'
          42"
        N
  
      ,
    
    131°
    47'
          48"
        E
  




KCC

Cfa




Metar
RJOW 070100Z 32005KT 290V010 CAVOK 29/21 Q1015








Airport located 2.8nm southwest of Masuda, Shimane Prefecture, Japan. It is also known as Hagi-Iwami Airport due to its proximity to the city of Hagi in Yamaguchi Prefecture.
Climatology
Humid Sub-tropical climate (Köppen climate classification Cfa)






Runways






Designator
Length
Width
Surface
Rops




11/29          
2000          
45          
ASP          
Yes/Yes          













Airport map






Aerial View