EGDM








MoD Boscombe Down





Airport

ICAO code


  EGDM






Summary

ICAO Region

EUR



ICAO Territory





United Kingdom






 








Location

Amesbury, Wiltshire, England




Serving

Boscombe Down



Elevation

407 ft



Coordinates



    51°
    9'
          10"
        N
  
      ,
    
    1°
    44'
          34"
        W
  




KCC

Cfb




Metar
EGDM 071420Z AUTO 10003KT 9999 -RA OVC059/// 17/15 Q1009








Description
Operated on behalf of the UK Ministry of Defence by a contractor for uses which include military aircraft test and evaluation and home of the ETPS Test Pilot Training School.
Climatology
Temperate Marine climate/Oceanic climate (Köppen climate classification Cfb). Moderately cool summer and comparatively warm winter with a temperature range of only 14°C. Prevailing south-westerly winds from the Atlantic Ocean.






Runways






Designator
Length
Width
Surface
Rops




17/35          
1914          
46          
PEM          
No/No          


5/23          
3212          
46          
PEM          
No/No          













Airport map






Aerial View