RJOB








Okayama Airport





Airport

ICAO code


  RJOB





IATA Code

OKJ




Summary

ICAO Region

APAC



ICAO Territory





Japan






 








Location

Okayama, Okayama Prefecture




Serving

Okayama



Elevation

785 ft



Coordinates



    34°
    45'
          36"
        N
  
      ,
    
    133°
    51'
          11"
        E
  




KCC

Cfa




Metar
RJOB 071200Z 36004KT 310V040 9999 FEW025 27/23 Q1015








Okayama Airport is an airport in Okayama Prefecture, Japan.
Climatology
Humid Sub-tropical climate (Köppen climate classification Cfa)






Runways






Designator
Length
Width
Surface
Rops




7/25          
3000          
46          
ASP          
Yes/Yes          













Airport map






Aerial View