SARI








Cataratas Del Iguazú International Airport





Airport

ICAO code


  SARI





IATA Code

IGR




Summary

ICAO Region

CARSAM



ICAO Territory





Argentina






 








Location

Puerto Iguazu, Misiones




Serving

Iguazu Falls



Elevation

916 ft



Coordinates



    25°
    44'
          14"
        S
  
      ,
    
    54°
    28'
          24"
        W
  




KCC

Cfa




Metar
SARI 071300Z 03005KT 360V070 8000 NSC 22/18 Q1015








Airport serving city of Puerto Iguazu, Misiones province, Argentina.
Climatology
Humid, sub-tropical climate (Köppen climate classification Cfa).






Runways






Designator
Length
Width
Surface
Rops




13/31          
3300          
45          
ASP          
Yes/Yes          













Airport map






Aerial View