LFSD








Dijon-Bourgogne Airport





Airport

ICAO code


  LFSD





IATA Code

DIJ




Summary

ICAO Region

EUR



ICAO Territory





France






 








Location

, Bourgogne




Serving

Dijon



Elevation

726 ft



Coordinates



    47°
    16'
          8"
        N
  
      ,
    
    5°
    5'
          24"
        E
  





Metar
LFSD 071400Z AUTO 08005KT 040V110 CAVOK 23/18 Q1009









Runways






Designator
Length
Width
Surface
Rops




2/20          
1800          
36          
ASP          
No/No          


18/36          
2400          
45          
ASP          
No/No          













Airport map






Aerial View