GMAT








Tan Tan Airport





Airport

ICAO code


  GMAT





IATA Code

TTA




Summary

ICAO Region

AFI



ICAO Territory





Morocco






 








Location

Ben Khlil, Guelmim-Oued Noun region




Serving

Tan Tan



Elevation

653 ft



Coordinates



    28°
    26'
          54"
        N
  
      ,
    
    11°
    9'
          41"
        W
  




KCC

BWh




Metar
GMAT 071300Z 31012KT 1200 R03/1700U +TSRA FEW011CB BKN015 20/20 Q1009 BECMG 6000 NSW








Tan Tan Airport, also known as Plage Blanche Airport, is an airport near Tan Tan, a city in the Guelmim-Oued Noun region in Morocco.
Climatology
Hot desert climate (Köppen climate classification BWh)






Runways






Designator
Length
Width
Surface
Rops




3/21          
2000          
30          
ASP          
No/No          













Airport map






Aerial View