SLPS








Puerto Suárez International Airport





Airport

ICAO code


  SLPS





IATA Code

PSZ




Summary

ICAO Region

CARSAM



ICAO Territory





Bolivia






 








Location

Puerto Suarez, Santa Cruz




Serving

Puerto Suarez



Elevation

439 ft



Coordinates



    18°
    58'
          31"
        S
  
      ,
    
    57°
    49'
          14"
        W
  





Metar
SLPS 071200Z 00000KT 4000 FU NSC 26/18 Q1011









Runways






Designator
Length
Width
Surface
Rops




4/22          
2000          
36          
ASP          
No/No          













Airport map






Aerial View