PHBK








Barking Sands Airport





Airport

ICAO code


  PHBK





IATA Code

BKH




Summary

ICAO Region

NAM



ICAO Territory





Hawaii






 








Location

Kekaha, Hawaii




Serving

Barking Sands



Elevation

23 ft



Coordinates



    22°
    1'
          22"
        N
  
      ,
    
    159°
    47'
          6"
        W
  





Metar
PHBK 071151Z AUTO 11004KT 10SM CLR 23/18 A3001 RMK AO2 SLP164 T02280178 10267 20228 58009









Runways






Designator
Length
Width
Surface
Rops




16/34          
1831          
45          
ASP          
No/No          













Airport map






Aerial View