KILG








New Castle Airport





Airport

ICAO code


  KILG






Summary

ICAO Region

NAM



ICAO Territory





United States






 








Location

Wilmington, Delaware,




Serving

New Castle County, Delaware



Coordinates



    39°
    40'
          43"
        N
  
      ,
    
    75°
    36'
          24"
        W
  




KCC

Cfa




Metar
KILG 071431Z AUTO 21008KT 10SM BKN015 OVC020 22/19 A2986 RMK AO2 T02220189








Description
New Castle Airport, also known as the New Castle County Airport, is a joint civil-military (ANG) public airport located in New Castle County, Delaware and is located 6 km south of the central business district of the city of Wilmington.
Climatology
Humid “subtropical” climate (Köppen climate classification Cfa) - characterized by hot, humid summers and cool winters. Significant amounts of precipitation occur in all seasons in most areas. Winter rainfall (and sometimes snowfall) is associated with large storms that the westerlies steer from west to east. Most summer rainfall occurs during thunderstorms and occasional tropical storms (hurricanes).














Airport map






Aerial View