WMKB








RMAF Butterworth





Airport

ICAO code


  WMKB





IATA Code

BWH




Summary

ICAO Region

APAC



ICAO Territory





Malaysia






 








Location

Butterworth, Penang




Serving

Butterworth



Elevation

8 ft



Coordinates



    5°
    27'
          48"
        N
  
      ,
    
    100°
    23'
          28"
        E
  




KCC

Af




Metar
WMKB 071200Z 05004KT 7000 -RA FEW010 SCT024 25/24 Q1009 RETSRA NOSIG








Active air force station 5 nm north of Butterworth, Penang, Malaysia.
 














Airport map






Aerial View