KCIC








Chico Municipal Airport





Airport

ICAO code


  KCIC





IATA Code

CIC




Summary

ICAO Region

NAM



ICAO Territory





United States






 








Location

Chico, California




Serving

Butte County



Elevation

240 ft



Coordinates



    39°
    47'
          57"
        N
  
      ,
    
    121°
    51'
          17"
        W
  




KCC

Csb




Metar
KCIC 071355Z AUTO 00000KT 10SM CLR 20/11 A2988 RMK AO1








Description
Chico Municipal Airport is a public airport located 6 km north of the central business district of Chico, a city in Butte County, California.
Climatology
Dry-summer subtropical ”Mediterranean" climate (Köppen climate classification Csb) - characterized by warm, dry summers and mild winters.














Airport map






Aerial View