MWCR








Grand Cayman/Owen Roberts International





Airport

ICAO code


  MWCR





IATA Code

GCM




Summary

ICAO Region

CARSAM



ICAO Territory





Cayman Islands






 








Location

George Town, Cayman Islands




Serving

Grand Cayman



Elevation

8 ft



Coordinates



    19°
    17'
          32"
        N
  
      ,
    
    81°
    21'
          33"
        W
  




KCC

Aw




Metar
MWCR 071400Z 07011KT 9999 FEW020 31/25 Q1009








Owen Roberts International Airport is the main international airport for the Cayman Islands as well as the main base for Cayman Airways.
Climatology
Tropical savannah climate (Köppen climate classification Aw)






Runways






Designator
Length
Width
Surface
Rops




8/26          
2140          
45          
ASP          
Yes/Yes          













Airport map






Aerial View