PAVD








Valdez Airport





Airport

ICAO code


  PAVD






Summary

ICAO Region

NAM



ICAO Territory





Alaska






 








Location

Valdez,




Coordinates



    61°
    8'
          2"
        N
  
      ,
    
    146°
    14'
          54"
        W
  




KCC

Dfc



Airport BS

Bird Strike
Non Avian Wildlife Hazards to Aircraft



Airport CFIT

Altimeter Temperature Error Correction




Metar
PAVD 071213Z AUTO 09003KT 2 1/2SM -RA BR BKN003 BKN046 OVC055 07/07 A2999 RMK AO2 P0000 TSNO $








Description
Regional airport serving the town and the port of Valdez, Alaska.
Climatology
Cool continental climate/Subarctic climate (Köppen climate classification Dfc). Despite the present of temperate rainforest, Valdez under the Köppen climate classification has a subarctic. Its winters, though much warmer than most climates of this type, are not sufficiently mild to fit into the oceanic or subpolar oceanic climate category.






Runways






Designator
Length
Width
Surface
Rops




6/24          
1984          
46          
ASP          
No/No          













Airport map






Aerial View