HTSU








Sumbawanga Airport





Airport

ICAO code


  HTSU





IATA Code

SUT




Summary

ICAO Region

AFI



ICAO Territory





Tanzania






 








Location

Sumbawanga, Rukwa Region




Serving

Sumbawanga



Elevation

5920 ft



Coordinates



    7°
    56'
          56"
        S
  
      ,
    
    31°
    36'
          37"
        E
  




KCC

Cwb




Metar
HTSU 070900Z 03007KT 9999 FEW021 22/10 Q1027








Sumbawanga Airport is an airport in western Tanzania serving the town of Sumbawanga in Rukwa Region.
Climatology
Subtropical highland climate (Köppen climate classification Cwb)














Airport map






Aerial View