MYCB








New Bight





Airport

ICAO code


  MYCB






Summary

ICAO Region

CARSAM



ICAO Territory





Bahamas






 








Location

New Bight, Cat Island,




Coordinates



    24°
    18'
          55"
        N
  
      ,
    
    75°
    27'
          8"
        W
  




KCC

Am



Airport WX

Tropical Revolving Storm




Metar
MYCB 071200Z AUTO 11003KT 070V130 CAVOK 28/25 A2991








Description
New Bight Airport is an airport in New Bight on Cat Island in The Bahamas.
Climatology
Tropical Monsoon climate (Köppen climate classification Am) - monthly mean temperatures above 18°C in every month of the year and features wet and dry seasons. A tropical monsoon climate typically features less pronounced dry seasons than a tropical savanna climate and see less variance in temperatures during the course of the year. The driest month nearly always occurs at or soon after the "winter" solstice.






Runways






Designator
Length
Width
Surface
Rops




9/27          
1539          
30          
ASP          
No/No          













Airport map






Aerial View