CYYR








CFB Goose Bay





Airport

ICAO code


  CYYR





IATA Code

YYR




Summary

ICAO Region

NAM



ICAO Territory





Canada






 








Location

Goose Bay, Labrador




Serving

Goose Bay



Elevation

160 ft



Coordinates



    53°
    18'
          56"
        N
  
      ,
    
    60°
    25'
          6"
        W
  




KCC

Dfc




Metar
CYYR 071500Z 21012KT 15SM FEW240 24/07 A3013 RMK CI1 DENSITY ALT 1177FT SLP203








Description
International civil and military (Canadian Forces) airport serving Happy Valley, Labrador. There is a significant amount of military flying activity between the airport and nearby military flying areas.
Climatology
Subarctic climate (Köppen climate classification Dfc) - long, usually very cold winters, and short, cool to mild summers.






Runways






Designator
Length
Width
Surface
Rops




16/34          
2920          
61          
ASP          
Yes/Yes          


8/26          
3367          
64          
ASP          
Yes/Yes          













Airport map






Aerial View