DAUA








Adrar/Touat-Cheikh Sidi Mohamed Belkebir Airport





Airport

ICAO code


  DAUA





IATA Code

AZR




Summary

ICAO Region

AFI



ICAO Territory





Algeria






 








Location

Adrar, Adrar




Serving

Adrar



Elevation

919 ft



Coordinates



    27°
    50'
          21"
        N
  
      ,
    
    0°
    11'
          7"
        W
  





Metar
DAUA 071200Z 18012KT 8000 SCT046 SCT133 35/21 Q1015








Description
Touat-Cheikh Sidi Mohamed Belkebir Airport is a public airport located 6 nm southeast of Adrar, the capital of the Adrar province in Algeria.






Runways






Designator
Length
Width
Surface
Rops




4/22          
3000          
45          
ASP          
No/No          













Airport map






Aerial View