PADQ








Kodiak Airport





Airport

ICAO code


  PADQ






Summary

ICAO Region

NAM



ICAO Territory





Alaska






 








Location

Kodiak,




Coordinates



    57°
    44'
          60"
        N
  
      ,
    
    152°
    29'
          38"
        W
  




Airport BS

Bird Strike
Non Avian Wildlife Hazards to Aircraft



Airport CFIT

Altimeter Temperature Error Correction




Metar
PADQ 071253Z AUTO 26007KT 10SM FEW033 07/06 A2992 RMK AO2 SLP132 T00720061 TSNO








Description
Regional airport serving Kodiak Island, Alaska.
Climatology
The community of Kodiak lies within the subpolar oceanic climate zone (Köppen Cfc), marked by relatively long and cold winters and mild summers. Precipitation is heavy year-round, though markedly less in the summer months.






Runways






Designator
Length
Width
Surface
Rops




18/36          
1528          
46          
ASP          
Yes/Yes          


11/29          
1646          
46          
ASP          
Yes/Yes          


7/25          
2299          
46          
ASP          
Yes/Yes          













Airport map






Aerial View