KALW








Walla Walla Regional Airport





Airport

ICAO code


  KALW






Summary

ICAO Region

NAM



ICAO Territory





United States






 








Location

Walla Walla, Washington,




Coordinates



    46°
    5'
          41"
        N
  
      ,
    
    118°
    17'
          16"
        W
  




KCC

BSk



Airport WX

Mountain Waves




Metar
KALW 071353Z AUTO 11004KT 10SM CLR 19/07 A2994 RMK AO2 SLP131 T01890067








Description
Walla Walla Regional Airport is a use public airport located 5 km northeast of the central business district of Walla Walla, a city in Walla Walla County, Washington.
Climatology
Semi-arid climate (Köppen climate classification BSk) - Little precipitation, hot summers and cold winters, sometimes with large changes in temperature in a 24 hour period.














Airport map






Aerial View