KSAF








Santa Fe





Airport

ICAO code


  KSAF






Summary

ICAO Region

NAM



ICAO Territory





United States






 








Location

Santa Fe, New Mexico,




Coordinates



    35°
    36'
          59"
        N
  
      ,
    
    106°
    5'
          21"
        W
  




KCC

BSk



Airport RE

Hot and High Operations




Metar
KSAF 071353Z 00000KT 10SM CLR 14/08 A3044 RMK AO2 SLP221 T01440078








Description
Santa Fe Municipal Airport is a public airport located 14 km southwest of the central business district (CBD) of Santa Fe, a city in Santa Fe County, New Mexico.
Climatology
A semi-arid steppe climate (Köppen climate classification BSk), with generally cold, dry winters and hot summers. Late spring and early summer is on average the wettest period of the year.






Runways






Designator
Length
Width
Surface
Rops




10/28          
1920          
23          
ASP          
Yes/Yes          


15/33          
1922          
46          
ASP          
Yes/Yes          


2/20          
2543          
46          
ASP          
Yes/Yes          













Airport map






Aerial View