CYHD








Dryden Regional Airport





Airport

ICAO code


  CYHD





IATA Code

YHD




Summary

ICAO Region

NAM



ICAO Territory





Canada






 








Location

Dryden, Ontario




Serving

Dryden



Elevation

1354 ft



Coordinates



    49°
    49'
          53"
        N
  
      ,
    
    92°
    44'
          37"
        W
  




KCC

Dfb



Airport CFIT

Altimeter Temperature Error Correction



Airport GND

Aircraft Ground De/Anti Icing




Metar
CYHD 071500Z AUTO 22008KT 9SM CLR 12/07 A3025 RMK SLP259








Dryden Regional Airport is located 4.3 nm (8.0 km; 4.9 mi) northeast of Dryden, Ontario, Canada. 






Runways






Designator
Length
Width
Surface
Rops




5/23          
610          
23          
SAN          
No/No          


11/29          
1829          
46          
ASP          
No/No          













Airport map






Aerial View








Airport accidents



SW4, Dryden ON Canada, 2020