KEDW








Edwards Air Force Base





Airport

ICAO code


  KEDW





IATA Code

EDW




Summary

ICAO Region

NAM



ICAO Territory





United States






 








Location

Edwards, California




Serving

Edwards



Elevation

2312 ft



Coordinates



    34°
    54'
          20"
        N
  
      ,
    
    117°
    53'
          4"
        W
  




KCC

BSk




Metar
KEDW 071355Z 00000KT 50SM FEW060 BKN170 22/01 A2994 RMK AO2A SLP111 T02210011








Edwards Air Force Base is a United States Air Force base located on the border of Kern County, Los Angeles County, and San Bernardino County, California, in the Antelope Valley. It is 6 nm southwest of the central business district of North Edwards, California, USA.














Airport map






Aerial View