LEBZ








Badajoz Airport





Airport

ICAO code


  LEBZ





IATA Code

BJZ




Summary

ICAO Region

EUR



ICAO Territory





Spain






 








Location

, Extremadura




Serving

Badajoz



Elevation

609 ft



Coordinates



    38°
    53'
          28"
        N
  
      ,
    
    6°
    49'
          17"
        W
  





Metar
LEBZ 071300Z 30003KT CAVOK 25/08 Q1012









Runways






Designator
Length
Width
Surface
Rops




13/31          
2850          
60          
ASP          
Yes/Yes          













Airport map






Aerial View