LFLY








Lyon-Bron Airport





Airport

ICAO code


  LFLY





IATA Code

LYN




Summary

ICAO Region

EUR



ICAO Territory





France






 








Location

, Rhone-Alpes




Serving

Lyon



Elevation

659 ft



Coordinates



    45°
    43'
          38"
        N
  
      ,
    
    4°
    56'
          39"
        E
  





Metar
LFLY 071400Z AUTO 17015G26KT 140V210 CAVOK 32/17 Q1007 BECMG 18010KT









Runways






Designator
Length
Width
Surface
Rops




16/34          
1820          
45          
ASP          
Yes/Yes          













Airport map






Aerial View