DAUT








Timimoun Airport





Airport

ICAO code


  DAUT





IATA Code

TMX




Summary

ICAO Region

AFI



ICAO Territory





Algeria






 








Location

, Adrar




Serving

Timimoun



Elevation

1027 ft



Coordinates



    29°
    14'
          14"
        N
  
      ,
    
    0°
    16'
          34"
        E
  





Metar
DAUT 071000Z 17013KT 3000 HZ SCT046 SCT120 32/23 Q1016









Runways






Designator
Length
Width
Surface
Rops




6/24          
3000          
45          
ASP          
No/No          













Airport map






Aerial View