RJFC








Yakushima Airport





Airport

ICAO code


  RJFC





IATA Code

KUM




Summary

ICAO Region

APAC



ICAO Territory





Japan






 








Location

Yakushima, Kagoshima Prefecture




Serving

Yakushima



Elevation

122 ft



Coordinates



    30°
    23'
          0"
        N
  
      ,
    
    130°
    39'
          32"
        E
  




KCC

Cfa




Metar
RJFC 060336Z AUTO 11011KT 9999 FEW015 31/27 Q1011 RMK A2987








Yakushima Airport is located on the island of Yakushima, in Yakushima Town, Kumage District, Kagoshima Prefecture, Japan.
Climatology
Humid Sub-tropical climate (Köppen climate classification Cfa)






Runways






Designator
Length
Width
Surface
Rops




14/32          
1500          
45          
ASP          
Yes/Yes          













Airport map






Aerial View