LATI








Tirana International Airport





Airport

ICAO code


  LATI






Summary

ICAO Region

EUR



ICAO Territory





Albania






 








Location

Rinas, District of Krujë, Durrës County,




Coordinates



    41°
    24'
          59"
        N
  
      ,
    
    19°
    42'
          46"
        E
  





Metar
LATI 071520Z 35011KT CAVOK 30/21 Q1014 NOSIG








Description
Tirana International Airport Nënë Tereza IATA: TIA is Albania's only international airport. It is commonly known as Rinas International Airport, as it is located 6 nm of Tirana, in the village of Rinas. In 2001, the airport was named after Mother Teresa.
Climatology






Runways






Designator
Length
Width
Surface
Rops




18/36          
2734          
45          
ASP          
Yes/Yes          













Airport map






Aerial View