UAUU








Kostanay West Airport





Airport

ICAO code


  UAUU





IATA Code

KSN




Summary

ICAO Region

APAC



ICAO Territory





Kazakhstan






 








Location

Kostanay,




Serving

Kostanay



Elevation

595 ft



Coordinates



    53°
    12'
          25"
        N
  
      ,
    
    63°
    33'
          1"
        E
  





Metar
UAUU 071400Z 36004MPS 9999 SCT048 15/09 Q1020 NOSIG RMK QFE749/0999








Description
Kostanay Airport is an airport located 2 km southwest of Kostanay, Kazakhstan.






Runways






Designator
Length
Width
Surface
Rops




15/33          
2484          
48          
ASP          
No/No          













Airport map






Aerial View