KPIR








Pierre Regional Airport





Airport

ICAO code


  KPIR






Summary

ICAO Region

NAM



ICAO Territory





United States






 








Location

Pierre, South Dakota,




Coordinates



    44°
    22'
          57"
        N
  
      ,
    
    100°
    17'
          9"
        W
  




KCC

Dfa



Airport CFIT

Altimeter Temperature Error Correction




Metar
KPIR 071353Z AUTO 00000KT 10SM CLR 14/09 A3024 RMK AO2 SLP238 T01390089








Description
Pierre Regional Airport is a public use airport located 6 km east of the central business district of Pierre, a city in Hughes County, South Dakota.
Climatology
Humid continental climate (Köppen climate classification Dfa) - characterized by four seasons: cold, windy, snowy winters, mild springs, hot, humid summers, and crisp and relatively short autumns. Precipitation reaches its lowest in January and February and peaks in summer and latter half of spring.






Runways






Designator
Length
Width
Surface
Rops




7/25          
2099          
46          
ASP          
Yes/Yes          


13/31          
2103          
30          
ASP          
Yes/Yes          













Airport map






Aerial View