KMSY








New Orleans





Airport

ICAO code


  KMSY






Summary

ICAO Region

NAM



ICAO Territory





United States






 








Location

New Orleans, Louisiana,




Coordinates



    29°
    59'
          36"
        N
  
      ,
    
    90°
    15'
          29"
        W
  




KCC

Cfa




Metar
KMSY 071353Z 03008KT 7SM -RA OVC009 24/23 A2989 RMK AO2 RAB17 SLP126 P0000 T02390228








Description
International airport 10 nm west of the city of New Orleans, Louisiana, USA.
Climatology
Humid “subtropical” climate (Köppen climate classification Cfa) - characterized by hot, humid summers and cool winters. Significant amounts of precipitation occur in all seasons in most areas. Winter rainfall (and sometimes snowfall) is associated with large storms that the westerlies steer from west to east. Most summer rainfall occurs during thunderstorms and occasional tropical storms (hurricanes).






Runways






Designator
Length
Width
Surface
Rops




6/24          
1088          
46          
ASP          
Yes/Yes          


1/19          
2134          
46          
ASP          
Yes/Yes          


10/28          
3080          
46          
PEM          
Yes/Yes          













Airport map






Aerial View