SACO








Ingeniero Aeronautico Ambrosio Taravella International Airport





Airport

ICAO code


  SACO





IATA Code

COR




Summary

ICAO Region

CARSAM



ICAO Territory





Argentina






 








Location

Cordoba, Cordoba




Serving

Cordoba



Elevation

1604 ft



Coordinates



    31°
    19'
          25"
        S
  
      ,
    
    64°
    12'
          29"
        W
  




KCC

Cwa




Metar
SACO 071300Z 22005KT 170V270 CAVOK 18/02 Q1015 NOSIG








Airport, more commonly known as Pajas Blancas, is 9km north of the centre of the city of Cordoba, Argentina.
Climatology
Humid subtropical climate (Köppen climate classification Cwa).






Runways






Designator
Length
Width
Surface
Rops




5/23          
2200          
45          
ASP          
Yes/Yes          


18/36          
3200          
45          
CON          
Yes/Yes          













Airport map






Aerial View