SPMS








Moises Benzaquen Rengifo Airport





Airport

ICAO code


  SPMS





IATA Code

YMS




Summary

ICAO Region

CARSAM



ICAO Territory





Peru






 








Location

Yurimaguas, Loreto




Serving

Yurimaguas



Elevation

587 ft



Coordinates



    5°
    53'
          38"
        S
  
      ,
    
    76°
    7'
          6"
        W
  




KCC

Af




Metar
SPMS 071300Z 00000KT 3000 BR BKN010 24/24 Q1012 RMK TX33.0/TN23.0 BIRD HAZARD RWY 09/27 PP000








Airport serving Yurimaguas, a town in Yurimaguas district, Alto Amazonas province, Loreto region, Peru.
Climatology
Equatorial climate (Köppen climate classification Af).






Runways






Designator
Length
Width
Surface
Rops




9/27          
1802          
30          
ASP          
No/No          













Airport map






Aerial View