LFMT








Montpellier





Airport

ICAO code


  LFMT






Summary

ICAO Region

EUR



ICAO Territory





France






 








Location

Maugio, Languedoc-Roussillon,




Coordinates



    43°
    34'
          48"
        N
  
      ,
    
    3°
    58'
          2"
        E
  




KCC

Csa



Airport BS

Bird Strike



Airport WX

Low Level Turbulence




Metar
LFMT 071400Z AUTO 14025KT 9999 FEW031 SCT043 27/23 Q1009 TEMPO 15020G30KT TSRA BKN014 FEW030CB








Description
Montpellier - Méditerranée Airport, also known as Fréjorgues Airport, is an airport in southern France. It is located 7 km east-southeast of Montpellier in Mauguio.
Climatology
Dry-summer subtropical ”Mediterranean" climate (Köppen climate classification Csa) - characterized by hot, dry summers and mild winters. During the summer, subtropical high pressure cells dominate, making rainfall unlikely except for the occasional thunderstorm. In the winter, periodic storms bring rain (snow at higher elevations).






Runways






Designator
Length
Width
Surface
Rops




13R/31L          
1100          
30          
ASP          
Yes/Yes          


13L/31R          
2600          
50          
ASP          
Yes/Yes          













Airport map






Aerial View








Airport accidents



B733, vicinity Montpelier, France 2011