OLBA








Beirut International





Airport

ICAO code


  OLBA






Summary

ICAO Region

MID



ICAO Territory





Lebanon






 








Location

Beirut International, Lebanon,




Coordinates



    33°
    49'
          15"
        N
  
      ,
    
    35°
    29'
          18"
        E
  




KCC

Csa




Metar
OLBA 071200Z 25008KT 8000 SCT024 31/24 Q1011 NOSIG








Description
International airport serving Beirut, capital of Lebanon.
Climatology
Dry-summer subtropical ”Mediterranean" climate (Köppen climate classification Csa) - characterized by hot, dry summers and mild winters. During the summer, subtropical high pressure cells dominate, making rainfall unlikely except for the occasional thunderstorm. In the winter, periodic storms bring rain.






Runways






Designator
Length
Width
Surface
Rops




17/35          
3250          
60          
ASP          
Yes/Yes          


16/34          
3395          
45          
CON          
Yes/Yes          


3/21          
3800          
45          
CON          
Yes/Yes          













Airport map






Aerial View