KVLD








Valdosta Regional Airport





Airport

ICAO code


  KVLD






Summary

ICAO Region

NAM



ICAO Territory





United States






 








Location

Valdosta, Georgia,




Coordinates



    30°
    46'
          54"
        N
  
      ,
    
    83°
    16'
          36"
        W
  




KCC

Cfa




Metar
KVLD 071420Z 02007KT 3SM BR OVC003 23/23 A2991 RMK AO2 T02330228








Description
Valdosta Regional Airport is a public-use airport located 6 km south of the central business district of Valdosta, a city in Lowndes County, Georgia.
Climatology
Humid “subtropical” climate (Köppen climate classification Cfa) - characterized by hot, humid summers and cool winters. Significant amounts of precipitation occur in all seasons in most areas.






Runways






Designator
Length
Width
Surface
Rops




13/31          
1108          
23          
ASP          
Yes/Yes          


4/22          
1706          
30          
ASP          
Yes/Yes          


17/35          
1921          
46          
ASP          
Yes/Yes          













Airport map






Aerial View