KCNM








Cavern City Air Terminal





Airport

ICAO code


  KCNM





IATA Code

CNM




Summary

ICAO Region

NAM



ICAO Territory





United States






 








Location

Carlsbad, New Mexico




Serving

Carlsbad



Elevation

3295 ft



Coordinates



    32°
    20'
          15"
        N
  
      ,
    
    104°
    15'
          48"
        W
  




KCC

BSk



Airport LOS

Parallel Runway Operation



Airport RE

Hot and High Operations



Airport WX

Tornado




Metar
KCNM 071353Z AUTO 33003KT 10SM BKN048 19/17 A3031 RMK AO2 SLP219 T01890172








Description
Cavern City Air Terminal is a public use airport located 5 nm southwest of the central business district of Carlsbad, a city in Eddy County, New Mexico, USA.
 














Airport map






Aerial View