MMPN








Licenciado y General Ignacio Lopez Rayon Airport





Airport

ICAO code


  MMPN





IATA Code

UPN




Summary

ICAO Region

CARSAM



ICAO Territory





Mexico






 








Location

Uruapan, Michoacan de Ocampo




Serving

Uruapan



Elevation

5258 ft



Coordinates



    19°
    23'
          48"
        N
  
      ,
    
    102°
    2'
          21"
        W
  




KCC

Cwa




Metar
MMPN 070041Z 27006KT 6SM BKN050 OVC080 20/18 A3008 RMK 8/57/ BR BINOVC








Uruapan International Airport, also known as "Lic. y Gen. Ignacio López Rayón International Airport", serves the Mexican city of Uruapan, and it is the second-busiest and second-largest international gateway of the Mexican state of Michoacán after Morelia International Airport.
Climatology
Humid subtropical Climate (Köppen climate classification Cwa)






Runways






Designator
Length
Width
Surface
Rops




2/20          
2400          
45          
ASP          
Yes/Yes          













Airport map






Aerial View