UTAT








Dashoguz Airport





Airport

ICAO code


  UTAT





IATA Code

TAZ




Summary

ICAO Region

EUR



ICAO Territory





Turkmenistan






 








Location

Dashoguz, Turkmenistan,




Serving

Dashoguz



Elevation

272 ft



Coordinates



    41°
    45'
          37"
        N
  
      ,
    
    59°
    49'
          49"
        E
  





Metar
UTAT 071400Z 03010KT CAVOK 22/02 Q1022 R08/CLRD70 NOSIG








Description
Daşoguz Airport (also spelled Dashoguz) is a provincial airport located 15 km. southwest of Daşoguz in Turkmenistan.






Runways






Designator
Length
Width
Surface
Rops




09R/27L          
1500          
30          
ASP          
No/No          


09L/27R          
2700          
42          
ASP          
No/No          













Airport map






Aerial View