LRTC








Tulcea Airport





Airport

ICAO code


  LRTC





IATA Code

TCE




Summary

ICAO Region

EUR



ICAO Territory





Romania






 








Location

, Tulcea




Serving

Tulcea



Elevation

200 ft



Coordinates



    45°
    3'
          45"
        N
  
      ,
    
    28°
    42'
          52"
        E
  





Metar
LRTC 071200Z 04013KT 9999 FEW040 25/15 Q1019









Runways






Designator
Length
Width
Surface
Rops




16/34          
1986          
30          
CON          
No/No          













Airport map






Aerial View