KHYS








Hays Regional Airport





Airport

ICAO code


  KHYS





IATA Code

HYS




Summary

ICAO Region

NAM



ICAO Territory





United States






 








Location

Hays, Kansas




Serving

Hays



Elevation

1999 ft



Coordinates



    38°
    51'
          14"
        N
  
      ,
    
    99°
    16'
          26"
        W
  




KCC

Dfa



Airport CFIT

Altimeter Temperature Error Correction




Metar
KHYS 071356Z AUTO 12008KT 10SM CLR 15/10 A3030 RMK AO2 SLP256 T01500100








Hays Regional Airport is a public-use airport located 3 nm southeast of the central business district of Hays, a city in Ellis County, Kansas.
 














Airport map






Aerial View