KCWA








Central Wisconsin Airport





Airport

ICAO code


  KCWA





IATA Code

CWA




Summary

ICAO Region

NAM



ICAO Territory





United States






 








Location

Mosinee, Wisconsin




Serving

Mosinee



Elevation

1277 ft



Coordinates



    44°
    47'
          3"
        N
  
      ,
    
    89°
    40'
          21"
        W
  




KCC

Dfa




Metar
KCWA 071347Z 35009KT 10SM CLR 08/05 A3030








Description
Central Wisconsin Airport, referred to as "C-Way", is a public airport located 3 nm southeast of the central business district of Mosinee, in Marathon County, Wisconsin, USA.














Airport map






Aerial View