PAMM








Metlakatla Seaplane Base





Airport

ICAO code


  PAMM





IATA Code

MTM




Summary

ICAO Region

NAM



ICAO Territory





Alaska






 








Location

, Alaska




Serving

Metakatla



Coordinates



    55°
    7'
          52"
        N
  
      ,
    
    131°
    34'
          41"
        W
  





Metar
PAMM 071221Z AUTO 17004KT 8SM OVC004 14/14 A3006 RMK AO2 $









Runways






Designator
Length
Width
Surface
Rops




E/W          
1524          
1524          
WATER          
No/No          


N/S          
1524          
1524          
WATER          
No/No          













Airport map






Aerial View