KABY








Southwest Georgia Regional Airport





Airport

ICAO code


  KABY





IATA Code

ABY




Summary

ICAO Region

NAM



ICAO Territory





United States






 








Location

Albany, Georgia,




Serving

Albany



Elevation

197 ft



Coordinates



    31°
    31'
          58"
        N
  
      ,
    
    84°
    11'
          47"
        W
  




KCC

Cfa




Metar
KABY 071353Z 03006KT 10SM BKN009 OVC037 22/20 A2994 RMK AO2 CIG 005V012 SLP137 T02170200








Description
Southwest Georgia Regional Airport is a public airport located 5 km southwest of the central business district of Albany, a city in Dougherty County, Georgia.
Climatology
Humid “subtropical” climate (Köppen climate classification Cfa) - characterized by hot, humid summers and cool winters. Significant amounts of precipitation occur in all seasons in most areas.














Airport map






Aerial View