DAFH








Hassi R'Mel Airport





Airport

ICAO code


  DAFH





IATA Code

HRM




Summary

ICAO Region

AFI



ICAO Territory





Algeria






 








Location

, Laghouat




Serving

Tilrempt



Elevation

2540 ft



Coordinates



    32°
    55'
          50"
        N
  
      ,
    
    3°
    18'
          42"
        E
  





Metar
DAFH 071200Z 23010KT 9000 FEW040 32/17 Q1019









Runways






Designator
Length
Width
Surface
Rops




9/27          
1431          
30          
ASP          
No/No          


8/26          
2998          
45          
ASP          
No/No          













Airport map






Aerial View