RJSA








Aomori Airport





Airport

ICAO code


  RJSA





IATA Code

AOJ




Summary

ICAO Region

APAC



ICAO Territory





Japan






 








Location

Aomori, Aomori Prefecture




Serving

Aomori



Elevation

650 ft



Coordinates



    40°
    44'
          18"
        N
  
      ,
    
    140°
    41'
          21"
        E
  




KCC

Dfa




Metar
RJSA 071200Z 20003KT 9999 FEW020 SCT120 16/16 Q1015








Regional airport located 11.2 km south southwest of Aomori, the capital city of Aomori Prefecture in northern Japan.
Climatology
Humid Continental climate (Köppen climate classification Dfa)






Runways






Designator
Length
Width
Surface
Rops




6/24          
3001          
61          
ASP          
Yes/Yes          













Airport map






Aerial View