LRBM








Baia Mare Airport





Airport

ICAO code


  LRBM





IATA Code

BAY




Summary

ICAO Region

EUR



ICAO Territory





Romania






 








Location

Tăuții-Măgherăuș, Maramureș




Serving

Baia Mare



Elevation

605 ft



Coordinates



    47°
    39'
          39"
        N
  
      ,
    
    23°
    28'
          2"
        E
  




KCC

Dfb




Metar
LRBM 071200Z AUTO 14007KT 100V180 9999 FEW075/// 29/08 Q1019








Description
Regional airport located in north-west Romania serving the city of Baia Mare.
Climatology
Humid Continental climate (Köppen climate classification Dfb) - Variable weather patterns and a large seasonal temperature variance. Summers are often warm and humid with frequent thunderstorms and winters can be very cold with frequent snowfall and persistent snow cover.






Runways






Designator
Length
Width
Surface
Rops




10/28          
1800          
30          
CON          
No/No          













Airport map






Aerial View