KFNT








Bishop International Airport





Airport

ICAO code


  KFNT





IATA Code

FNT




Summary

ICAO Region

NAM



ICAO Territory





United States






 








Location

Flint, Michigan




Serving

Flint



Elevation

782 ft



Coordinates



    42°
    57'
          39"
        N
  
      ,
    
    83°
    44'
          32"
        W
  




KCC

Dfb



Airport CFIT

Altimeter Temperature Error Correction



Airport WX

Cumulonimbus




Metar
KFNT 071444Z 33011KT 10SM FEW021 13/07 A3010 RMK AO2 T01280072








Description
Bishop International Airport is a commercial and general aviation airport located in Flint, Michigan, USA.














Airport map






Aerial View