EBBR








Brussels Airport





Airport

ICAO code


  EBBR





IATA Code

BRU




Summary

ICAO Region

EUR



ICAO Territory





Belgium






 








Location

Zaventem Diegem, Machelen,




Serving

Brussel



Elevation

184 ft



Coordinates



    50°
    53'
          56"
        N
  
      ,
    
    4°
    29'
          9"
        E
  




KCC

Cfb



Airport BS

Bird Strike




Metar
EBBR 071420Z 10004KT 070V130 9999 FEW031 26/18 Q1009 NOSIG








Description
International airport serving the capital of Belgium.
Climatology
Temperate Marine climate/Oceanic climate (Köppen climate classification Cfb) - Moderately cool summer and comparatively warm winter.






Runways






Designator
Length
Width
Surface
Rops




2/20          
2987          
50          
ASP          
Yes/Yes          


07R/25L          
3211          
45          
ASP          
Yes/Yes          


07L/25R          
3638          
45          
CON          
Yes/Yes          













Airport map






Aerial View








Airport accidents



A320 / E195, vicinity Brussels Belgium, 2018
E195 / A320, Brussels Belgium, 2016
B742, Brussels Belgium, 2008