KGED








Sussex County Airport





Airport

ICAO code


  KGED






Summary

ICAO Region

NAM



ICAO Territory





United States






 








Location

Georgetown, Delaware,




Elevation

53 ft



Coordinates



    38°
    41'
          23"
        N
  
      ,
    
    75°
    21'
          38"
        W
  




KCC

Cfa




Metar
KGED 071354Z AUTO 19005KT 10SM CLR 22/19 A2987 RMK AO2 SLP113 T02170194








Description
Sussex County Airport is a public airport located 3 km southeast of the central business district of Georgetown, in Sussex County, Delaware.
Climatology
Humid “subtropical” climate (Köppen climate classification Cfa) - characterized by hot, humid summers and cool winters. Significant amounts of precipitation occur in all seasons in most areas. Winter rainfall (and sometimes snowfall) is associated with large storms that the westerlies steer from west to east. Most summer rainfall occurs during thunderstorms and occasional tropical storms (hurricanes).














Airport map






Aerial View