MSLP








Monseñor Óscar Arnulfo Romero International Airport





Airport

ICAO code


  MSLP





IATA Code

SAL




Summary

ICAO Region

CARSAM



ICAO Territory





El Salvador






 








Location

San Luis Talpa, La Paz




Serving

San Salvador



Elevation

102 ft



Coordinates



    13°
    26'
          30"
        N
  
      ,
    
    89°
    3'
          21"
        W
  




KCC

Aw




Metar
MSLP 071500Z 03005KT 360V060 9999 FEW020 28/28 Q1009 A2980 NOSIG








Monseñor Óscar Arnulfo Romero International Airport, previously known as Comalapa International Airport or Cuscatlán International Airport, is located about 50 km from San Salvador in El Salvador.
Climatology
Tropical Savanna climate (Köppen climate classification Aw).






Runways






Designator
Length
Width
Surface
Rops




18/36          
800          
23          
ASP          
Yes/Yes          


7/25          
3200          
45          
ASP          
Yes/Yes          













Airport map






Aerial View