LTBJ








Izmir/Adnan Menderes Airport





Airport

ICAO code


  LTBJ





IATA Code

ADB




Summary

ICAO Region

EUR



ICAO Territory





Turkey






 








Location

Izmir,




Serving

Izmir



Elevation

412 ft



Coordinates



    38°
    17'
          37"
        N
  
      ,
    
    27°
    9'
          8"
        E
  





Metar
LTBJ 071150Z 34012KT 300V020 9999 FEW030 33/12 Q1011 NOSIG









Runways






Designator
Length
Width
Surface
Rops




16L/34R          
3240          
45          
ASP          
Yes/Yes          


16R/34L          
3240          
45          
CON          
Yes/Yes          













Airport map






Aerial View