KIRK








Kirksville Regional Airport





Airport

ICAO code


  KIRK





IATA Code

IRK




Summary

ICAO Region

NAM



ICAO Territory





United States






 








Location

Kirksville, Missouri




Serving

Kirksville



Elevation

966 ft



Coordinates



    40°
    5'
          37"
        N
  
      ,
    
    92°
    32'
          42"
        W
  




KCC

Dfa




Metar
KIRK 071255Z AUTO 02005KT 10SM CLR 12/08 A3030 RMK AO2 SLP262 T01170083








Kirksville Regional Airport is a public airport located 4 nm south of the central business district of Kirksville, a city in Adair County, Missouri, USA. Owned by the City of Kirksville, the airport is mostly used for general aviation, but is also served by one commercial airline.
 














Airport map






Aerial View