KAFW








Perot Field Fort Worth Alliance Airport





Airport

ICAO code


  KAFW





IATA Code

AFW




Summary

ICAO Region

NAM



ICAO Territory





United States






 








Location

Roanoke, Texas




Serving

Fort Worth



Elevation

723 ft



Coordinates



    32°
    59'
          37"
        N
  
      ,
    
    97°
    18'
          35"
        W
  




KCC

Cfa




Metar
KAFW 071253Z 36006KT 10SM CLR 19/14 A3012 RMK AO2 SLP190 T01890139








Perot Field Fort Worth Alliance Airport is a city-owned public-use airport located 13 nm north of the central business district of Fort Worth, a city in Tarrant County, Texas, USA.














Airport map






Aerial View