SKPC








German Olano Airport





Airport

ICAO code


  SKPC





IATA Code

PCR




Summary

ICAO Region

CARSAM



ICAO Territory





Colombia






 








Location

Puerto Carreno, Vichada Department




Serving

Puerto Carreno



Elevation

173 ft



Coordinates



    6°
    11'
          7"
        N
  
      ,
    
    67°
    29'
          29"
        W
  




KCC

Aw




Metar
SKPC 071200Z VRB02KT 9999 NSC 26/26 Q1010








Germán Olano Airport, also known as Puerto Carreno Airport, is an airport serving Puerto Carreño, the capital of Vichada Department in Colombia.
Climatology
Tropical savanna climate (Köppen climate classification Aw)






Runways






Designator
Length
Width
Surface
Rops




7/25          
1800          
21          
ASP          
No/No          













Airport map






Aerial View








Airport accidents



B732, vicinity Puerto Carreño Colombia, 2022