KCVN








Clovis Municipal Airport





Airport

ICAO code


  KCVN





IATA Code

CVN




Summary

ICAO Region

NAM



ICAO Territory





United States






 








Location

Clovis, New Mexico




Serving

Clovis



Elevation

4216 ft



Coordinates



    34°
    25'
          36"
        N
  
      ,
    
    103°
    4'
          42"
        W
  




KCC

BSk



Airport RE

Hot and High Operations




Metar
KCVN 071405Z AUTO 16004KT 10SM CLR 18/14 A3036 RMK AO2








Description
Clovis Municipal Airport is a public use airport located 6 nm east of the central business district of Clovis, a city in Curry County, New Mexico, USA.














Airport map






Aerial View