VAAH








Ahmedabad International Airport





Airport

ICAO code


  VAAH






Summary

ICAO Region

APAC



ICAO Territory





India






 








Location

Ahmedabad, Gujarat,




Coordinates



    23°
    4'
          29"
        N
  
      ,
    
    72°
    37'
          25"
        E
  




KCC

BSh




Metar
VAAH 071400Z 25003KT 4000 HZ SCT020 29/23 Q1004 NOSIG








Description
Sardar Vallabhbhai Patel International Airport is located in the State of Gujarat 8 km from the Ahmedabad railway station and services the cities of Ahmedabad and Gandhinagar.
Climatology
Hot, semi-arid/Steppe climate (Köppen climate classification BSh) - hot, sometimes extremely hot summers and mild to warm winters, with low annual precipitation.






Runways






Designator
Length
Width
Surface
Rops




5/23          
3489          
46          
PEM          
Yes/Yes          













Airport map






Aerial View