CYGL








La Grande Rivière





Airport

ICAO code


  CYGL





IATA Code

YGL




Summary

ICAO Region

NAM



ICAO Territory





Canada






 








Location

Radisson, Quebec,




Serving

Radisson



Elevation

639 ft



Coordinates



    53°
    37'
          31"
        N
  
      ,
    
    77°
    42'
          13"
        W
  




KCC

Dfc



Airport CFIT

Altimeter Temperature Error Correction



Airport RE

Landing on Contaminated Runways




Metar
CYGL 071500Z 01006KT 340V050 15SM FEW015 SCT150 BKN240 09/02 A3010 RMK SC2AC2CI2 SLP205








Description
La Grande Rivière Airport, (IATA: YGL), is an airfield about 30 km from Radisson, Quebec, Canada.
Climatology
Subarctic climate (Köppen climate classification Dfc) - long, usually very cold winters, and short, cool to mild summers.






Runways






Designator
Length
Width
Surface
Rops




13/31          
1981          
46          
ASP          
No/No          













Airport map






Aerial View