KHSV








Huntsville International Airport





Airport

ICAO code


  KHSV





IATA Code

HSV




Summary

ICAO Region

NAM



ICAO Territory





United States






 








Location

Madison, Alabama




Serving

Huntsville



Elevation

629 ft



Coordinates



    34°
    38'
          14"
        N
  
      ,
    
    86°
    46'
          30"
        W
  




KCC

Cfa



Airport LOS

Parallel Runway Operation




Metar
KHSV 071353Z 03014G19KT 10SM OVC018 22/17 A3001 RMK AO2 SLP157 T02170167 $








Huntsville International Airport, also known as Carl T. Jones Field, is an airport located 9 nm southwest of the central business district of Huntsville, a city in Madison County, Alabama, United States.














Airport map






Aerial View