ESUT








Hemaven Tärnaby Airport





Airport

ICAO code


  ESUT





IATA Code

HMV




Summary

ICAO Region

EUR



ICAO Territory





Sweden






 








Location

Hemaven, Storuman




Serving

Hemaven



Elevation

1503 ft



Coordinates



    65°
    48'
          22"
        N
  
      ,
    
    15°
    4'
          58"
        E
  




KCC

Dfc




Metar
ESUT 071220Z AUTO 03004KT 9999 SCT021/// OVC028/// 16/15 Q1020








Airport in Hemavan, Sweden.
Climatology
Subpolar climate (Köppen climate classification Dfc)






Runways






Designator
Length
Width
Surface
Rops




15/33          
1601          
30          
ASP          
No/No          













Airport map






Aerial View