KBTV








Burlington International Airport





Airport

ICAO code


  KBTV





IATA Code

BTV




Summary

ICAO Region

NAM



ICAO Territory





United States






 








Location

Burlington, Vermont




Serving

Burlington and Quebec



Elevation

335 ft



Coordinates



    44°
    28'
          9"
        N
  
      ,
    
    73°
    9'
          17"
        W
  




KCC

Dfb



Airport WX

Cumulonimbus




Metar
KBTV 071415Z 17014G22KT 10SM BKN031 21/14 A2980 RMK AO2 T02110144








Description
Burlington International Airport is a joint use civil-military (ANG) airport located 3 nm east of Burlington, Vermont, USA.














Airport map






Aerial View