LPBJ








Beja Airport





Airport

ICAO code


  LPBJ





IATA Code

BYJ




Summary

ICAO Region

EUR



ICAO Territory





Portugal






 








Location

Beja, Alentejo Region




Serving

Beja



Elevation

636 ft



Coordinates



    38°
    4'
          44"
        N
  
      ,
    
    7°
    55'
          57"
        W
  




KCC

Csa




Metar
LPBJ 071300Z 01007KT 320V100 CAVOK 25/08 Q1012








Beja Airport is a civil/military airport serving the Alentejo Region of Portugal.
Climatology
Warm mediterranean climate (Köppen climate classification Csa)






Runways






Designator
Length
Width
Surface
Rops




01R/19L          
2951          
30          
CON          
No/No          


01L/19R          
3450          
60          
CON          
No/No          













Airport map






Aerial View