LGBL








Nea Anchialos





Airport

ICAO code


  LGBL





IATA Code

VOL




Summary

ICAO Region

EUR



ICAO Territory





Greece






 








Location

Nea Anchialos, Thessaly




Serving

Volos



Elevation

83 ft



Coordinates



    39°
    13'
          11"
        N
  
      ,
    
    22°
    47'
          39"
        E
  




KCC

Csa




Metar
LGBL 071350Z 10015KT 9999 FEW030 30/21 Q1014








Description
Civil/military airport serving Volos and surrounding area in Greece.
Climatology
Mediterranean climate (Köppen climate classification Csa) - Hot, dry summer and a mild wet winter.






Runways






Designator
Length
Width
Surface
Rops




8/26          
2759          
45          
ASP          
Yes/Yes          













Airport map






Aerial View