GMTT








Tangier Ibn Battouta Airport





Airport

ICAO code


  GMTT





IATA Code

TNG




Summary

ICAO Region

AFI



ICAO Territory





Morocco






 








Location

Boukhalef, Tanger-Tetouan-Al Hoceima region




Serving

Tangier



Elevation

62 ft



Coordinates



    35°
    43'
          37"
        N
  
      ,
    
    5°
    55'
          1"
        W
  




KCC

Csa




Metar
GMTT 071300Z 30010KT 7000 SCT040 SCT160 24/14 Q1011








Tangier Ibn Battuta Airport is an international airport serving Tangier, the capital city of the Tanger-Tetouan-Al Hoceima region in Morocco.
Climatology
Dry-summer subtropical ”Mediterranean" climate (Köppen climate classification Csa)






Runways






Designator
Length
Width
Surface
Rops




7/25          
2000          
30          
ASP          
No/No          


10/28          
3500          
45          
ASP          
Yes/Yes          













Airport map






Aerial View