SBGO








Santa Genoveva Airport





Airport

ICAO code


  SBGO





IATA Code

GYN




Summary

ICAO Region

CARSAM



ICAO Territory





Brazil






 








Location

Santa Genoveva, Goias




Serving

Goiânia



Elevation

2450 ft



Coordinates



    16°
    37'
          47"
        S
  
      ,
    
    49°
    13'
          36"
        W
  




KCC

Aw




Metar
SBGO 071300Z 05013KT CAVOK 31/07 Q1020








Santa Genoveva/Goiânia Airport is the airport serving Goiânia, Brazil.
Climatology
Tropical savanna climate (Köppen climate classification Aw)






Runways






Designator
Length
Width
Surface
Rops




14/32          
2500          
45          
ASP          
Yes/Yes          













Airport map






Aerial View