GOSS








Saint-Louis Airport





Airport

ICAO code


  GOSS





IATA Code

XLS




Summary

ICAO Region

AFI



ICAO Territory





Senegal






 








Location

Saint-Louis, Saint-Louis region




Serving

Saint-Louis



Elevation

9 ft



Coordinates



    16°
    3'
          3"
        N
  
      ,
    
    16°
    27'
          40"
        W
  




KCC

BWh




Metar
GOSS 071400Z 32006KT 200V010 9999 FEW013 31/22 Q1012








Saint-Louis Airport is an airport serving Saint-Louis, the capital of the Saint-Louis Region in Senegal.
Climatology
Hot desert climate (Köppen climate classification BWh)






Runways






Designator
Length
Width
Surface
Rops




1/19          
1311          
38          
GRE          
No/No          


18/36          
1899          
30          
ASP          
No/No          













Airport map






Aerial View