UUYY








Syktyvkar Airport





Airport

ICAO code


  UUYY





IATA Code

SCW




Summary

ICAO Region

EUR



ICAO Territory





Russian Federation






 








Location

Syktyvkar, Komi Republic,




Serving

Syktyvkar



Elevation

328 ft



Coordinates



    61°
    38'
          30"
        N
  
      ,
    
    50°
    50'
          18"
        E
  





Metar
UUYY 071230Z 26003MPS 9999 SCT038 23/16 Q1022 R18/CLRD61 NOSIG RMK QFE758/1011








Description
Syktyvkar Airport is an airport in the Komi Republic, Russia located just within the City.
Climatology






Runways






Designator
Length
Width
Surface
Rops




1/19          
2500          
50          
ASP          
Yes/Yes          













Airport map






Aerial View