MHLM








Ramón Villeda Morales International Airport





Airport

ICAO code


  MHLM





IATA Code

SAP




Summary

ICAO Region

CARSAM



ICAO Territory





Honduras






 








Location

Col Independencia, Cortes Department




Serving

San Pedro Sula



Elevation

89 ft



Coordinates



    15°
    27'
          16"
        N
  
      ,
    
    87°
    55'
          35"
        W
  




KCC

Am




Metar
MHLM 071500Z VRB03KT 9999 FEW020 SCT090 28/24 Q1008 A2977 NOSIG








Ramón Villeda Morales International Airport, also known as La Mesa International Airport, is located 11 km east of the city of San Pedro Sula, in the Cortés Department in Honduras.
Climatology
Tropical monsoon climate (Köppen climate classification Am)






Runways






Designator
Length
Width
Surface
Rops




4/22          
2805          
45          
CON          
Yes/Yes          













Airport map






Aerial View