KMKC








Charles B. Wheeler Downtown Airport





Airport

ICAO code


  KMKC





IATA Code

MKC




Summary

ICAO Region

NAM



ICAO Territory





United States






 








Location

Kansas City, Missouri




Serving

Kansas City



Elevation

757 ft



Coordinates



    39°
    7'
          24"
        N
  
      ,
    
    94°
    35'
          34"
        W
  




KCC

Dfa




Metar
KMKC 071354Z 06006KT 10SM CLR 16/09 A3030 RMK AO2 SLP256 T01560089








Description
Charles B. Wheeler Downtown Airport, also known as Kansas City Downtown Airport, is a public airport located in Kansas City, Missouri.






Runways






Designator
Length
Width
Surface
Rops




3/21          
1539          
46          
ASP          
Yes/Yes          


1/19          
2134          
46          
CON          
Yes/Yes          













Airport map






Aerial View