SAZS








San Carlos De Bariloche Airport





Airport

ICAO code


  SAZS





IATA Code

BRC




Summary

ICAO Region

CARSAM



ICAO Territory





Argentina






 








Location

San Carlos De Bariloche, Rio Negro




Serving

San Carlos De Bariloche



Elevation

2774 ft



Coordinates



    41°
    9'
          4"
        S
  
      ,
    
    71°
    9'
          27"
        W
  




KCC

Csb




Metar
SAZS 071300Z 30020KT 9999 FEW028 SCT036 06/M01 Q1015








Airport serving San Carlos de Bariloche, Rio Negro Province, Argentina. Also known as Teniente Luis Candelaria Airport.
Climatology
Temperate Mediterranean climate (Köppen climate classification Csb).






Runways






Designator
Length
Width
Surface
Rops




11/29          
2348          
48          
ASP          
Yes/Yes          













Airport map






Aerial View