KHTS








Huntington/ Tri-State Airport





Airport

ICAO code


  KHTS





IATA Code

HTS




Summary

ICAO Region

NAM



ICAO Territory





United States






 








Location

Huntington, West Virginia




Serving

Huntington



Elevation

828 ft



Coordinates



    38°
    22'
          6"
        N
  
      ,
    
    82°
    33'
          23"
        W
  




KCC

Cfa



Airport WX

Cumulonimbus




Metar
KHTS 071351Z 01006KT 10SM FEW016 17/12 A3007 RMK AO2 SLP177 T01720117 $








Tri-State Airport, also known as Milton J. Ferguson Field, is a public use airport located in Wayne County, 3 nm southwest of Huntington, West Virginia, USA.














Airport map






Aerial View