URRP








Platov International Airport





Airport

ICAO code


  URRP





IATA Code

ROV




Summary

ICAO Region

EUR



ICAO Territory





Russian Federation






 








Location

Grushevskaya, Rostov Oblast




Serving

Rostov-on-Don



Elevation

213 ft



Coordinates



    47°
    29'
          38"
        N
  
      ,
    
    39°
    55'
          29"
        E
  




KCC

Dfa




Metar
URRP 071230Z 09010MPS CAVOK 26/M01 Q1023 R05/CLRD70 TEMPO 13015G23MPS 3000 BLDU RMK QFE762/1016








Platov International Airport is an airport close to the stanitsa of Grushevskaya, Aksaysky District, Rostov Oblast, Russia near the city of Novocherkassk northeast of Rostov-on-Don. It serves Rostov-on-Don (as a replacement for the old Rostov-on-Don Airport.
Climatology
Humid continental climate (Köppen climate classification Dfa)














Airport map






Aerial View