SASJ








Gobernador Horacio Guzman International Airport





Airport

ICAO code


  SASJ





IATA Code

JUJ




Summary

ICAO Region

CARSAM



ICAO Territory





Argentina






 








Location

Ciudad Perico, Jujuy




Serving

Jujuy



Elevation

3019 ft



Coordinates



    24°
    23'
          34"
        S
  
      ,
    
    65°
    5'
          52"
        W
  




KCC

Cwa




Metar
SASJ 071300Z VRB02KT CAVOK 24/05 Q1014








Airport 1nm east of Ciudad Perico, Jujuy province, Argentina.
Climatology
Humid subtropical climate (Köppen climate classification Cwa).






Runways






Designator
Length
Width
Surface
Rops




16/34          
2956          
40          
ASP          
Yes/Yes          













Airport map






Aerial View