OIGG








Rasht Airport





Airport

ICAO code


  OIGG





IATA Code

RAS




Summary

ICAO Region

MID



ICAO Territory





Iran






 








Location

Rasht, Gilan Province




Serving

Rasht



Elevation

-40 ft



Coordinates



    37°
    19'
          17"
        N
  
      ,
    
    49°
    36'
          59"
        E
  




KCC

Csa




Metar
OIGG 071400Z 00000KT 8000 BKN009 FEW012CB OVC060 22/22 Q1018








Airport serving the city of Rasht in northern Iran.
Climatology
Mediterranean climate (Köppen climate classification Csa).






Runways






Designator
Length
Width
Surface
Rops




9/27          
2917          
45          
ASP          
No/No          













Airport map






Aerial View