KFLO








Florence Regional Airport





Airport

ICAO code


  KFLO





IATA Code

FLO




Summary

ICAO Region

NAM



ICAO Territory





United States






 








Location

Florence, South Carolina




Serving

Florence



Elevation

146 ft



Coordinates



    34°
    11'
          7"
        N
  
      ,
    
    79°
    43'
          26"
        W
  




KCC

Cfa




Metar
KFLO 071353Z 34005KT 10SM FEW005 OVC042 22/21 A2988 RMK AO2 RAE13 SLP116 P0000 T02170206








Florence Regional Airport is a public use airport located 3 nm east of the central business district of Florence, a city in Florence County, South Carolina, USA.














Airport map






Aerial View