EDDR








Saarbrücken Airport





Airport

ICAO code


  EDDR





IATA Code

SCN




Summary

ICAO Region

EUR



ICAO Territory





Germany






 








Location

Saarbrücken, Saarland




Serving

Saarbrücken



Coordinates



    49°
    12'
          59"
        N
  
      ,
    
    7°
    6'
          42"
        E
  




KCC

Cfb




Metar
EDDR 071450Z AUTO 10007KT CAVOK 27/16 Q1010 NOSIG








Saarbrücken Airport, or Ensheim Airport, is a minor international airport in Saarbrücken, the capital of the German state of Saarland.
Climatology
Temperate Marine climate/Oceanic climate (Köppen climate classification Cfb) - Moderately cool summer and comparatively warm winter.






Runways






Designator
Length
Width
Surface
Rops




09L/27R          
545          
50          
GRS          
No/No          


9/27          
2000          
45          
ASP          
Yes/Yes          













Airport map






Aerial View








Airport accidents



DH8D, Saarbrucken Germany, 2015