KRAP








Rapid City Regional Airport





Airport

ICAO code


  KRAP





IATA Code

RAP




Summary

ICAO Region

NAM



ICAO Territory





United States






 








Location

Rapid City, South Dakota, South Dakota




Serving

Rapid City



Elevation

3204 ft



Coordinates



    44°
    2'
          17"
        N
  
      ,
    
    103°
    3'
          39"
        W
  




KCC

BSk



Airport CFIT

Altimeter Temperature Error Correction



Airport RE

Hot and High Operations




Metar
KRAP 071352Z 17011KT 10SM CLR 14/09 A3021 RMK AO2 SLP220 T01440094








Rapid City Regional Airport is a public use airport located 15 km southeast of the central business district of Rapid City, in Pennington County, South Dakota.
Climatology
Semi-arid steppe climate (Köppen climate classification BSk).






Runways






Designator
Length
Width
Surface
Rops




5/23          
1098          
23          
ASP          
Yes/Yes          


14/32          
2652          
46          
CON          
Yes/Yes          













Airport map






Aerial View








Airport accidents



A320, vicinity Rapid City SD USA, 2016