KLBL








Liberal Mid-America Regional Airport





Airport

ICAO code


  KLBL





IATA Code

LBL




Summary

ICAO Region

NAM



ICAO Territory





United States






 








Location

Liberal, Kansas




Serving

Liberal



Elevation

2885 ft



Coordinates



    37°
    2'
          39"
        N
  
      ,
    
    100°
    57'
          36"
        W
  




KCC

BSk



Airport CFIT

Altimeter Temperature Error Correction




Metar
KLBL 071356Z AUTO 13005KT 10SM CLR 17/12 A3029 RMK AO2 SLP234 T01720122








Liberal Mid-America Regional Airport, formerly known as Liberal Municipal Airport, is a public-use airport located 2 nm west of the central business district of Liberal, a city in Seward County, Kansas, USA.






Runways






Designator
Length
Width
Surface
Rops




4/22          
1744          
46          
CONC-F          
Yes/Yes          


17/35          
2166          
46          
ASP          
Yes/Yes          













Airport map






Aerial View