LFBZ








Biarritz-Bayonne/Anglet





Airport

ICAO code


  LFBZ






Summary

ICAO Region

EUR



ICAO Territory





France






 








Location

Biarritz-Bayonne/Anglet, Aquitaine,




Coordinates



    43°
    28'
          6"
        N
  
      ,
    
    1°
    31'
          23"
        W
  




KCC

Cfb



Airport WX

Fog




Metar
LFBZ 071400Z AUTO 32008KT 280V350 9999 NCD 21/15 Q1011 NOSIG








Description
International airport serving Biarritz.
Climatology
Temperate Marine climate/Oceanic climate (Köppen climate classification Cfb). Moderately cool summer and comparatively warm winter with a temperature range of only 14°C. Prevailing south-westerly winds from the Atlantic Ocean.






Runways






Designator
Length
Width
Surface
Rops




9/27          
2250          
45          
ASP          
Yes/Yes          













Airport map






Aerial View