DAAE








Soummam Airport





Airport

ICAO code


  DAAE





IATA Code

BJA




Summary

ICAO Region

AFI



ICAO Territory





Algeria






 








Location

, Bejaia




Serving

Bejaja



Elevation

20 ft



Coordinates



    36°
    42'
          43"
        N
  
      ,
    
    5°
    4'
          12"
        E
  





Metar
DAAE 071100Z 25012KT 8000 NSC 39/17 Q1010









Runways






Designator
Length
Width
Surface
Rops




8/26          
2400          
45          
ASP          
No/No          













Airport map






Aerial View