SKCC








Camilo Daza International Airport





Airport

ICAO code


  SKCC





IATA Code

CUC




Summary

ICAO Region

CARSAM



ICAO Territory





Colombia






 








Location

Cocuta, Notre de Santander department




Serving

Notre de Santander



Elevation

1096 ft



Coordinates



    7°
    55'
          39"
        N
  
      ,
    
    72°
    30'
          42"
        W
  




KCC

Aw




Metar
SKCC 071200Z 21006KT 9999 SCT020 SCT070 28/19 Q1012








Camilo Daza International Airport is a civil airport located in Cúcuta, Colombia. The airport serves the Norte de Santander Department.
Climatology
Tropical savanna climate (Köppen climate classification Aw)






Runways






Designator
Length
Width
Surface
Rops




2/20          
1933          
45          
ASP          
Yes/Yes          


16/34          
2347          
45          
ASP          
Yes/Yes          













Airport map






Aerial View