WAMM








Manado/Sam Ratulang International Airport





Airport

ICAO code


  WAMM





IATA Code

MDC




Summary

ICAO Region

APAC



ICAO Territory





Indonesia






 








Location

Manado, North Sulawesi,




Serving

Manado



Elevation

264 ft



Coordinates



    1°
    32'
          56"
        N
  
      ,
    
    124°
    55'
          36"
        E
  




KCC

Af




Metar
WAMM 071430Z 17004KT 140V210 9999 FEW021 27/23 Q1015 NOSIG








Description
Sam Ratulangi International Airport (SRA), also known as Manado International Airport, is located in North Sulawesi, 13 km northeast of Manado.
Climatology
Tropical Rainforest climate (Köppen climate classification Af) - almost no distinct seasons, average daily temperature around 27°C throughout the year. Extensive cloud cover and heavy rainfall prevent temperatures from rising much over 33°C. The diurnal temperature change is between 2°C and 5°C which is greater than the annual temperature range of 2°C. Rainfall is heavy and is usually convectional and in the afternoon.














Airport map






Aerial View