EGPL








Benbecula Airport





Airport

ICAO code


  EGPL





IATA Code

BEB




Summary

ICAO Region

EUR



ICAO Territory





United Kingdom






 








Location

, Scotland




Serving

Benbecula



Elevation

19 ft



Coordinates



    57°
    28'
          52"
        N
  
      ,
    
    7°
    21'
          46"
        W
  





Metar
EGPL 071420Z AUTO 33005KT 9999 BKN002/// 16/14 Q1013









Runways






Designator
Length
Width
Surface
Rops




17/35          
1220          
46          
ASP          
No/No          


6/24          
1836          
46          
ASP          
No/No          













Airport map






Aerial View