KTPA








Tampa International Airport





Airport

ICAO code


  KTPA






Summary

ICAO Region

NAM



ICAO Territory





United States






 








Location

Tampa, Florida,




Coordinates



    27°
    58'
          37"
        N
  
      ,
    
    82°
    32'
          0"
        W
  




KCC

Cfa




Metar
KTPA 071153Z 00000KT 10SM FEW019 SCT140 SCT250 27/24 A2987 RMK AO2 SLP116 TCU DSNT SW-W T02670244 10272 20261 53004








Description
International airport 6 nm west of Tampa, Florida, USA.
Climatology
Humid “subtropical” climate (Köppen climate classification Cfa) - characterized by hot, humid summers and cool winters. Significant amounts of precipitation occur in all seasons in most areas.






Runways






Designator
Length
Width
Surface
Rops




9/27          
2133          
46          
PEM          
Yes/Yes          


18L/36R          
2530          
46          
PEM          
Yes/Yes          


18R/36L          
3353          
46          
CON          
Yes/Yes          













Airport map






Aerial View