EDNY








Friedrichshafen Airport





Airport

ICAO code


  EDNY





IATA Code

FDH




Summary

ICAO Region

EUR



ICAO Territory





Germany






 








Location

Friedrichshafen, Baden-Württemberg




Serving

Lake Constance/Bodensee



Elevation

1358 ft



Coordinates



    47°
    40'
          20"
        N
  
      ,
    
    9°
    30'
          44"
        E
  




KCC

Cfb




Metar
EDNY 071420Z VRB04KT CAVOK 29/14 Q1011








Friedrichshafen Airport (also known as Bodensee Airport Friedrichshafen) is a minor international airport 3km north of Friedrichshafen, Germany, on the banks of Lake Constance.
Climatology
Temperate Marine climate/Oceanic climate (Köppen climate classification Cfb) - Moderately cool summer and comparatively warm winter.






Runways






Designator
Length
Width
Surface
Rops




6/24          
2356          
45          
ASP          
Yes/Yes          













Airport map






Aerial View








Airport accidents



F50 / P28T, vicinity Friedrichshafen Germany, 2016