ZJSY








Sanya Phoenix





Airport

ICAO code


  ZJSY






Summary

ICAO Region

APAC



ICAO Territory





China






 








Location

Sanya, Hainan,




Serving

Sanya



Coordinates



    18°
    18'
          14"
        N
  
      ,
    
    109°
    24'
          44"
        E
  




KCC

Am




Metar
ZJSY 071300Z 09002MPS 060V150 9999 BKN066 28/27 Q1004 NOSIG








Description
Sanya Phoenix International Airport is an airport in Sanya, Hainan, People’s Republic of China (IATA: SYX). It is located about 15 km northwest of the city center.
Climatology
Tropical Monsoon climate (Köppen climate classification Am) - monthly mean temperatures above 18°C in every month of the year and features wet and dry seasons.














Airport map






Aerial View