MUHA








Jose Marti International Airport





Airport

ICAO code


  MUHA





IATA Code

HAV




Summary

ICAO Region

CARSAM



ICAO Territory





Cuba






 








Location

Boyeros, Havana




Serving

Havana



Elevation

210 ft



Coordinates



    22°
    59'
          23"
        N
  
      ,
    
    82°
    24'
          30"
        W
  




KCC

Aw



Airport WX

Tropical Revolving Storm




Metar
MUHA 071250Z VRB03KT 9000 NSC 28/26 Q1011








José Martí International Airport, previously called El Rancho Boyeros International Airport, is located 15 km southwest of Havana, Cuba, and is a hub for Cubana de Aviación, Aerogaviota and Aerocaribbean. The airport lies in the municipality of Boyeros.
Climatology
Tropical Savanna climate (Köppen climate classification Aw)






Runways






Designator
Length
Width
Surface
Rops




6/24          
4000          
45          
ASP          
Yes/Yes          













Airport map






Aerial View