RKSO








Osan Air Base





Airport

ICAO code


  RKSO





IATA Code

OSN




Summary

ICAO Region

APAC



ICAO Territory





South Korea






 








Location

, Kyonggi-do




Serving

Osan



Elevation

38 ft



Coordinates



    37°
    5'
          26"
        N
  
      ,
    
    127°
    1'
          47"
        E
  





Metar
RKSO 071255Z 00000KT 7SM CLR 25/21 A2993 RMK AO2A SLP139 T02490214 $









Runways






Designator
Length
Width
Surface
Rops




9/27          
2744          
46          
CON          
Yes/Yes          













Airport map






Aerial View