WBGS








Sibu Airport





Airport

ICAO code


  WBGS





IATA Code

SBW




Summary

ICAO Region

APAC



ICAO Territory





Malaysia






 








Location

Sibu Jaya, Sarawak




Serving

Sibu



Elevation

122 ft



Coordinates



    2°
    15'
          42"
        N
  
      ,
    
    111°
    59'
          7"
        E
  




KCC

Af




Metar
WBGS 071200Z VRB03KT 9999 SCT018 25/25 Q1009








Airport located 14 nm east southeast of Sibu, Sarawak, Malaysia.














Airport map






Aerial View