EEPU








Pärnu





Airport

ICAO code


  EEPU






Summary

ICAO Region

EUR



ICAO Territory





Estonia






 








Location

Pärnu,




Coordinates



    58°
    25'
          20"
        N
  
      ,
    
    24°
    27'
          57"
        E
  





Metar
EEPU 071220Z AUTO 20006KT 160V220 9999 NCD 24/13 Q1025








Pärnu Airport (IATA: EPU, ICAO: EEPU) is an airport in Estonia. The airport is situated 4 km from the city of Pärnu.






Runways






Designator
Length
Width
Surface
Rops




3/21          
2480          
45          
CON          
No/No          













Airport map






Aerial View