ESNX








Arvidsjaur Airport





Airport

ICAO code


  ESNX





IATA Code

AJR




Summary

ICAO Region

EUR



ICAO Territory





Sweden






 








Location

Arvidsjaur, Arvidsjaur




Serving

Arvidsjaur



Elevation

1245 ft



Coordinates



    65°
    35'
          32"
        N
  
      ,
    
    19°
    15'
          51"
        E
  




KCC

Dfc




Metar
ESNX 071220Z AUTO 27010KT 9999 FEW041/// 21/13 Q1020








Arvidsjaur Airport is situated 13 km from Arvidsjaur town in Sweden.
Climatology
Subarctic climate (Köppen climate classification Dfc)






Runways






Designator
Length
Width
Surface
Rops




12/30          
2500          
45          
ASP          
No/No          













Airport map






Aerial View