MMPR








Licenciado Gustavo Díaz Ordaz International Airport





Airport

ICAO code


  MMPR





IATA Code

PVR




Summary

ICAO Region

CARSAM



ICAO Territory





Mexico






 








Location

Puerto Vallarta, Jalisco




Serving

Puerto Vallarta



Elevation

23 ft



Coordinates



    20°
    40'
          48"
        N
  
      ,
    
    105°
    15'
          15"
        W
  




KCC

Aw




Metar
MMPR 071146Z 07004KT 10SM BKN040 25/25 A2976 RMK SLP071 57007 974 8/400








International airport 2 nm north west of Puerto Vallarta, Mexico.
Climatology
Tropical Savanna climate (Köppen climate classification Aw)






Runways






Designator
Length
Width
Surface
Rops




4/22          
3100          
45          
ASP          
Yes/Yes          













Airport map






Aerial View