YBCG








Coolangatta/Gold Coast Airport





Airport

ICAO code


  YBCG





IATA Code

OOL




Summary

ICAO Region

APAC



ICAO Territory





Australia






 








Location

Coolangatta, Queensland




Serving

Coolangatta



Elevation

21 ft



Coordinates



    28°
    9'
          54"
        S
  
      ,
    
    153°
    30'
          35"
        E
  




KCC

Cfa




Metar
YBCG 071400Z AUTO 34012KT 9999 // NCD 20/17 Q1021 RF00.0/000.0








Serves the city of Coolangatta.
Climatology
Humid “subtropical” climate (Köppen climate classification Cfa) - characterized by hot, humid summers and cool winters. Significant amounts of precipitation occur in all seasons in most areas. Winter rainfall (and sometimes snowfall) is associated with large storms that the westerlies steer from west to east. Most summer rainfall occurs during thunderstorms and occasional tropical storms (hurricanes).














Airport map






Aerial View








Airport accidents



A320, Gold Coast QLD Australia, 2017
A333, vicinity Gold Coast Queensland Australia, 2017