KINL








Falls International Airport





Airport

ICAO code


  KINL





IATA Code

INL




Summary

ICAO Region

NAM



ICAO Territory





United States






 








Location

International Falls, Minnesota




Serving

International Falls



Elevation

1185 ft



Coordinates



    48°
    33'
          58"
        N
  
      ,
    
    93°
    24'
          11"
        W
  




KCC

Dfb



Airport CFIT

Altimeter Temperature Error Correction



Airport GND

Aircraft Ground De/Anti Icing



Airport RE

Landing on Contaminated Runways




Metar
KINL 071354Z AUTO VRB03KT 10SM BKN044 09/07 A3028 RMK AO2 SLP266 T00890072








Falls International Airport is a public use airport located in International Falls, a city in Koochiching County, Minnesota, USA.














Airport map






Aerial View