KBAB








Beale Air Force Base





Airport

ICAO code


  KBAB





IATA Code

BAB




Summary

ICAO Region

NAM



ICAO Territory





United States






 








Location

Linda , California




Serving

Marysville



Elevation

112 ft



Coordinates



    39°
    8'
          47"
        N
  
      ,
    
    121°
    26'
          5"
        W
  




KCC

Csb




Metar
KBAB 071355Z AUTO 23003KT 10SM CLR 20/09 A2985 RMK AO2 SLP110 T01960089 $








Description
Beale Air Force Base (AFB) is a United States Air Force base located approximately 10 nm east of Yuba City, California.














Airport map






Aerial View