EDJA








Memmingen Airport





Airport

ICAO code


  EDJA






Summary

ICAO Region

EUR



ICAO Territory





Germany






 








Location

Memmingen,




Coordinates



    47°
    59'
          19"
        N
  
      ,
    
    10°
    14'
          21"
        E
  




KCC

Cfb



Airport CFIT

Altimeter Temperature Error Correction




Metar
EDJA 071350Z 04008KT 010V070 CAVOK 27/16 Q1013








Description
Regional airport serving Memmingen, Germany.
Climatology
Temperate Marine climate/Oceanic climate (Köppen climate classification Cfb) - Moderately cool summer and comparatively warm winter.






Runways






Designator
Length
Width
Surface
Rops




6/24          
2981          
30          
ASP          
Yes/Yes          













Airport map






Aerial View








Airport accidents



B738, vicinity Memmingen Germany, 2012
A320 / GLID, vicinity Memmingen Germany, 2015