LEAB








Albacete Airport





Airport

ICAO code


  LEAB





IATA Code

ABC




Summary

ICAO Region

EUR



ICAO Territory





Spain






 








Location

Albacete, Castilla–La Mancha




Serving

Albacete



Elevation

2302 ft



Coordinates



    38°
    56'
          58"
        N
  
      ,
    
    1°
    51'
          48"
        W
  




KCC

Csa




Metar
LEAB 071230Z 27010KT CAVOK 27/03 Q1013 NOSIG








Albacete Airport is an airport located at the Los Llanos Air Base, about 4 miles south of the city of Albacete, Spain.
Climatology
Dry-summer subtropical ”Mediterranean" climate (Köppen climate classification Csa) - characterized by hot, dry summers and mild winters. During the summer, subtropical high pressure cells dominate, making rainfall unlikely except for the occasional thunderstorm. In the winter, periodic storms bring rain (snow at higher elevations).






Runways






Designator
Length
Width
Surface
Rops




9/27          
2700          
60          
ASP          
No/No          













Airport map






Aerial View