KILM








Wilmington International Airport





Airport

ICAO code


  KILM






Summary

ICAO Region

NAM



ICAO Territory





United States






 








Location

Wilmington, North Carolina,




Coordinates



    34°
    16'
          0"
        N
  
      ,
    
    77°
    54'
          37"
        W
  




KCC

Cfa




Metar
KILM 071353Z 04010KT 10SM FEW006 OVC016 23/21 A2983 RMK AO2 SLP101 T02280211








Description
Wilmington International Airport is a public use airport located just north of Wilmington, a city in New Hanover County, North Carolina.
Climatology
Humid “subtropical” climate (Köppen climate classification Cfa) - characterized by hot, humid summers and cool winters. Significant amounts of precipitation occur in all seasons in most areas. Winter rainfall (and sometimes snowfall) is associated with large storms that the westerlies steer from west to east. Most summer rainfall occurs during thunderstorms and occasional tropical storms (hurricanes).














Airport map






Aerial View