VTBS








Bangkok/Suvarnabhumi International Airport





Airport

ICAO code


  VTBS





IATA Code

BKK




Summary

ICAO Region

APAC



ICAO Territory





Thailand






 








Location

Bang Phli, Samut Prakan,




Serving

Bangkok



Elevation

5 ft



Coordinates



    13°
    41'
          32"
        N
  
      ,
    
    100°
    45'
          3"
        E
  




KCC

Aw



Airport LOS

Parallel Runway Operation



Airport WX

Cumulonimbus




Metar
VTBS 071230Z 22007KT 9999 FEW020 29/26 Q1006 NOSIG








Description
International airport serving the city of Bangkok.
Climatology
Tropical Savanna climate (Köppen climate classification Aw)














Airport map






Aerial View