GATB








Timbuktu Airport





Airport

ICAO code


  GATB





IATA Code

TOM




Summary

ICAO Region

AFI



ICAO Territory





Mali






 








Location

Timbuktu, Timbuktu Region




Serving

Timbuktu



Elevation

863 ft



Coordinates



    16°
    43'
          45"
        N
  
      ,
    
    3°
    0'
          15"
        W
  




KCC

BWh




Metar
GATB 061200Z 22012KT 190V260 9999 BKN015 FEW020CB 30/25 Q1011








Timbuktu Airport is an airport in Timbuktu, Mali.
Climatology
Hot Desert climate (Köppen climate classification BWh)






Runways






Designator
Length
Width
Surface
Rops




7/25          
2110          
30          
ASP          
No/No          













Airport map






Aerial View








Airport accidents



B734, Timbuktu Mali, 2017