SECO








Francisco De Orellana Airport





Airport

ICAO code


  SECO





IATA Code

OCC




Summary

ICAO Region

CARSAM



ICAO Territory





Ecuador






 








Location

, Orellana




Serving

Coca



Elevation

834 ft



Coordinates



    0°
    27'
          46"
        S
  
      ,
    
    76°
    59'
          13"
        W
  





Metar
SECO 071300Z 34002KT CAVOK 25/23 Q1014 RMK A2996









Runways






Designator
Length
Width
Surface
Rops




15/33          
2060          
27          
ASP          
No/No          













Airport map






Aerial View