TDCF








Canefield Airport





Airport

ICAO code


  TDCF





IATA Code

DCF




Summary

ICAO Region

CARSAM



ICAO Territory





Dominica






 








Location

Canefield, Dominica,




Serving

Roseau



Elevation

13 ft



Coordinates



    15°
    20'
          14"
        N
  
      ,
    
    61°
    23'
          31"
        W
  





Metar
TDCF 071500Z 29002KT 9999 SCT015 FEW///CB 31/26 Q1010









Runways






Designator
Length
Width
Surface
Rops




1/19          
954          
23          
ASP          
No/No          













Airport map






Aerial View