OITR








Urmia Airport





Airport

ICAO code


  OITR





IATA Code

OMH




Summary

ICAO Region

MID



ICAO Territory





Iran






 








Location

Asgar Abad, West Azerbijan Province




Serving

Urmia



Elevation

4343 ft



Coordinates



    37°
    39'
          45"
        N
  
      ,
    
    45°
    3'
          33"
        E
  




KCC

BSk




Metar
OITR 071400Z 08004KT CAVOK 26/07 Q1016 A3002








Airport serving the central district of Urmia County, Iran. The airport is located some 13km north of the city of Urmia.
Climatology
Cold semi-arid climate (Köppen climate classification BSk).






Runways






Designator
Length
Width
Surface
Rops




3/21          
3249          
45          
ASP          
No/No          













Airport map






Aerial View