EBAW








Antwerp





Airport

ICAO code


  EBAW





IATA Code

ANR




Summary

ICAO Region

EUR



ICAO Territory





Belgium






 








Location

Deurne, Antwerpen,




Serving

Antwerpen



Elevation

39 ft



Coordinates



    51°
    11'
          23"
        N
  
      ,
    
    4°
    27'
          44"
        E
  




KCC

Cfb




Metar
EBAW 071250Z 09008KT 060V120 CAVOK 25/17 Q1009 NOSIG








Description
Antwerpen International Airport is located 2 km from the city of Antwerp, Belgium.
Climatology
Temperate Marine climate/Oceanic climate (Köppen climate classification Cfb) - Moderately cool summer and comparatively warm winter.






Runways






Designator
Length
Width
Surface
Rops




11/29          
1510          
45          
ASP          
Yes/Yes          













Airport map






Aerial View