ENAN








Andøya/Andenes Airport





Airport

ICAO code


  ENAN





IATA Code

ANX




Summary

ICAO Region

EUR



ICAO Territory





Norway






 








Location

Andøya,




Serving

Andenes



Elevation

43 ft



Coordinates



    69°
    17'
          33"
        N
  
      ,
    
    16°
    8'
          39"
        E
  




KCC

Dfc




Metar
ENAN 071350Z 24011KT 9999 FEW021 BKN030 13/08 Q1018








Airport serving Andenes, Norway, in the municipality of Andøy. It is located right next to the town of Andenes 1 nm south, and covers major parts of the northern tip of island Andøya. It is part of Andøya Air Station, who operate Orion surveillance aircraft. The Norwegian Space Centre and Andøya Rocket Range are also located at the airport.
Climatology
Borderline Subpolar Oceanic/Continental subarctic climate (because of winter temperatures) (Köppen climate classification Cfc/Dfc) - uniform precipitation distribution, temperatures are moderated by the proximity of the ocean and warm currents - cool summers and comparatively mild winters.






Runways






Designator
Length
Width
Surface
Rops




3/21          
1672          
45          
ASP          
No/No          


14/32          
2468          
45          
ASP          
No/No          













Airport map






Aerial View