LPPD








João Paulo II Airport





Airport

ICAO code


  LPPD





IATA Code

PDL




Summary

ICAO Region

EUR



ICAO Territory





Azores






 








Location

Relva, Região Autónoma dos Açores




Serving

Ponta Delgada



Elevation

259 ft



Coordinates



    37°
    44'
          58"
        N
  
      ,
    
    25°
    42'
          36"
        W
  




KCC

Cfa




Metar
LPPD 071230Z 01012KT 330V040 9999 SCT020 SCT030 24/18 Q1020








João Paulo II Airport, named after Pope John Paul II, is an international airport located on the island of São Miguel, in the Portuguese archipelago of the Azores.
Climatology
Humid “subtropical” climate (Köppen climate classification Cfa)






Runways






Designator
Length
Width
Surface
Rops




12/30          
2497          
45          
ASP          
No/No          













Airport map






Aerial View








Airport accidents



A310, Ponta Delgada Azores Portugal, 2013