RJOC








Izumo Airport





Airport

ICAO code


  RJOC





IATA Code

IZO




Summary

ICAO Region

APAC



ICAO Territory





Japan






 








Location

Izumo, Shimane




Serving

Izumo



Elevation

6 ft



Coordinates



    35°
    24'
          48"
        N
  
      ,
    
    132°
    53'
          21"
        E
  




KCC

Cwa




Metar
RJOC 071300Z AUTO 16007KT 9999 NCD 26/24 Q1014








Izumo Airport is an airport in Izumo, Shimane Prefecture, Japan
Climatology
Humid Sub-tropical climate (Köppen climate classification Cwa) - Hot humid summers and cooler winter. Significant precipitation in all seasons but drier in the winter.






Runways






Designator
Length
Width
Surface
Rops




7/25          
2000          
45          
ASP          
Yes/Yes          













Airport map






Aerial View








Airport accidents



SF34, Izumo Japan, 2007