SEGU








Simon Bolivar International Airport





Airport

ICAO code


  SEGU





IATA Code

GYE




Summary

ICAO Region

CARSAM



ICAO Territory





Ecuador






 








Location

, Guayas




Serving

Guayaquil



Elevation

19 ft



Coordinates



    2°
    9'
          27"
        S
  
      ,
    
    79°
    53'
          1"
        W
  





Metar
SEGU 071300Z 21006KT 9999 BKN026 OVC100 23/18 Q1011 NOSIG RMK A2987









Runways






Designator
Length
Width
Surface
Rops




3/21          
2790          
46          
ASP          
Yes/Yes          













Airport map






Aerial View