CYGX








Gillam Airport





Airport

ICAO code


  CYGX





IATA Code

YGX




Summary

ICAO Region

NAM



ICAO Territory





Canada






 








Location

Gillam, Manitoba




Serving

Gillam



Elevation

476 ft



Coordinates



    56°
    21'
          28"
        N
  
      ,
    
    94°
    42'
          39"
        W
  




KCC

Dfc




Metar
CYGX 071400Z 21012KT 15SM FEW140 SCT200 14/10 A2984 RMK AS1CI2 SLP112








Gillam Airport, is located adjacent to Gillam, Manitoba, Canada.
Climatology
Subarctic climate (Köppen climate classification Dfc)






Runways






Designator
Length
Width
Surface
Rops




5/23          
1524          
46          
GRAVEL          
No/No          













Airport map






Aerial View








Airport accidents



BE20, vicinity Gillam Canada, 2019