RJCO








Okadama Airport





Airport

ICAO code


  RJCO





IATA Code

OKD




Summary

ICAO Region

APAC



ICAO Territory





Japan






 








Location

Okadama-cho, Hokkaidō




Serving

Higashi-ku



Elevation

26 ft



Coordinates



    43°
    6'
          38"
        N
  
      ,
    
    141°
    22'
          56"
        E
  




KCC

Dfa




Metar
RJCO 070100Z 15005KT 110V200 9999 FEW030 BKN230 24/12 Q1015








Sapporo Okadama Airport is an airport located in Okadama-chō, Higashi-ku, Sapporo, Hokkaido, 4 nm north of the city center of Sapporo, Japan.
Climatology
Humid Sub-tropical climate (Köppen climate classification Dfa)






Runways






Designator
Length
Width
Surface
Rops




14/32          
1500          
45          
ASP          
Yes/Yes          













Airport map






Aerial View