KGJT








Grand Junction Regional Airport





Airport

ICAO code


  KGJT





IATA Code

GJT




Summary

ICAO Region

NAM



ICAO Territory





United States






 








Location

Grand Junction, Colorado




Serving

Grand Junction



Elevation

4858 ft



Coordinates



    39°
    7'
          20"
        N
  
      ,
    
    108°
    31'
          44"
        W
  




KCC

BSk



Airport RE

Hot and High Operations




Metar
KGJT 071353Z AUTO 12009KT 6SM HZ CLR 17/05 A3027 RMK AO2 SLP187 T01720050








Grand Junction Regional Airport is a public-use airport located 3 nm northeast of the central business district of Grand Junction, a city in Mesa County. It is the largest airport in western Colorado, USA.














Airport map






Aerial View