KRFD








Chicago Rockford International Airport





Airport

ICAO code


  KRFD





IATA Code

RFD




Summary

ICAO Region

NAM



ICAO Territory





United States






 








Location

Rockford, Illinois




Serving

Chicago



Elevation

742 ft



Coordinates



    42°
    11'
          48"
        N
  
      ,
    
    89°
    6'
          4"
        W
  




KCC

Dfa



Airport CFIT

Altimeter Temperature Error Correction




Metar
KRFD 071354Z 34012KT 10SM FEW250 12/06 A3029 RMK AO2 SLP257 T01170061 $








Description
Chicago Rockford International Airport is a general aviation and commercial airport in Winnebago County, Illinois. It is located 3 nm south of Rockford and 68 nm northwest of Chicago.






Runways






Designator
Length
Width
Surface
Rops




1/19          
2499          
46          
ASP          
Yes/Yes          


7/25          
3049          
46          
PEM          
Yes/Yes          













Airport map






Aerial View