CYVP








Kuujjuaq Airport





Airport

ICAO code


  CYVP






Summary

ICAO Region

NAM



ICAO Territory





Canada






 








Location

Kuujjuaq, Quebec,




Coordinates



    58°
    6'
          11"
        N
  
      ,
    
    68°
    25'
          8"
        W
  




KCC

ET



Airport BS

Non Avian Wildlife Hazards to Aircraft



Airport CFIT

Altimeter Temperature Error Correction



Airport GND

Aircraft Ground De/Anti Icing



Airport RE

Crosswind Landings




Metar
CYVP 071400Z 03014G19KT 2 1/2SM -RA BR BKN007 BKN012 OVC018 05/04 A3009 RMK FG1SF4SC2SC1 SLP194








Description
Airport serving Kuujjuaq, Quebec.
Climatology
Tundra climate (Köppen climate classification ET) - warmest month has an average temperature of 0 - 10 degrees C.






Runways






Designator
Length
Width
Surface
Rops




13/31          
1524          
46          
GVL          
Yes/Yes          


7/25          
1829          
46          
ASP          
Yes/Yes          













Airport map






Aerial View