KGYY








Chicago/Gary International Airport





Airport

ICAO code


  KGYY






Summary

ICAO Region

NAM



ICAO Territory





United States






 








Location

Gary, Indiana




Serving

Chicago



Elevation

591 ft



Coordinates



    41°
    37'
          6"
        N
  
      ,
    
    87°
    24'
          48"
        W
  




KCC

Dfa



Airport WX

Lake Effect Snow




Metar
KGYY 071345Z 33016KT 10SM CLR 15/08 A3019








Description
Gary/Chicago International Airport is a public airport located 3 nm northwest of the central business district of Gary, a city in Lake County, Indiana, United States. The airport, which serves the Chicago metropolitan area, is 25 nm southeast of the Chicago Loop.














Airport map






Aerial View