DABB








Annaba/Rabah Bitat





Airport

ICAO code


  DABB






Summary

ICAO Region

AFI



ICAO Territory





Algeria






 








Location

Annaba,




Coordinates



    36°
    49'
          20"
        N
  
      ,
    
    7°
    48'
          34"
        E
  





Metar
DABB 071100Z 28009KT 250V330 CAVOK 39/15 Q1011








Description
Rabah Bitat Airport, formerly known as Les Salines Airport, and popularly as El Mellah Airport is an international airport located 9 km south of Annaba, a city in Algeria.






Runways






Designator
Length
Width
Surface
Rops




5/23          
2290          
45          
ASP          
Yes/Yes          


1/19          
3000          
45          
ASP          
Yes/Yes          













Airport map






Aerial View