KLTS








Altus Air Force Base





Airport

ICAO code


  KLTS





IATA Code

LTS




Summary

ICAO Region

NAM



ICAO Territory





United States






 








Location

Altus, Oklahoma




Serving

Altus



Elevation

1382 ft



Coordinates



    34°
    39'
          2"
        N
  
      ,
    
    99°
    16'
          54"
        W
  




KCC

Cfa




Metar
KLTS 071355Z AUTO 04008KT 10SM CLR 21/10 A3020 RMK AO2 SLP213 T02100099 $








Description
Altus Air Force Base is a United States Air Force installation located approximately 4 nm east-northeast of the central business district of Altus, Oklahoma.






Runways






Designator
Length
Width
Surface
Rops




17/35          
1067          
29          
ASP          
No/No          


174/354          
1067          
29          
ASPH          
No/No          


17L/35R          
2743          
46          
ASP          
Yes/Yes          


17R/35L          
4097          
46          
CON          
Yes/Yes          













Airport map






Aerial View