KBRL








Southeast Iowa Regional Airport





Airport

ICAO code


  KBRL






Summary

ICAO Region

NAM



ICAO Territory





United States






 








Location

Burlington, Iowa,




Coordinates



    40°
    46'
          46"
        N
  
      ,
    
    91°
    7'
          24"
        W
  




KCC

Dfa



Airport CFIT

Altimeter Temperature Error Correction




Metar
KBRL 071353Z AUTO 04011KT 10SM CLR 13/09 A3028 RMK AO2 SLP255 T01280089








Description
Southeast Iowa Regional Airport is a public use airport located 4 km southwest of the central business district of Burlington, a city in Des Moines County, Iowa.
Climatology
Humid continental climate (Köppen climate classification Dfa) - characterized by four seasons: cold, windy, snowy winters, mild springs, hot, humid summers, and crisp and relatively short autumns. Precipitation reaches its lowest in January and February and peaks in summer and latter half of spring.














Airport map






Aerial View