KIDA








Idaho Falls Regional Airport





Airport

ICAO code


  KIDA





IATA Code

IDA




Summary

ICAO Region

NAM



ICAO Territory





United States






 








Location

Idaho Falls, Idaho




Serving

Idaho Falls



Elevation

4744 ft



Coordinates



    43°
    30'
          49"
        N
  
      ,
    
    112°
    4'
          15"
        W
  




KCC

Dfb



Airport CFIT

Altimeter Temperature Error Correction



Airport RE

Hot and High Operations




Metar
KIDA 071353Z 34004KT 10SM CLR 09/05 A3023 RMK AO2 SLP208 T00890050








Idaho Falls Regional Airport, known locally as Fanning Field, is a public-use airport located 2 nm northwest of the central business district of Idaho Falls, a city in Bonneville County, Idaho, USA.














Airport map






Aerial View