RJCM








Memanbetsu Airport





Airport

ICAO code


  RJCM





IATA Code

MMB




Summary

ICAO Region

APAC



ICAO Territory





Japan






 








Location

Memanbetsu, Okhotsk Subprefecture




Serving

Ozora



Elevation

109 ft



Coordinates



    43°
    52'
          53"
        N
  
      ,
    
    144°
    9'
          32"
        E
  




KCC

Dfb




Metar
RJCM 070100Z 22005KT 190V250 9999 FEW015 BKN/// 19/16 Q1012








Airport in the Memanbetsu section of Ōzora, a town in Hokkaidō, Japan.
Climatology
Humid Continental climate (Köppen climate classification Dfb)






Runways






Designator
Length
Width
Surface
Rops




18/36          
2500          
46          
ASP          
Yes/Yes          













Airport map






Aerial View