SKBO








El Dorado International Airport





Airport

ICAO code


  SKBO





IATA Code

BOG




Summary

ICAO Region

CARSAM



ICAO Territory





Colombia






 








Location

Fontibon, Cundinamarca Department




Serving

Bogota



Elevation

8361 ft



Coordinates



    4°
    42'
          5"
        N
  
      ,
    
    74°
    8'
          40"
        W
  




KCC

Cfb



Airport RE

Hot and High Operations



Airport WX

Lightning




Metar
SKBO 071200Z 01003KT 5000 BR SCT017 BKN085 10/10 Q1027 NOSIG








El Dorado International Airport is an international airport located in Bogotá, Colombia.
Climatology
Sub-Tropical Oceanic climate (Köppen climate classification Cfb).






Runways






Designator
Length
Width
Surface
Rops




13L/31R          
3800          
45          
ASP          
Yes/Yes          


13R/31L          
3800          
45          
ASP          
Yes/Yes          













Airport map






Aerial View








Airport accidents



A343, Bogotá Colombia, 2017 (2)
A343, Bogota Colombia, 2017