KBIX








Keesler Air Force Base





Airport

ICAO code


  KBIX





IATA Code

BIX




Summary

ICAO Region

NAM



ICAO Territory





United States






 








Location

Biloxi, Mississippi




Serving

Biloxi



Elevation

33 ft



Coordinates



    30°
    24'
          41"
        N
  
      ,
    
    88°
    55'
          13"
        W
  




KCC

Cfa




Metar
KBIX 071410Z AUTO 04012KT 10SM OVC010 24/21 A2987 RMK AO2 SLP118








Keesler Air Force Base is a United States Air Force installation located in Biloxi, a city in Harrison County, Mississippi, USA.














Airport map






Aerial View