TBPB








Grantley Adams International Airport





Airport

ICAO code


  TBPB





IATA Code

BGI




Summary

ICAO Region

CARSAM



ICAO Territory





Barbados






 








Location

Seawell, Barbados




Serving

Bridgetown



Elevation

170 ft



Coordinates



    13°
    4'
          36"
        N
  
      ,
    
    59°
    29'
          16"
        W
  




KCC

Aw




Metar
TBPB 071500Z 21010KT 9999 SCT018 32/26 Q1011 NOSIG








Grantley Adams International Airport is the international airport of Barbados, located in Seawell, Christ Church.
Climatology
Tropical savannah climate (Köppen climate classification Aw)






Runways






Designator
Length
Width
Surface
Rops




9/27          
3353          
46          
ASP          
Yes/Yes          













Airport map






Aerial View