VVCI








Cat Bi International Airport





Airport

ICAO code


  VVCI





IATA Code

HPH




Summary

ICAO Region

APAC



ICAO Territory





Vietnam






 








Location

Hai Phong, Hai Phong




Serving

Hai Phong



Elevation

13 ft



Coordinates



    20°
    49'
          9"
        N
  
      ,
    
    106°
    43'
          29"
        E
  




KCC

Cwa




Metar
VVCI 071300Z 17030G43KT 2800 +RA FEW008 BKN021 BKN035 26/25 Q0992 TEMPO 5000 RA








Cat Bi International Airport is an international airport located in Hai Phong, Vietnam.
Climatology
Humid subtropical climate (Köppen climate classification Cwa)














Airport map






Aerial View