LEZG








Zaragoza Airport





Airport

ICAO code


  LEZG





IATA Code

ZAZ




Summary

ICAO Region

EUR



ICAO Territory





Spain






 








Location

Zaragoza,




Serving

Zaragoza



Elevation

863 ft



Coordinates



    41°
    39'
          49"
        N
  
      ,
    
    1°
    0'
          41"
        W
  




KCC

BSk




Metar
LEZG 071430Z 25013KT CAVOK 29/04 Q1009 NOSIG








Description
Zaragoza Airport is a commercial airport near Zaragoza, Spain. It is located 16 km west of Zaragoza, 270 km west of Barcelona, and 262 km northeast of Madrid.
Climatology
Cold Semi-arid climate (Köppen climate classification BSk). - Hot, sometimes extremely hot summers and cold, sometimes very cold winters. Some snowfall during the winter. Areas featuring cold semi-arid climates are sometimes subject to major temperature swings during a 24 hour period.






Runways






Designator
Length
Width
Surface
Rops




12L/30R          
3000          
45          
ASP          
Yes/Yes          


12R/30L          
3718          
45          
ASP          
Yes/Yes          













Airport map






Aerial View








Airport accidents



A124, Zaragoza Spain, 2010