VILK








Chaudhary Charan Singh Airport / Lucknow Airport





Airport

ICAO code


  VILK






Summary

ICAO Region

APAC



ICAO Territory





India






 








Location

Lucknow, Uttar Pradesh,




Serving

Lucknow, Uttar Pradesh



Coordinates



    26°
    45'
          43"
        N
  
      ,
    
    80°
    53'
          1"
        E
  




KCC

Cwa



Airport WX

Cumulonimbus




Metar
VILK 071300Z VRB02KT 5000 BR SCT020 BKN025 FEW030CB 30/25 Q1002 NOSIG








Description
Chaudhary Charan Singh Airport, also known as Lucknow airport, and Amausi Airport, is a public use airport situated at Amausi, 11 km southwest of the central business district of Lucknow, a city in the state of Uttar Pradesh, India.
Climatology
Humid “subtropical” climate (Köppen climate classification Cwa) - characterized by hot, humid summers and warm winters. Most precipitation occurs during the monsoon season between late June and late September. Most summer rainfall occurs during thunderstorms.














Airport map






Aerial View