EDDV








Hannover





Airport

ICAO code


  EDDV






Summary

ICAO Region

EUR



ICAO Territory





Germany






 








Location

Hannover, Germany,




Elevation

183 ft



Coordinates



    52°
    27'
          40"
        N
  
      ,
    
    9°
    41'
          6"
        E
  




KCC

Cfb




Metar
EDDV 071420Z AUTO 10005KT 030V170 CAVOK 29/14 Q1011 NOSIG








Description
International airport serving Hannover, Germany.
Climatology
Temperate Marine climate/Oceanic climate (Köppen climate classification Cfb) - Moderately cool summer and comparatively warm winter.






Runways






Designator
Length
Width
Surface
Rops




09C/27C          
780          
23          
ASP          
Yes/Yes          


09R/27L          
2340          
45          
CON          
Yes/Yes          


09L/27R          
3800          
45          
CON          
Yes/Yes          













Airport map






Aerial View








Airport accidents



E145, Hannover Germany, 2005