CYRQ








Trois-Rivières Airport





Airport

ICAO code


  CYRQ





IATA Code

YRQ




Summary

ICAO Region

NAM



ICAO Territory





Canada






 








Location

Trois-Rivières, Quebec




Serving

Trois-Rivières



Elevation

199 ft



Coordinates



    46°
    21'
          6"
        N
  
      ,
    
    72°
    40'
          50"
        W
  




KCC

Dfb




Metar
CYRQ 071400Z AUTO 12007KT 9SM OVC033 18/13 A2983 RMK SLP102 DENSITY ALT 800FT








Trois-Rivières Airport is located near the city of Trois-Rivières, Quebec, Canada.
Climatology
Humid continental climate (Köppen climate classification Dfb)






Runways






Designator
Length
Width
Surface
Rops




5/23          
1829          
46          
ASP          
No/No          













Airport map






Aerial View