DNAK








Akure Airport





Airport

ICAO code


  DNAK





IATA Code

AKR




Summary

ICAO Region

AFI



ICAO Territory





Nigeria






 








Location

Saribi, Ondo State




Serving

Akure



Elevation

1108 ft



Coordinates



    7°
    14'
          55"
        N
  
      ,
    
    5°
    18'
          5"
        E
  




KCC

Aw




Metar
DNAK 060600Z 27007KT 5000 BR BKN007 22/22 Q1015








Akure Airport is an airport serving Akure, the capital of Ondo State, Nigeria.
Climatology
Tropical savanna climate (Köppen climate classification Aw)






Runways






Designator
Length
Width
Surface
Rops




3/21          
2803          
45          
ASP          
No/No          













Airport map






Aerial View