EGQL








Leuchars





Airport

ICAO code


  EGQL





IATA Code

ADX




Summary

ICAO Region

EUR



ICAO Territory





United Kingdom






 








Location

Leuchars, Fife, Scotland




Serving

Leuchars



Elevation

38 ft



Coordinates



    56°
    22'
          22"
        N
  
      ,
    
    2°
    52'
          6"
        W
  





Metar
EGQL 071350Z 07003KT 3900 BR OVC002 15/14 Q1014 RMK AMB








Description
Formally a Royal Air Force base Leuchars is now the home of British Army units but still maintains an active runway for use as a relief landing airfield for air defence aircraft. It is located in Leuchars, Fife, on the east coast of Scotland, near to the university town of St Andrews.






Runways






Designator
Length
Width
Surface
Rops




4/22          
1464          
46          
ASP          
Yes/Yes          


9/27          
2588          
46          
ASP          
Yes/Yes          













Airport map






Aerial View