UBBN








Nakhchivan International Airport





Airport

ICAO code


  UBBN





IATA Code

NAJ




Summary

ICAO Region

APAC



ICAO Territory





Azerbaijan






 








Location

Shekerabad, Nakhchivan




Serving

Nakhchivan



Elevation

2863 ft



Coordinates



    39°
    11'
          19"
        N
  
      ,
    
    45°
    27'
          30"
        E
  




KCC

BSk




Metar
UBBN 071530Z 13014G24KT 9999 NSC 25/09 Q1014 NOSIG RMK QFE686








Nakhchivan International Airport is a civilian airport and Azeri military airbase located in Nakhchivan, the capital of the Nakhchivan Autonomous Republic, a landlocked exclave of Azerbaijan.
Climatology
Cold Steppe climate (Köppen climate classification BSk)






Runways






Designator
Length
Width
Surface
Rops




14L/32R          
3300          
42          
ASP          
No/No          


14R/32L          
3300          
45          
CON          
No/No          













Airport map






Aerial View