LFBO








Toulouse-Blagnac Airport





Airport

ICAO code


  LFBO





IATA Code

TLS




Summary

ICAO Region

EUR



ICAO Territory





France






 








Location

Blagnac, Midi-Pyrenees




Serving

Toulouse



Elevation

497 ft



Coordinates



    43°
    37'
          35"
        N
  
      ,
    
    1°
    21'
          52"
        E
  




KCC

Cfb




Metar
LFBO 071300Z AUTO 30011KT 9999 BKN018 BKN023 OVC039 22/18 Q1009 NOSIG








Description
International airport serving city of Toulouse, France.
Climatology
Temperate Marine climate/Oceanic climate (Köppen climate classification Cfb). Moderately cool summer and comparatively warm winter with a temperature range of only 14°C. Prevailing south-westerly winds from the Atlantic Ocean.






Runways






Designator
Length
Width
Surface
Rops




14L/32R          
3000          
45          
ASP          
Yes/Yes          


14R/32L          
3500          
45          
ASP          
Yes/Yes          













Airport map






Aerial View








Airport accidents



A346, Toulouse France, 2007