SBIH








Itaituba Airport





Airport

ICAO code


  SBIH





IATA Code

ITB




Summary

ICAO Region

CARSAM



ICAO Territory





Brazil






 








Location

Itaituba, Para




Serving

Itaituba



Elevation

108 ft



Coordinates



    4°
    14'
          32"
        S
  
      ,
    
    56°
    0'
          3"
        W
  




KCC

Am




Metar
SBIH 071100Z 03002KT 8000 NSC 27/24 Q1010








Itaituba Airport is the airport serving Itaituba, Brazil.
Climatology
Tropical monsoon climate (Köppen climate classification Am)






Runways






Designator
Length
Width
Surface
Rops




5/23          
1605          
30          
ASP          
No/No          













Airport map






Aerial View