LKPR








Prague/Václav Havel Airport





Airport

ICAO code


  LKPR





IATA Code

PRG




Summary

ICAO Region

EUR



ICAO Territory





Czech Republic






 








Location

Ruzyně, Prague




Serving

Prague



Elevation

1247 ft



Coordinates



    50°
    6'
          6"
        N
  
      ,
    
    14°
    15'
          36"
        E
  




KCC

Dfb




Metar
LKPR 071230Z 14009KT 100V180 CAVOK 28/14 Q1014 NOSIG








Description
International airport serving capital of the Czech Republic.
Climatology
Humid Continental climate (Köppen climate classification Dfb) - Variable weather patterns and a large seasonal temperature variance. Summers are often warm and humid with frequent thunderstorms and winters can be very cold with frequent snowfall and persistent snow cover.






Runways






Designator
Length
Width
Surface
Rops




4/22          
2120          
60          
ASP          
Yes/Yes          


13/31          
3250          
45          
CON          
Yes/Yes          


6/24          
3715          
45          
CON          
Yes/Yes          













Airport map






Aerial View








Airport accidents



B738/A321, Prague Czech Republic, 2010
AT45, vicinity Prague Czech Republic, 2012
A319 / B735, vicinity Prague Czech Republic, 2012