OING








Gorgan Airport





Airport

ICAO code


  OING





IATA Code

GBT




Summary

ICAO Region

MID



ICAO Territory





Iran






 








Location

Amir Abad, Golestan




Serving

Grgan



Elevation

-24 ft



Coordinates



    36°
    54'
          29"
        N
  
      ,
    
    54°
    24'
          36"
        E
  




KCC

Csa




Metar
OING 071400Z 24012KT 9999 SCT035 BKN090 29/20 Q1017 NOSIG








International airport 6km north of the city of Gorgan, Iran.
Climatology
Mediterranean climate (Köppen climate classification Csa).






Runways






Designator
Length
Width
Surface
Rops




14/32          
2298          
45          
ASP          
No/No          













Airport map






Aerial View