KMSS








Massena International Airport





Airport

ICAO code


  KMSS





IATA Code

MSS




Summary

ICAO Region

NAM



ICAO Territory





United States






 








Location

Massena, New York




Serving

St. Lawrence County



Elevation

221 ft



Coordinates



    44°
    56'
          9"
        N
  
      ,
    
    74°
    50'
          44"
        W
  




KCC

Dfb



Airport GND

Aircraft Ground De/Anti Icing



Airport WX

Cumulonimbus




Metar
KMSS 071440Z AUTO 26011KT 8SM SCT010 BKN015 OVC034 17/16 A2974 RMK AO2 RAB1355E05 P0000 T01720156








Massena International Airport, also known as Richards Field, is a public use airport located 2 nm east of the central business district of Massena, a village in St. Lawrence County, New York, USA.






Runways






Designator
Length
Width
Surface
Rops




9/27          
1219          
30          
ASP          
No/No          


5/23          
1523          
30          
ASP          
No/No          













Airport map






Aerial View