KAVP








Wilkes-Barre/Scranton International Airport





Airport

ICAO code


  KAVP






Summary

ICAO Region

NAM



ICAO Territory





United States






 








Location

Wilkes-Barre/Scranton, Pennsylvania,




Serving

Wilkes-Barre/Scranton, Pennsylvania



Coordinates



    41°
    20'
          10"
        N
  
      ,
    
    75°
    43'
          52"
        W
  




KCC

Dfa



Airport WX

Cumulonimbus




Metar
KAVP 071354Z 18008KT 130V220 9SM BKN038 OVC046 21/16 A2982 RMK AO2 SLP089 T02110161








Description
Wilkes-Barre/Scranton International Airport is a public use airport located midway between the cities of Wilkes-Barre and Scranton, in Pittston Township, Pennsylvania.
Climatology
Humid continental climate (Köppen climate classification Dfa) - characterized by four seasons: cold, windy, snowy winters, mild springs, hot, humid summers, and crisp and relatively short autumns. Precipitation reaches its lowest in January and February and peaks in summer and latter half of spring.














Airport map






Aerial View