LFKS








Solenzara (BA 126) Air Base





Airport

ICAO code


  LFKS





IATA Code

SOZ




Summary

ICAO Region

EUR



ICAO Territory





France






 








Location

, Corse




Serving

Solenzara



Elevation

28 ft



Coordinates



    41°
    55'
          28"
        N
  
      ,
    
    9°
    24'
          22"
        E
  





Metar
LFKS 071400Z AUTO 16010KT 9999 SCT009 OVC048 29/25 Q1014









Runways






Designator
Length
Width
Surface
Rops




18/36          
2627          
45          
CON          
No/No          













Airport map






Aerial View