KFHU








Sierra Vista





Airport

ICAO code


  KFHU






Summary

ICAO Region

NAM



ICAO Territory





United States






 








Location

Fort Huachuca, Sierra Vista, Cochise County, Arizona,




Elevation

4719 ft



Coordinates



    31°
    35'
          14"
        N
  
      ,
    
    110°
    20'
          52"
        W
  




KCC

BSk



Airport RE

Hot and High Operations




Metar
KFHU 071355Z AUTO 11003KT 8SM CLR 22/11 A3024 RMK AO2 SLP171 T02150109








Description
Sierra Vista Municipal Airport, a joint-use airport which shares facilities with Libby Army Airfield, is located on Fort Huachuca in Sierra Vista, a city in Cochise County, Arizona, United States. The airport has three runways and one helipad. It is mostly used for military aviation for the surrounding military base.
Climatology
Cold Semi-arid climate (Köppen climate classification BSk). - Hot, sometimes extremely hot summers and cold, sometimes very cold winters. Some snowfall during the winter. Areas featuring cold semi-arid climates are sometimes subject to major temperature swings during a 24 hour period.














Airport map






Aerial View