RKSI








Incheon International Airport





Airport

ICAO code


  RKSI





IATA Code

ICN




Summary

ICAO Region

APAC



ICAO Territory





South Korea






 








Location

Jung District, Incheon,




Serving

Seoul



Elevation

23 ft



Coordinates



    37°
    27'
          52"
        N
  
      ,
    
    126°
    27'
          14"
        E
  




KCC

Dwa




Metar
RKSI 071230Z 30004KT CAVOK 24/22 Q1014 NOSIG








Description
Incheon International Airport is the main international airport in South Korea and one of the largest and busiest in south east Asia. It is located within the Seoul National Capital Area.
Climatology
Warm continental climate/Humid continental climate/Humid subtropical climate (Köppen climate classification Dwa/Cwa)






Runways






Designator
Length
Width
Surface
Rops




15L/33R          
3750          
60          
PEM          
Yes/Yes          


15R/33L          
3750          
60          
PEM          
Yes/Yes          













Airport map






Aerial View








Airport accidents



A321, Incheon South Korea, 2013