RJBE








Kobe Airport





Airport

ICAO code


  RJBE





IATA Code

UKB




Summary

ICAO Region

APAC



ICAO Territory





Japan






 








Location

Chuo-ku, Kansai




Serving

Kobe



Elevation

22 ft



Coordinates



    34°
    38'
          2"
        N
  
      ,
    
    135°
    13'
          25"
        E
  




KCC

Cfa




Metar
RJBE 071300Z 24007KT 9999 FEW030 SCT090 27/26 Q1014








Kobe Airport is an airport on an artificial island just off the coast of Kobe, 8 km south of Sannomiya Station, Japan. It primarily handles domestic flights, but can also accommodate international charter flights.
Climatology
Humid subtropical climate (Köppen climate classification Cfa).






Runways






Designator
Length
Width
Surface
Rops




9/27          
2500          
61          
ASP          
No/No          













Airport map






Aerial View