SVMG








Santiago Mariño Caribbean International Airport





Airport

ICAO code


  SVMG





IATA Code

PMV




Summary

ICAO Region

CARSAM



ICAO Territory





Venezuela






 








Location

Porlamar, Nueva Esparta




Serving

Isla Margarita



Elevation

74 ft



Coordinates



    10°
    54'
          50"
        N
  
      ,
    
    63°
    58'
          5"
        W
  




KCC

BWh




Metar
SVMG 071503Z AUTO 18005KT NCD 31/26 Q1012








Santiago Mariño Caribbean International Airport is an airport 12 km west-southwest of Porlamar, the largest city on Isla Margarita, an island in the state of Nueva Esparta in Venezuela.
Climatology
Hot desert climate (Köppen climate classification BWh)






Runways






Designator
Length
Width
Surface
Rops




09L/27R          
3035          
30          
ASP          
Yes/Yes          


9/27          
3200          
46          
ASP          
Yes/Yes          













Airport map






Aerial View