VEMN








Dibrugarh Airport





Airport

ICAO code


  VEMN






Summary

ICAO Region

APAC



ICAO Territory





India






 








Location

Dibrugarh, Assam,




Coordinates



    27°
    29'
          5"
        N
  
      ,
    
    95°
    1'
          18"
        E
  




KCC

Cwa



Airport BS

Bird Strike



Airport WX

Cumulonimbus




Metar
VEMN 071300Z 00000KT 5000 BR FEW025 33/27 Q1001 NOSIG








Description
Dibrugarh Airport, also known as Mohanbari Airport due to its location, is located about 15 km northeast of the town of Dibrugarh, in the state of Assam, India.
Climatology
Humid Sub-tropical climate (Köppen climate classification Cwa) - Hot, humid, extremely wet summers and warm winters. Significant precipitation in all seasons but drier in the winter.














Airport map






Aerial View