KSDY








Sidney





Airport

ICAO code


  KSDY






Summary

ICAO Region

NAM



ICAO Territory





United States






 








Location

Sidney, Richland, Montana,




Coordinates



    47°
    42'
          25"
        N
  
      ,
    
    104°
    11'
          35"
        W
  




KCC

Dfb




Metar
KSDY 071156Z AUTO 00000KT 10SM CLR 06/02 A3017 RMK AO2 SLP220 T00610017 10144 20061 56011








Description
Sidney-Richland Municipal Airport is a public airport located 2 km west of the central business district (CBD) of Sidney, a city in Richland County, Montana, USA.
Climatology
A semi-arid steppe climate (Köppen climate classification BSk), with generally cold, dry winters and hot summers. Late spring and early summer is on average the wettest period of the year. During the summer warm, humid air masses more typical of a warm summer continental climate (Köppen climate classification Dfb) may move into the area from the south or east. Summertime thunderstorms commonly occur and sometimes can be severe featuring hail and, infrequently, funnel clouds or tornadoes.






Runways






Designator
Length
Width
Surface
Rops




10/28          
1226          
30          
ASP          
Yes/Yes          


1/19          
1739          
30          
ASP          
Yes/Yes          













Airport map






Aerial View