KLFT








Lafayette Regional Airport





Airport

ICAO code


  KLFT






Summary

ICAO Region

NAM



ICAO Territory





United States






 








Location

Lafayette, Louisiana,




Serving

Lafayette, Louisiana



Coordinates



    30°
    12'
          17"
        N
  
      ,
    
    91°
    59'
          14"
        W
  




KCC

Cfa



Airport LOS

Parallel Runway Operation




Metar
KLFT 071353Z 02009KT 10SM OVC009 23/21 A2991 RMK AO2 SLP129 T02330206








Description
Lafayette Regional Airport is a public use airport located 4 km southeast of the central business district of Lafayette, a city in Lafayette Parish, Louisiana.
Climatology
Humid “subtropical” climate (Köppen climate classification Cfa) - characterized by hot, humid summers and cool winters. Significant amounts of precipitation occur in all seasons in most areas. Winter rainfall is associated with large storms that the westerlies steer from west to east. Most summer rainfall occurs during thunderstorms and occasional tropical storms (hurricanes).






Runways






Designator
Length
Width
Surface
Rops




04L/22R          
1249          
23          
ASP          
Yes/Yes          


11/29          
1646          
45          
ASP          
Yes/Yes          


04R/22L          
2332          
46          
ASP          
Yes/Yes          













Airport map






Aerial View