KCDC








Cedar City Regional Airport





Airport

ICAO code


  KCDC





IATA Code

CDC




Summary

ICAO Region

NAM



ICAO Territory





United States






 








Location

Iron County , Utah




Serving

Cedar City



Elevation

5622 ft



Coordinates



    37°
    42'
          3"
        N
  
      ,
    
    113°
    5'
          55"
        W
  




KCC

BSk



Airport RE

Hot and High Operations



Airport WX

Mountain Waves




Metar
KCDC 071353Z AUTO 02003KT 10SM CLR 14/M01 A3027 RMK AO2 SLP179 T01391011








Description
Cedar City Regional Airport is a public use airport located 2 nm northwest of the central business district of Cedar City, in Iron County, Utah, USA.
 














Airport map






Aerial View