OPPS








Bacha Khan International Airport





Airport

ICAO code


  OPPS





IATA Code

PEW




Summary

ICAO Region

APAC



ICAO Territory





Pakistan






 








Location

Peshawar, Khyber-Pakhtunkhwa




Serving

Peshawar



Elevation

1158 ft



Coordinates



    33°
    59'
          38"
        N
  
      ,
    
    71°
    30'
          53"
        E
  




KCC

BWh




Metar
OPPS 071230Z 05008KT 6000 FEW040 FEW100 33/22 Q1004








International airport serving Peshawar, Pakistan. Formerly known as Peshawar International Airport.
Climatology
Mild Desert Climate (Köppen climate classification BWh).
Arid climate with low average precipitation levels, the bulk of which occurs during the July-August monsoon season. Winters are mild & dry, while the summers are hot & humid.






Runways






Designator
Length
Width
Surface
Rops




17/35          
2743          
46          
ASP          
Yes/Yes          













Airport map






Aerial View