KPUB








Pueblo Memorial Airport





Airport

ICAO code


  KPUB






Summary

ICAO Region

NAM



ICAO Territory





United States






 








Location

Pueblo, Colorado,




Coordinates



    38°
    17'
          2"
        N
  
      ,
    
    104°
    29'
          43"
        W
  




KCC

BSk



Airport CFIT

Altimeter Temperature Error Correction



Airport LOS

Parallel Runway Operation



Airport RE

Hot and High Operations



Airport WX

Mountain Waves




Metar
KPUB 071353Z 00000KT 10SM SCT120 14/08 A3028 RMK AO2 SLP208 T01440083 $








Description
Pueblo Memorial Airport is a city owned, public use airport located 9 km east of the central business district of Pueblo, a city in Pueblo County, Colorado.
Climatology
Semi-arid Steppe climate (Köppen climate classification BSk) - Little precipitation, hot summers and cold winters, sometimes with large changes in temperature in a 24 hour period.






Runways






Designator
Length
Width
Surface
Rops




08R/26L          
1241          
23          
ASP          
Yes/Yes          


12/30          
2520          
46          
ASP          
No/No          


17/35          
2532          
46          
ASP          
Yes/Yes          


08L/26R          
3199          
46          
ASP          
Yes/Yes          













Airport map






Aerial View