VEBS








Biju Patnaik International Airport





Airport

ICAO code


  VEBS






Summary

ICAO Region

APAC



ICAO Territory





India






 








Location

Bhubaneswar, Odisha,




Coordinates



    20°
    14'
          46"
        N
  
      ,
    
    85°
    49'
          2"
        E
  




KCC

Aw



Airport WX

Cumulonimbus




Metar
VEBS 071330Z 02004KT 3000 TS BKN016 FEW030CB BKN100 28/26 Q1002 NOSIG








Description
Biju Patnaik International Airport, also known as Bhubaneswar Airport, is situated in the city of Bhubaneswar, Odisha.
Climatology
Tropical Savanna climate (Köppen climate classification Aw) - monthly mean temperatures above 18°C, and a pronounced dry season. A Tropical Savanna climate has more pronounced dry seasons than a Tropical Monsoon climate.














Airport map






Aerial View