LFSG








Épinal-Mirecourt Airport





Airport

ICAO code


  LFSG





IATA Code

EPL




Summary

ICAO Region

EUR



ICAO Territory





France






 








Location

, Lorraine




Serving

Epinal



Elevation

1084 ft



Coordinates



    48°
    19'
          30"
        N
  
      ,
    
    6°
    4'
          12"
        E
  





Metar
LFSG 071400Z AUTO 08005KT 030V130 CAVOK 28/18 Q1010









Runways






Designator
Length
Width
Surface
Rops




9/27          
2700          
45          
CON          
Yes/Yes          













Airport map






Aerial View