KSSC








Shaw Air Force Base





Airport

ICAO code


  KSSC






Summary

ICAO Region

NAM



ICAO Territory





United States






 








Location

Sumter, South Carolina,




Coordinates



    33°
    58'
          23"
        N
  
      ,
    
    80°
    28'
          22"
        W
  




KCC

Cfa



Airport LOS

Parallel Runway Operation




Metar
KSSC 071355Z 35004KT 10SM FEW009 SCT140 BKN190 22/20 A2987 RMK AO2A SLP115 T02230196 $








Description
Shaw Air Force Base is a United States Military facility located 14 km west-northwest of the central business district of Sumter, South Carolina.
Climatology
Humid “subtropical” climate (Köppen climate classification Cfa) - characterized by hot, humid summers and cool winters. Significant amounts of precipitation occur in all seasons in most areas. Winter rainfall (and sometimes snowfall) is associated with large storms that the westerlies steer from west to east. Most summer rainfall occurs during thunderstorms and occasional tropical storms (hurricanes).






Runways






Designator
Length
Width
Surface
Rops




04R/22L          
2439          
46          
CON          
Yes/Yes          


04L/22R          
3053          
46          
CON          
Yes/Yes          













Airport map






Aerial View