KAPN








Alpena County Regional Airport





Airport

ICAO code


  KAPN





IATA Code

APn




Summary

ICAO Region

NAM



ICAO Territory





United States






 








Location

Alpena, Michigan




Serving

Alpena



Elevation

690 ft



Coordinates



    45°
    4'
          41"
        N
  
      ,
    
    83°
    33'
          41"
        W
  




KCC

Dfb



Airport CFIT

Altimeter Temperature Error Correction



Airport GND

Aircraft Ground De/Anti Icing



Airport RE

Landing on Contaminated Runways




Metar
KAPN 071354Z AUTO 31011G19KT 10SM OVC026 08/05 A3010 RMK AO2 SLP195 T00830050








Description
Alpena County Regional Airport is a public-use, joint civil-military (ANG) airport located 7 nm west of the central business district of Alpena, in Alpena County, Michigan.














Airport map






Aerial View