OIZC








Konorak Airport





Airport

ICAO code


  OIZC





IATA Code

ZBR




Summary

ICAO Region

MID



ICAO Territory





Iran






 








Location

Konorak, Baluchistan




Serving

Chabahar



Elevation

43 ft



Coordinates



    25°
    26'
          12"
        N
  
      ,
    
    60°
    22'
          47"
        E
  




KCC

BWh




Metar
OIZC 071400Z 17012KT CAVOK 30/25 Q1002 A2959








Airport serving Chabahar, Sistan and the Baluchistan province in Iran.
Climatology
Hot desert climate (Köppen climate classification BWh).






Runways






Designator
Length
Width
Surface
Rops




09R/27L          
3000          
46          
ASP          
No/No          


09L/27R          
3814          
46          
ASP          
No/No          













Airport map






Aerial View