KMLU








Monroe Regional Airport





Airport

ICAO code


  KMLU





IATA Code

MLU




Summary

ICAO Region

NAM



ICAO Territory





United States






 








Location

Monroe, Louisiana




Serving

Monroe



Elevation

79 ft



Coordinates



    32°
    30'
          41"
        N
  
      ,
    
    92°
    2'
          18"
        W
  




KCC

Cfa




Metar
KMLU 071353Z 03013G18KT 10SM CLR 22/17 A3001 RMK AO2 SLP162 T02220172








Monroe Regional Airport is a public use airport located 3 nm east of the central business district of Monroe, a city in Ouachita Parish, Louisiana, USA.






Runways






Designator
Length
Width
Surface
Rops




14/32          
1524          
46          
ASP          
Yes/Yes          


18/36          
1524          
46          
ASP          
Yes/Yes          


4/22          
2288          
46          
PEM          
Yes/Yes          













Airport map






Aerial View