KBWI








Baltimore Washington International Thurgood Marshall Airport





Airport

ICAO code


  KBWI





IATA Code

BWI




Summary

ICAO Region

NAM



ICAO Territory





United States






 








Location

Anne Arundel County, Maryland




Serving

Baltimore and Washington DC



Elevation

146 ft



Coordinates



    39°
    10'
          24"
        N
  
      ,
    
    76°
    40'
          5"
        W
  




KCC

Cfa



Airport WX

Cumulonimbus




Metar
KBWI 071354Z 20005KT 10SM BKN016 BKN250 22/18 A2985 RMK AO2 SLP106 T02220183








Description
International airport located 9 nm south of downtown Baltimore, USA, serving Baltimore and Washington DC.














Airport map






Aerial View








Airport accidents



CRJ1 / A320, Baltimore MD USA, 2007