CYMO








Moosonee Airport





Airport

ICAO code


  CYMO





IATA Code

YMO




Summary

ICAO Region

NAM



ICAO Territory





Canada






 








Location

Moosonee, Ontario




Serving

St James Bay



Elevation

30 ft



Coordinates



    51°
    17'
          24"
        N
  
      ,
    
    80°
    36'
          56"
        W
  




KCC

Dfc




Metar
CYMO 071400Z AUTO 35009KT 9SM OVC033 09/03 A3016 RMK SLP216








Description
Regional airport located 2 nm northeast of Moosonee, Ontario, Canada.
Climatology
Subarctic climate (Köppen climate classification Dfc) - long, usually very cold winters, and short, cool to mild summers.






Runways






Designator
Length
Width
Surface
Rops




14/32          
1067          
30          
COM          
No/No          


6/24          
1219          
30          
ASP          
No/No          













Airport map






Aerial View








Airport accidents



S76, vicinity Moosonee ON Canada, 2013