OISL








Larestan International Airport





Airport

ICAO code


  OISL





IATA Code

LRR




Summary

ICAO Region

MID



ICAO Territory





Iran






 








Location

Lar, Fars Province




Serving

Lar



Elevation

2625 ft



Coordinates



    27°
    40'
          10"
        N
  
      ,
    
    54°
    22'
          58"
        E
  




KCC

BWh




Metar
OISL 071400Z 21004KT 9999 FEW035CB SCT090 40/13 Q1005 A2970 NOSIG








Airport serving the city of Las, Iran.
Climatology
Warm Desert climate (Köppen climate classification BWh).






Runways






Designator
Length
Width
Surface
Rops




9/27          
3150          
45          
ASP          
No/No          













Airport map






Aerial View