MWCB








Charles Kirkconnell International Airport





Airport

ICAO code


  MWCB





IATA Code

CYB




Summary

ICAO Region

CARSAM



ICAO Territory





Cayman Islands






 








Location

Cayman Brac, Cayman Islands




Serving

Cayman Brac



Elevation

4 ft



Coordinates



    19°
    41'
          25"
        N
  
      ,
    
    79°
    52'
          46"
        W
  




KCC

Aw




Metar
MWCB 071400Z 10008KT 9999 FEW016 31/26 Q1010








Captain Sir Charles Kirkconnell International Airport (IATA: CYB, ICAO: MWCB) is an airport located on Cayman Brac, Cayman Islands.
Climatology
Tropical savannah climate (Köppen climate classification Aw)






Runways






Designator
Length
Width
Surface
Rops




9/27          
1829          
45          
ASP          
No/No          













Airport map






Aerial View