DAAP








Illizi Takhamalt Airport





Airport

ICAO code


  DAAP





IATA Code

VVZ




Summary

ICAO Region

AFI



ICAO Territory





Algeria






 








Location

, Illizi




Serving

Illizi



Elevation

1778 ft



Coordinates



    26°
    43'
          25"
        N
  
      ,
    
    8°
    37'
          22"
        E
  





Metar
DAAP 071200Z 17006KT 9999 FEW040 SCT100 35/18 Q1018









Runways






Designator
Length
Width
Surface
Rops




9/27          
3000          
45          
ASP          
No/No          













Airport map






Aerial View