KILN








Wilmington Air Park





Airport

ICAO code


  KILN





IATA Code

ILN




Summary

ICAO Region

NAM



ICAO Territory





United States






 








Location

Wilmington, Ohio




Serving

Wilmington



Elevation

1077 ft



Coordinates



    39°
    25'
          40"
        N
  
      ,
    
    83°
    47'
          32"
        W
  




KCC

Dfa




Metar
KILN 071354Z AUTO 35011KT 10SM BKN014 BKN020 13/09 A3011 RMK AO2 SLP199 T01280094








Description
Public-use airport located 2 nm southeast of the central business district of Wilmington, a city in Clinton County, Ohio, United States. The airport was formerly known as Clinton County Air Force Base.
 














Airport map






Aerial View