LFSX








Luxeuil-Saint-Sauveur (BA 116) Air Base





Airport

ICAO code


  LFSX






Summary

ICAO Region

EUR



ICAO Territory





France






 








Location

, Franche-Comte




Serving

Luxeuil



Elevation

913 ft



Coordinates



    47°
    46'
          59"
        N
  
      ,
    
    6°
    21'
          51"
        E
  





Metar
LFSX 071400Z AUTO 14009KT 110V180 CAVOK 29/15 Q1009









Runways






Designator
Length
Width
Surface
Rops




4/22          
2315          
36          
ASP          
No/No          


11/29          
2433          
45          
ASP          
No/No          













Airport map






Aerial View