LFRG








Deauville-Saint-Gatien Airport





Airport

ICAO code


  LFRG





IATA Code

DOL




Summary

ICAO Region

EUR



ICAO Territory





France






 








Location

, Basse-Normandie




Serving

Deauville



Elevation

479 ft



Coordinates



    49°
    21'
          55"
        N
  
      ,
    
    0°
    9'
          16"
        E
  





Metar
LFRG 071330Z AUTO VRB02KT 9999 FEW011 OVC066 19/17 Q1008 TEMPO 4000 SHRA BKN008 BKN025TCU SCT030CB









Runways






Designator
Length
Width
Surface
Rops




12/30          
2550          
45          
ASP          
Yes/Yes          













Airport map






Aerial View








Airport accidents



A321, vicinity Deauville France, 2013