LFRZ








Saint-Nazaire-Montoir Airport





Airport

ICAO code


  LFRZ





IATA Code

SNR




Summary

ICAO Region

EUR



ICAO Territory





France






 








Location

, Pays de la Loire




Serving

St.-nazaire



Elevation

13 ft



Coordinates



    47°
    18'
          44"
        N
  
      ,
    
    2°
    8'
          57"
        W
  





Metar
LFRZ 071400Z AUTO 21010KT 9999 ///CB 19/14 Q1008 TEMPO VRB15G25KT 2000 TSRA BKN008 BKN020CB









Runways






Designator
Length
Width
Surface
Rops




8/26          
2400          
45          
ASP          
No/No          













Airport map






Aerial View