FMSD








Tôlanaro Airport





Airport

ICAO code


  FMSD





IATA Code

FTU




Summary

ICAO Region

AFI



ICAO Territory





Madagascar






 








Location

Tôlanaro, Anosy Region




Serving

Tôlanaro



Elevation

20 ft



Coordinates



    25°
    2'
          17"
        S
  
      ,
    
    46°
    57'
          21"
        E
  




KCC

Am




Metar
FMSD 071200Z 08018KT 9999 FEW020 28/21 Q1019








Tôlanaro Airport (also known as Marillac Airport) is an airport in Tôlanaro, Anosy Region, Madagascar
Climatology
Tropical monsoon climate (Köppen climate classification Am)






Runways






Designator
Length
Width
Surface
Rops




8/26          
1498          
30          
ASP          
No/No          













Airport map






Aerial View