YMAV








Avalon Airport





Airport

ICAO code


  YMAV





IATA Code

AVV




Summary

ICAO Region

APAC



ICAO Territory





Australia






 








Location

, Victoria




Serving

Avalon



Elevation

35 ft



Coordinates



    38°
    2'
          22"
        S
  
      ,
    
    144°
    28'
          10"
        E
  





Metar
YMAV 071400Z AUTO 32008KT 9999 // SCT057 10/07 Q1021 RF00.0/000.6

















Airport map






Aerial View