MMCL








Federal de Bachigualato International Airport





Airport

ICAO code


  MMCL





IATA Code

CUL




Summary

ICAO Region

CARSAM



ICAO Territory





Mexico






 








Location

Sinaloa, Sinaloa




Serving

Culiacan



Elevation

108 ft



Coordinates



    24°
    45'
          52"
        N
  
      ,
    
    107°
    28'
          29"
        W
  





Metar
MMCL 071240Z 02005KT 10SM BKN060 28/27 A2973 RMK 8/050









Runways






Designator
Length
Width
Surface
Rops




2/20          
2300          
45          
ASP          
No/No          













Airport map






Aerial View