RPLC








Clark International/Angeles Airport





Airport

ICAO code


  RPLC





IATA Code

CRK




Summary

ICAO Region

APAC



ICAO Territory





Philippines






 








Location

Angeles, Pampanga




Serving

Manila



Elevation

484 ft



Coordinates



    15°
    11'
          9"
        N
  
      ,
    
    120°
    33'
          37"
        E
  




KCC

Am




Metar
RPLC 071400Z 22002KT 9999 SCT020 27/25 Q1013 NOSIG RMK A2991








Clark International Airport, is an airport that is an international gateway to the Philippines within Clark Freeport Zone in Angeles and Mabalacat, located 80km northwest of Manila.
Climatology
Tropical Monsoon climate (Köppen climate classification Am)






Runways






Designator
Length
Width
Surface
Rops




02L/20R          
3200          
45          
CON          
Yes/Yes          


02R/20L          
3200          
60          
CON          
Yes/Yes          













Airport map






Aerial View