KHYA








Cape Cod Gateway Airport





Airport

ICAO code


  KHYA





IATA Code

HYA




Summary

ICAO Region

NAM



ICAO Territory





United States






 








Location

Hyannis, Massachusetts




Serving

Cape Cod



Elevation

54 ft



Coordinates



    41°
    39'
          56"
        N
  
      ,
    
    70°
    16'
          57"
        W
  




KCC

Dfa



Airport BS

Bird Strike



Airport WX

Cumulonimbus




Metar
KHYA 071411Z 35013G19KT 10SM OVC008 19/17 A2985 RMK AO2 T01940167








Description
Cape Cod Gateway Airport, previously known as Barnstable Municipal Airport and also known as Boardman/Polando Field, is a public airport located on Cape Cod, 1.5 nm north of the central business district of Hyannis, in Barnstable County, Massachusetts.














Airport map






Aerial View