PABL








Buckland Airport





Airport

ICAO code


  PABL





IATA Code

BKC




Summary

ICAO Region

NAM



ICAO Territory





Alaska






 








Location

, Alaska




Serving

Buckland



Elevation

31 ft



Coordinates



    65°
    58'
          54"
        N
  
      ,
    
    161°
    8'
          57"
        W
  





Metar
PABL 071307Z AUTO 27003KT 10SM OVC013 03/01 A2990 RMK AO2









Runways






Designator
Length
Width
Surface
Rops




11/29          
975          
23          
GRVL-G          
No/No          













Airport map






Aerial View