SBSJ








São José dos Campos/Professor Urbano Ernesto Stumpf Airport





Airport

ICAO code


  SBSJ





IATA Code

SJK




Summary

ICAO Region

CARSAM



ICAO Territory





Brazil






 








Location

São José dos Campos, São Paulo




Serving

São José dos Campos



Elevation

2120 ft



Coordinates



    23°
    13'
          45"
        S
  
      ,
    
    45°
    51'
          41"
        W
  




KCC

Cfa




Metar
SBSJ 071300Z 09003KT 030V130 4000 HZ SCT013 BKN015 22/18 Q1022








São José dos Campos-Professor Urbano Ernesto Stumpf Airport, is a public-use airport located 12 km from downtown São José dos Campos, a city in the state of São Paulo in Brazil
Climatology
Humid “subtropical” climate (Köppen climate classification Cfa) - characterized by hot, humid summers and cool winters. Significant amounts of precipitation occur in all seasons in most areas. Winter rainfall (and sometimes snowfall) is associated with large storms that the westerlies steer from west to east. Most summer rainfall occurs during thunderstorms.






Runways






Designator
Length
Width
Surface
Rops




15/33          
2676          
45          
ASP          
Yes/Yes          













Airport map






Aerial View