LEGT








Getafe Air Base





Airport

ICAO code


  LEGT






Summary

ICAO Region

EUR



ICAO Territory





Spain






 








Location

,




Serving

Madrid



Elevation

2031 ft



Coordinates



    40°
    17'
          39"
        N
  
      ,
    
    3°
    43'
          26"
        W
  





Metar
LEGT 071400Z 22010KT 170V270 CAVOK 26/01 Q1012









Runways






Designator
Length
Width
Surface
Rops




05R/23L          
920          
30          
GRE          
No/No          


5/23          
2480          
60          
ASP          
No/No          













Airport map






Aerial View