UUWW








Moskow/Vnukovo International Airport





Airport

ICAO code


  UUWW





IATA Code

VKO




Summary

ICAO Region

EUR



ICAO Territory





Russian Federation






 








Location

Vnukovo, Moscow Oblast,




Serving

Moscow



Elevation

686 ft



Coordinates



    55°
    35'
          40"
        N
  
      ,
    
    37°
    15'
          49"
        E
  




KCC

Dfb




Metar
UUWW 071400Z 09002MPS CAVOK 24/08 Q1029 R24/000065 NOSIG








Description
Vnukovo International Airport, is an international airport located 28 km southwest from the centre of Moscow, Russia.
Climatology
Humid Continental climate (Köppen climate classification Dfb) - Variable weather patterns and a large seasonal temperature variance. Summers are often warm and humid with frequent thunderstorms and winters can be very cold with frequent snowfall and persistent snow cover.






Runways






Designator
Length
Width
Surface
Rops




6/24          
3000          
60          
ASP          
Yes/Yes          


2/20          
3060          
60          
ASP          
Yes/Yes          













Airport map






Aerial View








Airport accidents



FA50 / Vehicle, Moscow Vnukovo Russia, 2014