KMSL








Northwest Alabama Regional Airport





Airport

ICAO code


  KMSL






Summary

ICAO Region

NAM



ICAO Territory





United States






 








Location

Muscle Shoals, Alabama,




Coordinates



    34°
    44'
          44"
        N
  
      ,
    
    87°
    37'
          9"
        W
  




KCC

Cfa



Airport WX

Cumulonimbus




Metar
KMSL 071353Z AUTO 03012G19KT 10SM OVC065 23/16 A3003 RMK AO2 SLP162 T02280156








Description
Regional airport serving the city of Muscle Shoals and north western Alabama, USA.
Climatology
Humid “subtropical” climate (Köppen climate classification Cfa) - characterized by hot, humid summers and cool winters. Significant amounts of precipitation occur in all seasons in most areas. Winter rainfall (and sometimes snowfall) is associated with large storms that the westerlies steer from west to east. Most summer rainfall occurs during thunderstorms and occasional tropical storms (hurricanes).






Runways






Designator
Length
Width
Surface
Rops




18/36          
1219          
30          
ASP          
Yes/Yes          


11/29          
2040          
46          
ASP          
Yes/Yes          













Airport map






Aerial View