RJCK








Kushiro Airport





Airport

ICAO code


  RJCK





IATA Code

KUH




Summary

ICAO Region

APAC



ICAO Territory





Japan






 








Location

Kushiro, Hokkaidō




Serving

Kushiro



Elevation

311 ft



Coordinates



    43°
    2'
          28"
        N
  
      ,
    
    144°
    11'
          35"
        E
  




KCC

Dfb




Metar
RJCK 071300Z AUTO 17002KT 9999 NSC 16/14 Q1010








Kushiro Airport is an airport located 9 nm west northwest of Kushiro, Hokkaidō, Japan.
Climatology
Humid Continental climate (Köppen climate classification Dfb) - Variable weather patterns and a large seasonal temperature variance. Summers are often warm and humid with frequent thunderstorms and winters can be very cold with frequent snowfall and persistent snow cover.






Runways






Designator
Length
Width
Surface
Rops




17/35          
2500          
46          
ASP          
Yes/Yes          













Airport map






Aerial View