HTDO








Dodoma Airport





Airport

ICAO code


  HTDO





IATA Code

DOD




Summary

ICAO Region

AFI



ICAO Territory





Tanzania






 








Location

Dodoma, Dodoma Region




Serving

Dodoma



Elevation

3637 ft



Coordinates



    6°
    10'
          13"
        S
  
      ,
    
    35°
    44'
          58"
        E
  




KCC

BSh




Metar
HTDO 071200Z 13011KT 9999 FEW030 29/11 Q1019 NOSIG








Dodoma Airport is an airport serving the Tanzanian capital of Dodoma.
Climatology
Warm semi-arid climate (Köppen climate classification BSh)






Runways






Designator
Length
Width
Surface
Rops




10/28          
2042          
30          
ASP          
No/No          













Airport map






Aerial View