LGKZ








Kozani National Airport





Airport

ICAO code


  LGKZ





IATA Code

KZI




Summary

ICAO Region

EUR



ICAO Territory





Greece






 








Location

Kozani, Western Macedonia




Serving

Kozani



Elevation

2059 ft



Coordinates



    40°
    17'
          20"
        N
  
      ,
    
    21°
    50'
          24"
        E
  




KCC

Cfa




Metar
LGKZ 071350Z AUTO 15007KT 060V180 //// // ////// 31/11 Q1016 RE//








Kozani National Airport "Filippos" is located 2.5 nm southeast of the Greek city of Kozani.
Climatology
Humid subtropical climate (Köppen climate classification Cfa)






Runways






Designator
Length
Width
Surface
Rops




14/32          
1822          
30          
ASP          
No/No          













Airport map






Aerial View