KOWB








Owensboro-Daviess County Regional Airport





Airport

ICAO code


  KOWB






Summary

ICAO Region

NAM



ICAO Territory





United States






 








Location

Owensboro, Kentucky,




Coordinates



    37°
    44'
          22"
        N
  
      ,
    
    87°
    10'
          2"
        W
  




KCC

Cfa



Airport WX

Cumulonimbus




Metar
KOWB 071356Z 02012KT 10SM CLR 17/08 A3016 RMK AO2 SLP211 T01670078








Description
Owensboro-Daviess County Airport is a public use airport located 6 km southwest of the central business district of Owensboro, a city in Daviess County, Kentucky.
Climatology
Humid “subtropical” climate (Köppen climate classification Cfa) - characterized by hot, humid summers and cool winters. Significant amounts of precipitation occur in all seasons in most areas. Winter rainfall (and sometimes snowfall) is associated with large storms that the westerlies steer from west to east. Most summer rainfall occurs during thunderstorms.






Runways






Designator
Length
Width
Surface
Rops




5/23          
1524          
30          
ASP          
Yes/Yes          


18/36          
1979          
46          
ASP          
Yes/Yes          













Airport map






Aerial View