WAJJ








Jayapura/Sentani Airport





Airport

ICAO code


  WAJJ





IATA Code

DJJ




Summary

ICAO Region

APAC



ICAO Territory





Indonesia






 








Location

Sentani, Papua




Serving

Jayapura



Elevation

289 ft



Coordinates



    2°
    34'
          36"
        S
  
      ,
    
    140°
    30'
          58"
        E
  





Metar
WAJJ 071400Z VRB01KT 9999 FEW013 26/25 Q1011 NOSIG








Description
Jalan Raya Airport Sentani is an airport serving Jayapura, the capital of Papua province, Indonesia, on the island of New Guinea.
Climatology














Airport map






Aerial View