EFKE








Kemi-Tornio





Airport

ICAO code


  EFKE






Summary

ICAO Region

EUR



ICAO Territory





Finland






 








Location

Kemi,




Coordinates



    65°
    46'
          43"
        N
  
      ,
    
    24°
    34'
          53"
        E
  




KCC

Dfb




Metar
EFKE 071350Z AUTO 21013KT 9999 OVC005 16/15 Q1019








Description
Kemi-Tornio Airport is an airport north of the city of Kemi, near the town of Lautiosaari east of the Kemijoki (Kemi River) in Finland. The airport is 6 km from Kemi and 18 km from the city of Tornio.
Climatology
Humid Continental climate (Köppen climate classification Dfb) - Variable weather patterns and a large seasonal temperature variance. Summers are often warm and humid with frequent thunderstorms and winters can be very cold with frequent snowfall and persistent snow cover.






Runways






Designator
Length
Width
Surface
Rops




18/36          
2503          
48          
ASP          
Yes/Yes          













Airport map






Aerial View








Airport accidents



E145, Kemi-Tornio Finland 2008