RPMR








General Santos International Airport





Airport

ICAO code


  RPMR





IATA Code

GES




Summary

ICAO Region

APAC



ICAO Territory





Philippines






 








Location

General Santos, Mindanao




Serving

SOCCSKSARGEN



Elevation

505 ft



Coordinates



    6°
    3'
          28"
        N
  
      ,
    
    125°
    5'
          45"
        E
  




KCC

Aw




Metar
RPMR 070100Z VRB03KT 9999 FEW018 30/24 Q1014 RMK A2994








General Santos International Airport, (stylized as General Santos City Airport) is an international airport located in the city of General Santos, is the largest airport in the island of Mindanao, Philippines.
Climatology
Tropical savannah climate (Köppen climate classification Aw)






Runways






Designator
Length
Width
Surface
Rops




17/35          
3227          
45          
CON          
Yes/Yes          













Airport map






Aerial View