VVTS








Ho Chi Minh City International Airport





Airport

ICAO code


  VVTS





IATA Code

SGN




Summary

ICAO Region

APAC



ICAO Territory





Vietnam






 








Location

Ho Chi Minh City, Ho Chi Minh City




Serving

Ho Chi Minh City



Elevation

33 ft



Coordinates



    10°
    49'
          14"
        N
  
      ,
    
    106°
    39'
          39"
        E
  




KCC

Aw




Metar
VVTS 071300Z 23009KT 9999 SCT027 29/26 Q1008 NOSIG








Description
International airport serving Ho Chi Minh City, Vietnam.
Climatology
Tropical savannah climate (Köppen climate classification Aw)














Airport map






Aerial View