RJDT








Tsushima Airport





Airport

ICAO code


  RJDT





IATA Code

TSJ




Summary

ICAO Region

APAC



ICAO Territory





Japan






 








Location

Tsushima, Nagasaki Prefecture




Serving

Tsushima



Elevation

207 ft



Coordinates



    34°
    17'
          9"
        N
  
      ,
    
    129°
    19'
          34"
        E
  




KCC

Cfa




Metar
RJDT 070100Z 12006KT 9999 FEW010 29/25 Q1015








Tsushima Airport is an airport located 10 km northeast of Tsushima, a city in the Nagasaki Prefecture of Japan.
Climatology
Humid Sub-tropical climate (Köppen climate classification Cfa)






Runways






Designator
Length
Width
Surface
Rops




14/32          
1900          
46          
ASP          
No/No          













Airport map






Aerial View