KVNY








Los Angeles/Van Nuys Airport





Airport

ICAO code


  KVNY





IATA Code

VNY




Summary

ICAO Region

NAM



ICAO Territory





United States






 








Location

Van Nuys, California




Serving

Los Angeles



Elevation

802 ft



Coordinates



    34°
    12'
          35"
        N
  
      ,
    
    118°
    29'
          24"
        W
  




KCC

Csa




Metar
KVNY 071151Z AUTO 00000KT 10SM CLR 26/15 A2982 RMK AO2 RAB22E31 SLP085 P0000 60000 T02560150 10328 20256 56009








Van Nuys Airport is a public airport located in Van Nuys in the San Fernando Valley section of the city limits of Los Angeles, California, United States. No major commercial airlines fly into this airport; it is used by private, chartered, and small commercial aircraft.






Runways






Designator
Length
Width
Surface
Rops




16L/34R          
1223          
23          
ASP          
Yes/Yes          


16R/34L          
2439          
46          
ASP          
Yes/Yes          













Airport map






Aerial View