LIEA








Alghero–Fertilia Airport





Airport

ICAO code


  LIEA





IATA Code

AHO




Summary

ICAO Region

EUR



ICAO Territory





Italy






 








Location

Fertilia, Sardinia




Serving

Alghero



Elevation

87 ft



Coordinates



    40°
    37'
          51"
        N
  
      ,
    
    8°
    17'
          18"
        E
  




KCC

Csa




Metar
LIEA 071350Z 23012KT 200V260 CAVOK 35/17 Q1012








Alghero - Riviera del Corallo Airport is an international airport situated 4.3 nm north-northwest of the city of Alghero, in northern Sardinia, Italy. It is also known as Alghero–Fertilia Airport, named for the nearby village of Fertilia or Alghero Airport.
Climatology
Warm mediterranean climate (Köppen climate classification Csa)






Runways






Designator
Length
Width
Surface
Rops




2/20          
3000          
45          
ASP          
Yes/Yes          













Airport map






Aerial View