SASA








Martin Miguel De Guemes International Airport





Airport

ICAO code


  SASA





IATA Code

SLA




Summary

ICAO Region

CARSAM



ICAO Territory





Argentina






 








Location

Salta, Salta




Serving

Salta



Elevation

4088 ft



Coordinates



    24°
    51'
          22"
        S
  
      ,
    
    65°
    29'
          10"
        W
  




KCC

Cwb




Metar
SASA 071300Z 11003KT 070V170 CAVOK 19/05 Q1016








Airport 7km southwest of Salta, Argentina.
Climatology
Subtropical highland climate (Köppen climate classification Cwb).






Runways






Designator
Length
Width
Surface
Rops




6/24          
2400          
30          
ASP          
Yes/Yes          


2/20          
3000          
45          
ASP          
Yes/Yes          













Airport map






Aerial View