LFRT








Saint-Brieuc-Armor Airport





Airport

ICAO code


  LFRT





IATA Code

SBK




Summary

ICAO Region

EUR



ICAO Territory





France






 








Location

, Bretagne




Serving

St.-brieuc Armor



Elevation

453 ft



Coordinates



    48°
    32'
          16"
        N
  
      ,
    
    2°
    51'
          16"
        W
  





Metar
LFRT 071400Z AUTO 08004KT 060V120 CAVOK 19/14 Q1007









Runways






Designator
Length
Width
Surface
Rops




6/24          
2200          
45          
ASP          
No/No          













Airport map






Aerial View