DABT








Batna Airport





Airport

ICAO code


  DABT





IATA Code

BLJ




Summary

ICAO Region

AFI



ICAO Territory





Algeria






 








Location

, Batna




Serving

Batna



Elevation

2697 ft



Coordinates



    35°
    45'
          8"
        N
  
      ,
    
    6°
    18'
          31"
        E
  





Metar
DABT 071100Z 13003KT 9999 FEW026 34/12 Q1019









Runways






Designator
Length
Width
Surface
Rops




5/23          
3000          
45          
ASP          
Yes/Yes          













Airport map






Aerial View