MUCF








Jaime González Airport





Airport

ICAO code


  MUCF





IATA Code

CFG




Summary

ICAO Region

CARSAM



ICAO Territory





Cuba






 








Location

Cienfuegos, Cienfuegos




Serving

Cienfuegos



Elevation

102 ft



Coordinates



    22°
    8'
          60"
        N
  
      ,
    
    80°
    24'
          50"
        W
  




KCC

Aw



Airport BS

Bird Strike




Metar
MUCF 071259Z AUTO 09003KT 050V140 27/25 Q1011








International airport serving Cienfuegos, Cuba and the nearby holiday resorts.
Climatology
Tropical Savanna climate (Köppen climate classification Aw)






Runways






Designator
Length
Width
Surface
Rops




2/20          
2400          
45          
ASP          
No/No          













Airport map






Aerial View