KPDT








Eastern Oregon Regional Airport





Airport

ICAO code


  KPDT





IATA Code

PDT




Summary

ICAO Region

NAM



ICAO Territory





United States






 








Location

Pendleton, Oregon




Serving

Pendleton



Elevation

1497 ft



Coordinates



    45°
    41'
          43"
        N
  
      ,
    
    118°
    50'
          29"
        W
  




KCC

BSk




Metar
KPDT 071353Z 13004KT 7SM CLR 17/06 A2996 RMK AO2 SLP129 T01720056 $








Eastern Oregon Regional Airport at Pendleton is a public use airport located 3 nm northwest of Pendleton, in Umatilla County, Oregon.
 






Runways






Designator
Length
Width
Surface
Rops




16/34          
1323          
18          
ASP          
Yes/Yes          


11/29          
1701          
30          
ASP          
Yes/Yes          


7/25          
1920          
46          
ASP          
Yes/Yes          













Airport map






Aerial View