PASY








Eareckson Air Station





Airport

ICAO code


  PASY





IATA Code

SYA




Summary

ICAO Region

NAM



ICAO Territory





Alaska






 








Location

, Alaska




Serving

Shemya



Elevation

95 ft



Coordinates



    52°
    42'
          44"
        N
  
      ,
    
    174°
    6'
          49"
        E
  





Metar
PASY 071259Z 25012KT 2SM BR OVC002 09/09 A2993 RMK AO2A SLP136 ALSTG/SLP ESTMD T00970095 PNO FZRANO $









Runways






Designator
Length
Width
Surface
Rops




10/28          
3048          
46          
ASP          
Yes/Yes          













Airport map






Aerial View