KBFF








Western Nebraska Regional Airport





Airport

ICAO code


  KBFF






Summary

ICAO Region

NAM



ICAO Territory





United States






 








Location

Scottsbuluff, Nebraska,




Coordinates



    41°
    52'
          4"
        N
  
      ,
    
    103°
    35'
          48"
        W
  




KCC

BSk



Airport CFIT

Altimeter Temperature Error Correction




Metar
KBFF 071353Z AUTO 11008KT 9SM OVC005 12/09 A3025 RMK AO2 SLP213 T01170094








Description
Western Nebraska Regional Airport (William B. Heilig Field) is a public airport located 5 km east of Scottsbluff, in Scotts Bluff County, Nebraska.
Climatology
Semi-arid climate (Köppen climate classification BSk). - Hot, sometimes extremely hot summers and cold, sometimes very cold winters. Some snowfall during the winter. Areas featuring cold semi-arid climates are sometimes subject to major temperature swings during a 24 hour period.














Airport map






Aerial View