MUCL








Vilo Acuña Airport





Airport

ICAO code


  MUCL





IATA Code

CYO




Summary

ICAO Region

CARSAM



ICAO Territory





Cuba






 








Location

Cayo Largo del Sur, Isla de la Juventud




Serving

Cayo Largo del Sur



Elevation

10 ft



Coordinates



    21°
    36'
          57"
        N
  
      ,
    
    81°
    32'
          44"
        W
  




KCC

Aw



Airport BS

Bird Strike




Metar
MUCL 071250Z 11004KT 070V140 9000 FEW020 30/26 Q1010








International airport serving the resort island of Cayo Largo del Sur, Cuba.
Climatology
Tropical Savanna climate (Köppen climate classification Aw)






Runways






Designator
Length
Width
Surface
Rops




12/30          
3008          
45          
ASP          
No/No          













Airport map






Aerial View