KBDL








Bradley International Airport





Airport

ICAO code


  KBDL





IATA Code

BDL




Summary

ICAO Region

NAM



ICAO Territory





United States






 








Location

Windsor Locks , Connecticut




Serving

Hartford



Elevation

173 ft



Coordinates



    41°
    55'
          43"
        N
  
      ,
    
    72°
    41'
          2"
        W
  




KCC

Dfa




Metar
KBDL 071351Z 22004KT 10SM BKN033 BKN250 21/14 A2990 RMK AO2 SLP124 T02110139








Description
Bradley International Airport is a joint civil-military (ANG) public airport located in Windsor Locks, Connecticut, USA.














Airport map






Aerial View