SKRG








José María Córdova International Airport





Airport

ICAO code


  SKRG





IATA Code

MDE




Summary

ICAO Region

CARSAM



ICAO Territory





Colombia






 








Location

Rionegro, Antioquia




Serving

Medellín



Elevation

7027 ft



Coordinates



    6°
    10'
          15"
        N
  
      ,
    
    75°
    25'
          39"
        W
  




KCC

Af




Metar
SKRG 071200Z 34003KT 9999 SCT008 14/13 Q1025 REDZ NOSIG








José María Córdova International Airport is located in the city of Rionegro, 20 kilometres (12 mi) south-east of Medellín.
Climatology
Tropical rainforest climate (Köppen climate classification Af)






Runways






Designator
Length
Width
Surface
Rops




18/36          
3500          
45          
ASP          
Yes/Yes          













Airport map






Aerial View








Airport accidents



RJ85, vicinity Medellín International (Rionegro) Colombia, 2016