RJSF








Fukushima Airport





Airport

ICAO code


  RJSF





IATA Code

FKS




Summary

ICAO Region

APAC



ICAO Territory





Japan






 








Location

Sukagawa, Fukushima Prefecture




Serving

Sukagawa



Elevation

1220 ft



Coordinates



    37°
    13'
          42"
        N
  
      ,
    
    140°
    25'
          43"
        E
  




KCC

Cfa




Metar
RJSF 071300Z AUTO 20006KT 9999 BKN045 OVC070 24/23 Q1016








Airport serving northern and central Fukushima Prefecture, Japan, located in the city of Sukagawa. The airport is located 19.4 km southeast of Kōriyama.
Climatology
Humid Sub-tropical climate (Köppen climate classification Cfa)






Runways






Designator
Length
Width
Surface
Rops




1/19          
2500          
60          
ASP          
Yes/Yes          













Airport map






Aerial View