CYQM








Moncton/Greater Moncton International Airport





Airport

ICAO code


  CYQM





IATA Code

YQM




Summary

ICAO Region

NAM



ICAO Territory





Canada






 








Location

Dieppe, New Brunswick,




Serving

Moncton



Elevation

232 ft



Coordinates



    46°
    6'
          44"
        N
  
      ,
    
    64°
    40'
          43"
        W
  




KCC

Dfb




Metar
CYQM 071500Z 04010KT 2SM RA BR OVC004 OVC035 17/17 A2989 RMK SF8NS1 NS TR /R18/ SLP123 DENSITY ALT 600FT








Description
Moncton/Greater Moncton International Airport is located in the city of Dieppe 4 nm east northeast of downtown Moncton, New Brunswick, Canada
Climatology
Humid Continental climate (Köppen climate classification Dfb) - Variable weather patterns and a large seasonal temperature variance. Summers are often warm and humid with frequent thunderstorms and winters can be very cold with frequent snowfall and persistent snow cover.






Runways






Designator
Length
Width
Surface
Rops




6/24          
1875          
61          
ASP          
Yes/Yes          


11/29          
2438          
61          
ASP          
Yes/Yes          













Airport map






Aerial View








Airport accidents



B722, Moncton Canada, 2010