KEKO








Elko Regional Airport





Airport

ICAO code


  KEKO





IATA Code

EKO




Summary

ICAO Region

NAM



ICAO Territory





United States






 








Location

Elko, Nevada




Serving

Elko



Elevation

5140 ft



Coordinates



    40°
    49'
          28"
        N
  
      ,
    
    115°
    47'
          30"
        W
  




KCC

BSk



Airport CFIT

Altimeter Temperature Error Correction



Airport RE

Hot and High Operations



Airport WX

Cumulonimbus




Metar
KEKO 071356Z AUTO 00000KT 10SM CLR 09/M01 A3021 RMK AO2 SLP187 T00941011








Elko Regional Airport, formerly Elko Municipal Airport, is a public airport located 1 nm west of Elko, in Elko County, Nevada, USA.
 














Airport map






Aerial View