LDRI








Rijeka Airport





Airport

ICAO code


  LDRI





IATA Code

RJK




Summary

ICAO Region

EUR



ICAO Territory





Croatia






 








Location

Omisalj, Krk




Serving

Rijeka



Elevation

278 ft



Coordinates



    45°
    13'
          0"
        N
  
      ,
    
    14°
    34'
          15"
        E
  




KCC

Cfa




Metar
LDRI 071300Z VRB04KT 9999 FEW043 30/16 Q1016








Rijeka Airport is the international airport serving Rijeka, Croatia.
Climatology
Humid subtropical climate (Köppen climate classification Cfa)






Runways






Designator
Length
Width
Surface
Rops




14/32          
2488          
45          
PEM          
Yes/Yes          













Airport map






Aerial View