KDBQ








Dubuque Regional Airport





Airport

ICAO code


  KDBQ





IATA Code

BDQ




Summary

ICAO Region

NAM



ICAO Territory





United States






 








Location

Dubuque, Iowa




Serving

Dubuque



Elevation

1077 ft



Coordinates



    42°
    24'
          23"
        N
  
      ,
    
    90°
    42'
          18"
        W
  




KCC

Dfa



Airport CFIT

Altimeter Temperature Error Correction




Metar
KDBQ 071353Z 03010KT 10SM CLR 10/06 A3031 RMK AO2 SLP267 T01000056 $








Description
Dubuque Regional Airport is a public airport located 8 nmm south of Dubuque, Iowa .














Airport map






Aerial View