FPST








São Tomé International Airport





Airport

ICAO code


  FPST





IATA Code

TMS




Summary

ICAO Region

AFI



ICAO Territory





Sao Tome and Principe






 








Location

São Tomé, São Tomé Island,




Serving

São Tomé



Elevation

33 ft



Coordinates



    0°
    22'
          41"
        N
  
      ,
    
    6°
    42'
          44"
        E
  




KCC

Aw



Airport BS

Bird Strike




Metar
FPST 071300Z 17014KT 9999 SCT020 BKN033 28/23 Q1012








International airport serving the islands of Sao Tome and Principe. There is no Stopway or RESA.
Climatology
Tropical Savanna climate (Köppen climate classification Aw)






Runways






Designator
Length
Width
Surface
Rops




11/29          
2220          
45          
ASP          
No/No          













Airport map






Aerial View








Airport accidents



AN72, Sao Tome, Sao Tome & Principe, 2017