UCFM








Bishkek/Manas International Airport





Airport

ICAO code


  UCFM





IATA Code

FRU




Summary

ICAO Region

APAC



ICAO Territory





Kyrgyzstan






 








Location

Bishkek, Chuy, Kyrgyzstan,




Serving

Bishkek



Elevation

2058 ft



Coordinates



    43°
    3'
          41"
        N
  
      ,
    
    74°
    28'
          39"
        E
  




KCC

BSk




Metar
UCFM 071500Z 08003MPS CAVOK 15/08 Q1023 NOSIG








Description
International airport serving the city of Bishkek.
Climatology
Cold Semi-arid climate (Köppen climate classification BSk). - Hot, sometimes extremely hot summers and cold, sometimes very cold winters. Some snowfall during the winter. Areas featuring cold semi-arid climates are sometimes subject to major temperature swings during a 24 hour period.














Airport map






Aerial View








Airport accidents



B744, vicinity Bishkek Kyrgyzstan, 2017