KBZN








Bozeman Yellowstone International Airport





Airport

ICAO code


  KBZN





IATA Code

BZN




Summary

ICAO Region

NAM



ICAO Territory





United States






 








Location

Belgrade, Gallatin County, , Montana




Serving

Bozeman



Elevation

4473 ft



Coordinates



    45°
    46'
          37"
        N
  
      ,
    
    111°
    9'
          38"
        W
  




KCC

Dfb



Airport CFIT

Altimeter Temperature Error Correction



Airport RE

Hot and High Operations




Metar
KBZN 071156Z 18004KT 10SM CLR 12/05 A3020 RMK AO2 SLP187 T01220050 10156 20089 55003








Description
Bozeman Yellowstone International Airport, formerly known as Gallatin Field Airport, is a public-use airport located 8 nm northwest of the central business district of Bozeman, a city in Gallatin County, Montana, United States. 














Airport map






Aerial View








Airport accidents



BE20, vicinity Gallatin Field MT USA, 2007