GMMC








Casablanca-Anfa Airport





Airport

ICAO code


  GMMC





IATA Code

CAS




Summary

ICAO Region

AFI



ICAO Territory





Morocco






 








Location

Casablanca, Grand Casablanca




Serving

Casablanca



Elevation

203 ft



Coordinates



    33°
    33'
          24"
        N
  
      ,
    
    7°
    39'
          48"
        W
  




KCC

Csb




Metar
GMMC 071300Z 04012KT 6000 NSC 24/17 Q1009 NOSIG








Description
International airport serving Casablanca, Morroco.
Climatology
Semi-arid/Dry-summer subtropical ”Mediterranean" climate (Köppen climate classification Csb/BSh) - characterized by hot, dry summers and mild winters. During the summer, subtropical high pressure cells dominate, making rainfall unlikely except for the occasional thunderstorm.






Runways






Designator
Length
Width
Surface
Rops




3/21          
1880          
0          
UNK          
Yes/Yes          













Airport map






Aerial View