EFOU








Oulu Airport





Airport

ICAO code


  EFOU






Summary

ICAO Region

EUR



ICAO Territory





Finland






 








Location

Oulu, Finland,




Elevation

302 ft



Coordinates



    64°
    55'
          48"
        N
  
      ,
    
    25°
    21'
          16"
        E
  




KCC

Dfc



Airport GND

Aircraft Ground De/Anti Icing



Airport RE

Landing on Contaminated Runways




Metar
EFOU 071220Z AUTO 24008KT 210V270 CAVOK 22/13 Q1020








Description
Oulu Airport is located 5.7 nm southwest of the city of Oulu, in central Finland. The airfield is also used for training by the Finnish air force.
Climatology
Subarctic climate (Köppen climate classification Dfc) - long, usually very cold winters, and short, cool to mild summers.






Runways






Designator
Length
Width
Surface
Rops




12/30          
2501          
60          
ASP          
Yes/Yes          













Airport map






Aerial View