MUGM








Leeward Point Field





Airport

ICAO code


  MUGM





IATA Code

NBW




Summary

ICAO Region

CARSAM



ICAO Territory





Cuba






 








Location

Guantánamo Bay, Guantanamo




Serving

Guantanamo Bay Naval Station



Elevation

56 ft



Coordinates



    19°
    54'
          26"
        N
  
      ,
    
    75°
    12'
          28"
        W
  




KCC

Aw



Airport BS

Bird Strike




Metar
MUGM 071251Z 35007KT 10SM FEW030 SCT250 29/24 A2987 RMK AO2 SLP114 T02940239 $








US Military airport serving Naval Air Station Guantánamo Bay, Cuba.
Climatology
Tropical Savanna climate (Köppen climate classification Aw)






Runways






Designator
Length
Width
Surface
Rops




10/28          
2438          
61          
ASP          
Yes/Yes          













Airport map






Aerial View