ZGKL








Guilin Liangjiang International Airport





Airport

ICAO code


  ZGKL





IATA Code

KWL




Summary

ICAO Region

APAC



ICAO Territory





China






 








Location

Liangjiang, Guangxi,




Serving

Guilin Liangjiang



Coordinates



    25°
    12'
          57"
        N
  
      ,
    
    110°
    2'
          49"
        E
  




KCC

Cwa




Metar
ZGKL 071300Z 04005MPS 9999 -SHRA SCT040 OVC066 28/24 Q1009 NOSIG








Description
Guilin Liangjiang International Airport, is the airport serving Liangjiang, about 28 km southwest from Guilin City, Guangxi, in the People’s Republic of China.
Climatology
Within the Köppen Climate Classification System, ((Koppen climate classification Cwa)) this climate type generally has warm and humid summers with mild winters. Its extent is from 30 to 50° of latitude mainly on the eastern and western borders of most continents. During the winter, the main weather feature is the mid-latitude cyclone. Convective thunderstorms provide precipitation in the summer months.














Airport map






Aerial View