KITH








Ithaca Tompkins Regional Airport





Airport

ICAO code


  KITH





IATA Code

ITH




Summary

ICAO Region

NAM



ICAO Territory





United States






 








Location

Lansing, New York




Serving

Ithaca



Elevation

1099 ft



Coordinates



    42°
    29'
          27"
        N
  
      ,
    
    76°
    27'
          47"
        W
  




KCC

Dfb



Airport WX

Cumulonimbus




Metar
KITH 071356Z 33006KT 5SM -RA BR BKN005 OVC013 13/13 A2984 RMK AO2 CIG 004V010 SLP103 P0010 T01330128








Ithaca Tompkins Regional Airport is a public use airport located 3 nm northeast of the central business district of Ithaca, a city in Tompkins County, New York, USA.














Airport map






Aerial View