LFRQ








Quimper-Cornouaille Airport





Airport

ICAO code


  LFRQ





IATA Code

UIP




Summary

ICAO Region

EUR



ICAO Territory





France






 








Location

, Bretagne




Serving

Quimper



Elevation

297 ft



Coordinates



    47°
    58'
          30"
        N
  
      ,
    
    4°
    10'
          4"
        W
  





Metar
LFRQ 071400Z AUTO 19008KT 9999 FEW019 SCT025 18/13 Q1008 TEMPO 3000 SHRA BKN012 BKN025TCU SCT030CB









Runways






Designator
Length
Width
Surface
Rops




4/22          
810          
45          
ASP          
No/No          


10/28          
2150          
45          
ASP          
Yes/Yes          













Airport map






Aerial View