KPKB








Mid-Ohio Valley Regional Airport





Airport

ICAO code


  KPKB





IATA Code

PKB




Summary

ICAO Region

NAM



ICAO Territory





United States






 








Location

Parkersburg, West Virginia




Serving

Parkersburg



Elevation

859 ft



Coordinates



    39°
    20'
          43"
        N
  
      ,
    
    81°
    26'
          7"
        W
  




KCC

Cfa



Airport BS

Bird Strike



Airport WX

Cumulonimbus




Metar
KPKB 071353Z 35009KT 10SM OVC009 14/11 A3006 RMK AO2 SLP175 T01440106








Mid-Ohio Valley Regional Airport (also known as Wood County Airport or Gill Rob Wilson Field) is a public use airport located 7 nm northeast of the central business district of Parkersburg, a city in Wood County, West Virginia, USA.






Runways






Designator
Length
Width
Surface
Rops




10/28          
1219          
46          
ASP          
Yes/Yes          


3/21          
2067          
46          
ASP          
Yes/Yes          













Airport map






Aerial View