RJAW








Iwo Jima Air Base





Airport

ICAO code


  RJAW





IATA Code

IWO




Summary

ICAO Region

APAC



ICAO Territory





Japan






 








Location

Iwo Jima, Bonin Islands




Serving

Iwo Jima



Elevation

384 ft



Coordinates



    24°
    47'
          4"
        N
  
      ,
    
    141°
    19'
          20"
        E
  




KCC

Cfa



Airport WX

Tropical Revolving Storm




Metar
RJAW 071200Z 16013KT 9999 -SHRA BKN010 BKN120 26/24 Q1011 RMK 6CU010 7AC120 A2988








Airfield operated by Japan Self-Defence Force on the island of Iwo Jima.
Climatology
Humid subtropical climate (Köppen climate classification Cfa).






Runways






Designator
Length
Width
Surface
Rops




7/25          
2652          
61          
ASP          
Yes/Yes          













Airport map






Aerial View