RJFK








Kagoshima





Airport

ICAO code


  RJFK





IATA Code

KOJ




Summary

ICAO Region

APAC



ICAO Territory





Japan






 








Location

Kirishima, Kagoshima Prefecture




Serving

Kagoshima



Elevation

892 ft



Coordinates



    31°
    48'
          12"
        N
  
      ,
    
    130°
    43'
          10"
        E
  




KCC

Cwa




Metar
RJFK 071200Z 08002KT 9999 SCT025 26/23 Q1016








Kagoshima Airport is located in Kirishima, Kagoshima Prefecture, Japan, 29.6 km northeast of Kagoshima City.
Climatology
Humid Sub-tropical climate (Köppen climate classification Cwa) - Hot humid summers and cooler winter. Significant precipitation in all seasons but drier in the winter.






Runways






Designator
Length
Width
Surface
Rops




16/34          
2999          
46          
ASP          
Yes/Yes          













Airport map






Aerial View








Airport accidents



BN2P / B763, vicinity Kagoshima Japan, 2015