KRIV








March Air Reserve Base





Airport

ICAO code


  KRIV





IATA Code

RIV




Summary

ICAO Region

NAM



ICAO Territory





United States






 








Location

Riverside, California




Serving

Riverside County



Elevation

1536 ft



Coordinates



    33°
    53'
          29"
        N
  
      ,
    
    117°
    15'
          50"
        W
  




KCC

Csa




Metar
KRIV 071355Z AUTO 00000KT 10SM SCT180 25/15 A2987 RMK AO2 SLP095 T02450151








March Air Reserve Base (ARB), previously known as March Air Force Base, is located in Riverside County, between the cities of Riverside and Moreno Valley, California, USA.






Runways






Designator
Length
Width
Surface
Rops




12/30          
917          
30          
ASP          
Yes/Yes          


14/32          
4054          
61          
CON          
Yes/Yes          













Airport map






Aerial View