SCJO








Cañal Bajo Carlos - Hott Siebert Airport





Airport

ICAO code


  SCJO





IATA Code

ZOS




Summary

ICAO Region

CARSAM



ICAO Territory





Chile






 








Location

Osorno, Los Lagos




Serving

Osorno



Elevation

187 ft



Coordinates



    40°
    36'
          40"
        S
  
      ,
    
    73°
    3'
          40"
        W
  




KCC

Cfb




Metar
SCJO 071300Z 03008KT 9999 SCT030 BKN050 08/07 Q1020








Airport located 4 nm east of Osorno, a city in the Los Lagos Region of Chile.
Climatology
Oceanic climate (Köppen climate classification Cfb)






Runways






Designator
Length
Width
Surface
Rops




13/31          
1700          
36          
ASP          
No/No          













Airport map






Aerial View