KMAF








Midland International Air and Space Port





Airport

ICAO code


  KMAF





IATA Code

MAF




Summary

ICAO Region

NAM



ICAO Territory





United States






 








Location

Midland, Texas




Serving

Midland



Elevation

2871 ft



Coordinates



    31°
    56'
          14"
        N
  
      ,
    
    102°
    12'
          28"
        W
  




KCC

BSh



Airport LOS

Parallel Runway Operation



Airport WX

Sand Storm




Metar
KMAF 071353Z 07008KT 9SM CLR 20/17 A3025 RMK AO2 SLP204 T02000167








Midland International Airport is a public use airport located 8 nm southwest of the central business district of Midland, a city in Midland County, Texas, USA.






Runways






Designator
Length
Width
Surface
Rops




16L/34R          
1323          
30          
ASP          
Yes/Yes          


4/22          
1404          
23          
ASP          
Yes/Yes          


10/28          
2530          
46          
ASP          
Yes/Yes          


16R/34L          
2896          
46          
ASP          
Yes/Yes          













Airport map






Aerial View