CYSF








Stony Rapids Airport





Airport

ICAO code


  CYSF





IATA Code

YSF




Summary

ICAO Region

NAM



ICAO Territory





Canada






 








Location

Stony Rapids, Saskatchewan




Serving

Stony Rapids



Elevation

801 ft



Coordinates



    59°
    15'
          4"
        N
  
      ,
    
    105°
    50'
          30"
        W
  




KCC

Dfc



Airport CFIT

Altimeter Temperature Error Correction




Metar
CYSF 071453Z AUTO 00000KT 9SM SCT001 09/09 A2988 RMK SLP132








Airport serving Stony Rapids community in Saskatchewan, Canada. The airport is located on the southern outskirts of the town.
Climatology
Humid Continental climate (Köppen climate classification Dfc)






Runways






Designator
Length
Width
Surface
Rops




6/24          
1539          
30          
TREATED GR          
Yes/Yes          













Airport map






Aerial View