SKMR








Los Garzones Airport





Airport

ICAO code


  SKMR





IATA Code

MTR




Summary

ICAO Region

CARSAM



ICAO Territory





Colombia






 








Location

Los Garzones, Cordoba Department




Serving

Monteria



Elevation

36 ft



Coordinates



    8°
    49'
          31"
        N
  
      ,
    
    75°
    49'
          26"
        W
  




KCC

Aw




Metar
SKMR 071200Z 00000KT 7000 DZ SCT004 24/24 Q1008








Los Garzones Airport is an airport serving the city of Montería in the Córdoba Department of Colombia.
Climatology
Tropical savanna climate (Köppen climate classification Aw)






Runways






Designator
Length
Width
Surface
Rops




14/32          
1916          
35          
ASP          
Yes/Yes          













Airport map






Aerial View