YMLT








Launceston Airport





Airport

ICAO code


  YMLT





IATA Code

LST




Summary

ICAO Region

APAC



ICAO Territory





Australia






 








Location

Launceston, Tasmania




Serving

Launceston



Elevation

562 ft



Coordinates



    41°
    32'
          43"
        S
  
      ,
    
    147°
    12'
          37"
        E
  




KCC

Cfb




Metar
YMLT 071400Z AUTO 34014KT 9999 // NCD 08/06 Q1013 RF00.0/000.0








Launceston Airport is a regional airport on the outskirts of Launceston, Tasmania. The airport is located in the rural area of Western Junction 15 km from Launceston city centre.
Climatology
Mild temperate oceanic climate (Köppen climate classification Cfb).














Airport map






Aerial View








Airport accidents



A320 / B738, vicinity Launceston Australia, 2008