KLSE








La Crosse Regional Airport





Airport

ICAO code


  KLSE





IATA Code

LSE




Summary

ICAO Region

NAM



ICAO Territory





United States






 








Location

French Island, Wisconsin




Serving

La Crosse



Elevation

656 ft



Coordinates



    43°
    52'
          53"
        N
  
      ,
    
    91°
    15'
          32"
        W
  




KCC

Dfb



Airport BS

Bird Strike



Airport CFIT

Altimeter Temperature Error Correction



Airport WX

Cumulonimbus




Metar
KLSE 071353Z 34003KT 10SM CLR 11/04 A3033 RMK AO2 SLP273 T01110044








La Crosse Municipal Airport is a public use airport located 5 nm northwest of the central business district of La Crosse, a city in La Crosse County, Wisconsin, USA.






Runways






Designator
Length
Width
Surface
Rops




3/21          
1615          
46          
ASP          
Yes/Yes          


13/31          
1844          
46          
ASP          
Yes/Yes          


18/36          
2602          
46          
CON          
Yes/Yes          













Airport map






Aerial View