MMAS








Jesus Teran Peredo International Airport





Airport

ICAO code


  MMAS





IATA Code

AGU




Summary

ICAO Region

CARSAM



ICAO Territory





Mexico






 








Location

Cotorina, Aguascalientes




Serving

Aguascalientes



Elevation

6112 ft



Coordinates



    21°
    42'
          20"
        N
  
      ,
    
    102°
    19'
          4"
        W
  




KCC

BSh




Metar
MMAS 071242Z 03004KT 8SM BKN015 BKN100 BKN200 17/15 A3022 RMK 8/538 HZLYR








Lic. Jesús Terán Peredo International Airport, also known as Aguascalientes International Airport, serves Aguascalientes, the capital city of the state of Aguascalientes in Mexico.
Climatology
Semi-arid Climate (Köppen climate classification BSh)






Runways






Designator
Length
Width
Surface
Rops




4/22          
1060          
30          
ASP          
No/No          


17/35          
3000          
45          
ASP          
No/No          













Airport map






Aerial View