RCKH








Kaohsiung International Airport





Airport

ICAO code


  RCKH





IATA Code

KHH




Summary

ICAO Region

APAC



ICAO Territory





China






 








Location

Kaohsiung City,




Serving

Kaohsiung City



Elevation

30 ft



Coordinates



    22°
    34'
          30"
        N
  
      ,
    
    120°
    21'
          1"
        E
  




KCC

Aw




Metar
RCKH 071300Z 09007KT 9999 FEW006 SCT025 BKN070 26/25 Q1011 NOSIG RMK A2988








Description
Kaohsiung International Airport, also known as Kaohsiung Siaogang Airport for the Siaogang District where it is located, is a medium-sized commercial airport located in Kaohsiung City, Taiwan.
Climatology
Tropical Savanna climate (Köppen climate classification Aw) - monthly mean temperature above 18°C in every month of the year and a pronounced dry season.






Runways






Designator
Length
Width
Surface
Rops




9/27          
3150          
60          
CON          
Yes/Yes          













Airport map






Aerial View