OPNH








Nawabshah Airport





Airport

ICAO code


  OPNH





IATA Code

WNS




Summary

ICAO Region

APAC



ICAO Territory





Pakistan






 








Location

Nawabshah, Sindh




Serving

Nawabshah



Elevation

95 ft



Coordinates



    26°
    13'
          34"
        N
  
      ,
    
    68°
    23'
          21"
        E
  




KCC

BWh




Metar
OPNH 060600Z 09008KT 6000 NSC 33/27 Q1003








Airport 3 km southwest of Nawabshah in Sindh province Pakistan.
Climatology
Mild Desert Climate (Köppen climate classification BWh).
Arid climate with low average precipitation levels, the bulk of which occurs during the July-August monsoon season. Winters are mild & dry, while the summers are hot & humid.






Runways






Designator
Length
Width
Surface
Rops




2/20          
2743          
46          
CON          
Yes/Yes          













Airport map






Aerial View