SARF








Formosa International Airport





Airport

ICAO code


  SARF





IATA Code

FMA




Summary

ICAO Region

CARSAM



ICAO Territory





Argentina






 








Location

Formosa, Formosa




Serving

Formosa



Elevation

193 ft



Coordinates



    26°
    12'
          46"
        S
  
      ,
    
    58°
    13'
          41"
        W
  




KCC

Cfa




Metar
SARF 071300Z 11007KT 3000 DU FU NSC 22/16 Q1012








Airport 5nm south of the city of Formosa, Argentina.
Climatology
Humid Subtropical climate (Köppen climate classification Cfa).






Runways






Designator
Length
Width
Surface
Rops




4/22          
1800          
40          
ASP          
No/No          













Airport map






Aerial View