VYMD








Mandalay International Airport





Airport

ICAO code


  VYMD





IATA Code

MDL




Summary

ICAO Region

APAC



ICAO Territory





Myanmar






 








Location

Tada-U, Mandalay Region




Serving

Mandalay



Elevation

299 ft



Coordinates



    21°
    56'
          27"
        N
  
      ,
    
    96°
    5'
          24"
        E
  




KCC

Aw




Metar
VYMD 071130Z 00000KT 6000 SCT025 SCT120 31/24 Q1001 NOSIG








Mandalay International Airport, located 35 km south of Mandalay in Tada-U, Myanmar.
Climatology
Tropical Savanna climate (Köppen climate classification Aw)














Airport map






Aerial View