FZRF








Kalemie Airport





Airport

ICAO code


  FZRF





IATA Code

FMI




Summary

ICAO Region

AFI



ICAO Territory





Democratic Republic of the Congo






 








Location

, Katanga




Serving

Kalemie



Elevation

2569 ft



Coordinates



    5°
    52'
          32"
        S
  
      ,
    
    29°
    15'
          0"
        E
  





Metar
FZRF 060700Z 12015G20KT 9000 NSC 19/10 Q1023 NOSIG









Runways






Designator
Length
Width
Surface
Rops




6/24          
1750          
27          
ASP          
No/No          













Airport map






Aerial View