LSZL








Locarno Airport





Airport

ICAO code


  LSZL





IATA Code

ZJI




Summary

ICAO Region

EUR



ICAO Territory





Switzerland






 








Location

Gordola, Ticino




Serving

Locarno



Elevation

650 ft



Coordinates



    46°
    9'
          39"
        N
  
      ,
    
    8°
    52'
          43"
        E
  





Metar
LSZL 071350Z AUTO VRB02KT 9999NDV NCD 24/18 Q1017 RMK








Locarno Airport, also known as Locarno-Magadino Airport, is a mixed civilian and military airport (mil ICAO code LSMO), located near the city of Locarno, Ticino, Switzerland.
Climatology
Temperate oceanic climate (Köppen climate classification Cfb)






Runways






Designator
Length
Width
Surface
Rops




08C/26C          
700          
30          
Grass          
No/No          


08L/26R          
800          
23          
ASPH          
No/No          













Airport map






Aerial View