YPKG








Kalgoorlie-Boulder Airport





Airport

ICAO code


  YPKG





IATA Code

KGI




Summary

ICAO Region

APAC



ICAO Territory





Australia






 








Location

Kalgoorlie, Western Australia




Serving

Kalgoorlie



Elevation

1203 ft



Coordinates



    30°
    47'
          5"
        S
  
      ,
    
    121°
    27'
          36"
        E
  




KCC

BSh




Metar
YPKG 071400Z AUTO 23008KT 9999 // NCD 13/02 Q1028 RF00.0/000.0








Airport located 7 km from the center of Kalgoorlie, Western Australia.
Climatology
Hot, semi-arid/Steppe climate (Köppen climate classification BSh) - hot, sometimes extremely hot summers and mild to warm winters, with low annual precipitation.














Airport map






Aerial View








Airport accidents



B712, vicinity Kalgoorlie Western Australia, 2010