VECC








Kolkata/Netaji Subhas Chandra Bose International Airport





Airport

ICAO code


  VECC





IATA Code

CCU




Summary

ICAO Region

APAC



ICAO Territory





India






 








Location

Dum Dum, West Bengal




Serving

Kolkata



Elevation

16 ft



Coordinates



    22°
    38'
          58"
        N
  
      ,
    
    88°
    26'
          23"
        E
  




KCC

Am




Metar
VECC 071330Z 00000KT 2800 -TSRA SCT018 FEW030CB BKN090 27/26 Q1002 TEMPO TL1400 1500 TSRA








Netaji Subhas Chandra Bose International Airport is a public airport located 17 km north of the central business district of Kolkata (Calcutta), a city in West Bengal, India,.
Climatology
Tropical Monsoon climate (Köppen climate classification Am) - monthly mean temperatures above 18°C in every month of the year and features wet and dry seasons. A tropical monsoon climate typically features less pronounced dry seasons than a tropical savanna climate and sees less variance in temperatures during the course of the year. The driest month nearly always occurs at or soon after the "winter" solstice.














Airport map






Aerial View