CYMM








Fort McMurray International Airport





Airport

ICAO code


  CYMM





IATA Code

YMM




Summary

ICAO Region

NAM



ICAO Territory





Canada






 








Location

Fort McMurray, Alberta




Serving

Regional Municipality of Wood Buffalo



Elevation

1211 ft



Coordinates



    56°
    38'
          57"
        N
  
      ,
    
    111°
    13'
          48"
        W
  





Metar
CYMM 071500Z AUTO 12003KT 3SM HZ OVC220 14/10 A2990 RMK SLP136








Fort McMurray International Airport is located 13 km southeast of Fort McMurray, Alberta, Canada.






Runways






Designator
Length
Width
Surface
Rops




7/25          
2287          
46          
ASP          
Yes/Yes          













Airport map






Aerial View








Airport accidents



B733 / DH8D, Fort McMurray Canada, 2014