OIII








Mehrabad Airport





Airport

ICAO code


  OIII





IATA Code

THR




Summary

ICAO Region

MID



ICAO Territory





Iran






 








Location

Mehr Abad, Tehran




Serving

Tehran



Elevation

3962 ft



Coordinates



    35°
    41'
          21"
        N
  
      ,
    
    51°
    18'
          49"
        E
  




KCC

BSk



Airport RE

Hot and High Operations




Metar
OIII 071500Z 17006KT CAVOK 30/03 Q1016 A3001 NOSIG








Domestic airport serving Tehran, the capital of Iran.
Climatology
Cold Semi-arid climate (Köppen climate classification BSk).






Runways






Designator
Length
Width
Surface
Rops




9/27          
474          
40          
CON          
No/No          


11L/29R          
3992          
45          
ASP          
Yes/Yes          


11R/29L          
4038          
60          
ASP          
Yes/Yes          













Airport map






Aerial View








Airport accidents



A320, Tehran Mehrabad Iran, 2016
B743, vicinity Tehran Mehrabad Iran, 2015