MMAN








Del Norte International Airport





Airport

ICAO code


  MMAN





IATA Code

NTR




Summary

ICAO Region

CARSAM



ICAO Territory





Mexico






 








Location

General Escobedo, Nuevo Leon




Serving

Monterrey



Elevation

1476 ft



Coordinates



    25°
    51'
          56"
        N
  
      ,
    
    100°
    14'
          14"
        W
  





Metar
MMAN 071240Z 34007KT 8SM SCT030 24/20 A3005 RMK 8/500 ISOL AC









Runways






Designator
Length
Width
Surface
Rops




11/29          
1539          
45          
ASP          
Yes/Yes          


2/20          
2011          
45          
ASP          
Yes/Yes          













Airport map






Aerial View