OISS








Shiraz International Airport





Airport

ICAO code


  OISS





IATA Code

SYZ




Summary

ICAO Region

MID



ICAO Territory





Iran






 








Location

Shiraz, Fars Province




Serving

Shiraz



Elevation

4920 ft



Coordinates



    29°
    32'
          21"
        N
  
      ,
    
    52°
    35'
          24"
        E
  




KCC

BSk




Metar
OISS 071400Z 22012KT 9999 SCT040 34/05 Q1013 A2993








Shiraz International Airport is located in Shiraz, Iran. It is the main international airport of Fars province.
Climatology
Cold Semi-arid climate (Köppen climate classification BSk). - Hot, sometimes extremely hot summers and cold, sometimes very cold winters. Some snowfall during the winter. Areas featuring cold semi-arid climates are sometimes subject to major temperature swings during a 24 hour period.






Runways






Designator
Length
Width
Surface
Rops




11R/29L          
4283          
45          
ASP          
Yes/Yes          


11L/29R          
4372          
45          
ASP          
Yes/Yes          













Airport map






Aerial View