TTCP








Arthur Napoleon Raymond Robinson International Airport





Airport

ICAO code


  TTCP





IATA Code

TAB




Summary

ICAO Region

CARSAM



ICAO Territory





Trinidad and Tobago






 








Location

Canaan, Tobago




Serving

Scarborough



Elevation

38 ft



Coordinates



    11°
    9'
          9"
        N
  
      ,
    
    60°
    50'
          24"
        W
  




KCC

Aw




Metar
TTCP 071300Z 18003KT 9999 VCSH FEW018 31/26 Q1011 NOSIG RMK VCSH TO N/ NE/ E








A. N. R. Robinson International Airport (formerly Crown Point International Airport) is an international airport located on the island of Tobago in Trinidad and Tobago. It is located in the southwestern most part of the island, near the town of Canaan.
Climatology
Tropical savannah climate (Köppen climate classification Aw)






Runways






Designator
Length
Width
Surface
Rops




11/29          
2744          
48          
ASP          
Yes/Yes          













Airport map






Aerial View