KPDK








DeKalb-Peachtree





Airport

ICAO code


  KPDK





IATA Code

PDK




Summary

ICAO Region

NAM



ICAO Territory





United States






 








Location

Chamblee, Georgia




Serving

Atlanta



Elevation

1003 ft



Coordinates



    33°
    52'
          32"
        N
  
      ,
    
    84°
    18'
          7"
        W
  




KCC

Cfa



Airport LOS

Parallel Runway Operation




Metar
KPDK 071253Z 25004KT 10SM CLR 21/19 A2994 RMK AO2 SLP126 T02060189








Description
DeKalb-Peachtree Airport is a municipal general aviation airport located in Chamblee, Georgia, just northeast of Atlanta.






Runways






Designator
Length
Width
Surface
Rops




9/27          
1031          
46          
ASP          
Yes/Yes          


02L/20R          
1142          
46          
ASP          
Yes/Yes          


16/34          
1209          
46          
ASP          
Yes/Yes          


02R/20L          
1829          
30          
CON          
Yes/Yes          













Airport map






Aerial View