EGMC








London Southend Airport





Airport

ICAO code


  EGMC





IATA Code

SEN




Summary

ICAO Region

EUR



ICAO Territory





United Kingdom






 








Location

Rochford, Essex, England




Serving

Southend



Elevation

49 ft



Coordinates



    51°
    34'
          21"
        N
  
      ,
    
    0°
    41'
          53"
        E
  




KCC

Cfb




Metar
EGMC 071250Z VRB03KT CAVOK 21/12 Q1009








Description
London Southend Airport or Southend Airport is a regional airport in the District of Rochford within Essex, England.
Climatology
Temperate Marine climate/Oceanic climate (Köppen climate classification Cfb). Moderately cool summer and comparatively warm winter with a temperature range of only 14°C. Prevailing south-westerly winds from the Atlantic Ocean.






Runways






Designator
Length
Width
Surface
Rops




6/24          
1531          
37          
ASP          
Yes/Yes          













Airport map






Aerial View








Airport accidents



ULAC / A319 vicinity Southend UK, 2013
B737, Southend UK, 2010