LTAJ








Gaziantep/Oğuzeli International Airport





Airport

ICAO code


  LTAJ





IATA Code

GZT




Summary

ICAO Region

EUR



ICAO Territory





Turkey






 








Location

Gaziantep,




Serving

Gaziantep



Elevation

2316 ft



Coordinates



    36°
    56'
          56"
        N
  
      ,
    
    37°
    28'
          31"
        E
  





Metar
LTAJ 071220Z 34013KT 300V020 9999 -TSRA FEW025CB BKN035 26/17 Q1009 NOSIG









Runways






Designator
Length
Width
Surface
Rops




10L/28R          
3000          
48          
CON          
Yes/Yes          


10R/28L          
3000          
30          
CON          
Yes/Yes          













Airport map






Aerial View