KTYS








McGhee Tyson Airport





Airport

ICAO code


  KTYS





IATA Code

TYS




Summary

ICAO Region

NAM



ICAO Territory





United States






 








Location

Alcoa, Tennessee




Serving

Knoxville



Elevation

986 ft



Coordinates



    35°
    48'
          39"
        N
  
      ,
    
    83°
    59'
          38"
        W
  




KCC

Cfa



Airport LOS

Parallel Runway Operation



Airport WX

Cumulonimbus




Metar
KTYS 071353Z 36008KT 10SM OVC045 19/13 A3001 RMK AO2 SLP153 T01890133








McGhee Tyson Airport is a public and military (ANG) use airport located 12 nm south of the central business district of Knoxville, in Blount County, Tennessee, USA.






Runways






Designator
Length
Width
Surface
Rops




05R/23L          
2743          
46          
ASP          
Yes/Yes          


05L/23R          
2746          
46          
CON          
Yes/Yes          













Airport map






Aerial View