OJAI








Amman/Queen Alia International





Airport

ICAO code


  OJAI






Summary

ICAO Region

MID



ICAO Territory





Jordan






 








Location

Amman/Queen International, Jordan,




Coordinates



    31°
    43'
          21"
        N
  
      ,
    
    35°
    59'
          36"
        E
  




KCC

Csa




Metar
OJAI 071300Z 27010KT 5000 HZ NSC 32/10 Q1013 NOSIG








Description
Principal international airport serving Amman.
Climatology
Dry-summer subtropical ”Mediterranean" climate (Köppen climate classification Csa) - characterized by hot, dry summers and mild winters. During the summer, subtropical high pressure cells dominate, making rainfall unlikely except for the occasional thunderstorm. In the winter, periodic storms bring rain.






Runways






Designator
Length
Width
Surface
Rops




08L/26R          
3660          
61          
ASP          
Yes/Yes          


08R/26L          
3660          
61          
CON          
Yes/Yes          













Airport map






Aerial View