KHOB








Lea County Regional Airport





Airport

ICAO code


  KHOB





IATA Code

HOB




Summary

ICAO Region

NAM



ICAO Territory





United States






 








Location

Hobbs, New Mexico




Serving

Hobbs



Elevation

3661 ft



Coordinates



    32°
    41'
          15"
        N
  
      ,
    
    103°
    13'
          1"
        W
  




KCC

BSk



Airport WX

Cumulonimbus




Metar
KHOB 071350Z 08009KT 10SM CLR 20/15 A3031








Lea County Regional Airport, also known as Lea County-Hobbs Airport, is a public airport located 4 nm west of the central business district of Hobbs, a city in Lea County, New Mexico, USA.














Airport map






Aerial View