EGOW








RAF Woodvale





Airport

ICAO code


  EGOW






Summary

ICAO Region

EUR



ICAO Territory





United Kingdom






 








Location

, England




Serving

Woodvale



Elevation

37 ft



Coordinates



    53°
    34'
          54"
        N
  
      ,
    
    3°
    3'
          20"
        W
  





Metar
EGOW 061450Z 05011KT CAVOK 26/16 Q1011 RMK BLU









Runways






Designator
Length
Width
Surface
Rops




16/34          
1003          
45          
 
No/No          


8/26          
1068          
45          
ASP          
No/No          


3/21          
1647          
46          
ASP          
No/No          













Airport map






Aerial View