PAOT








Kotzebue/Ralph Wien Memorial Airport





Airport

ICAO code


  PAOT






Summary

ICAO Region

NAM



ICAO Territory





Alaska






 








Location

Kotzebue,




Serving

Kotzebue



Coordinates



    66°
    53'
          21"
        N
  
      ,
    
    162°
    36'
          19"
        W
  




KCC

Dfc



Airport BS

Bird Strike
Non Avian Wildlife Hazards to Aircraft



Airport CFIT

Altimeter Temperature Error Correction




Metar
PAOT 071253Z AUTO 28005KT 10SM OVC015 03/01 A2984 RMK AO2 SLP104 T00330011 TSNO








Description
Regional airport serving Kotzebue, Alaska.
Climatology
Subarctic climate (Köppen climate classification Dfc) - long, usually very cold winters, and short, cool to mild summers.






Runways






Designator
Length
Width
Surface
Rops




17/35          
1158          
27          
GVL          
Yes/Yes          


9/27          
1798          
46          
ASPH-G          
Yes/Yes          













Airport map






Aerial View