ESOE








Örebro





Airport

ICAO code


  ESOE






Summary

ICAO Region

EUR



ICAO Territory





Sweden






 








Location

Örebro,




Elevation

188 ft



Coordinates



    59°
    13'
          25"
        N
  
      ,
    
    15°
    2'
          17"
        E
  




KCC

Cfb




Metar
ESOE 071220Z 05005KT 010V100 CAVOK 21/15 Q1022








Description
Örebro Airport is located 10 km southwest of Örebro, Sweden.
Climatology
Temperate Marine climate/Oceanic climate (Köppen climate classification Cfb). Moderately cool summer and comparatively warm winter.






Runways






Designator
Length
Width
Surface
Rops




1/19          
2601          
45          
ASP          
Yes/Yes          













Airport map






Aerial View