FCPP








Pointe-Noire/Antonio Agostinho Neto International Airport





Airport

ICAO code


  FCPP





IATA Code

PNR




Summary

ICAO Region

AFI



ICAO Territory





Republic of the Congo






 








Location

Pointe-Noire, Pointe-Noire




Serving

Pointe-Noire



Elevation

55 ft



Coordinates



    4°
    48'
          53"
        S
  
      ,
    
    11°
    53'
          10"
        E
  





Metar
FCPP 071400Z 20010KT 160V220 8000 SCT013 BKN026 26/21 Q1012 NOSIG








Antonio Agostinho Neto International Airport, is an airport located in Pointe-Noire, Republic of the Congo. It is one of two international airports in the country, the other being Brazzaville Maya-Maya Airport.






Runways






Designator
Length
Width
Surface
Rops




17/35          
2600          
45          
ASP          
No/No          













Airport map






Aerial View