ENKB








Kristiansund/Kvernberget





Airport

ICAO code


  ENKB






Summary

ICAO Region

EUR



ICAO Territory





Norway






 








Location

Kristiansund, Norway,




Elevation

204 ft



Coordinates



    63°
    6'
          42"
        N
  
      ,
    
    7°
    49'
          28"
        E
  




KCC

Cfb




Metar
ENKB 071350Z 01006KT CAVOK 23/13 Q1018 RMK WIND 745FT 03007KT








Description
Airport serving the communities around Kristiansand, Norway.
Climatology
Temperate Marine climate/Oceanic climate (Köppen climate classification Cfb). Moderately cool summer and comparatively warm winter with a temperature range of only 14°C. Prevailing south-westerly winds from the Atlantic Ocean.






Runways






Designator
Length
Width
Surface
Rops




7/25          
1840          
45          
ASP          
Yes/Yes          













Airport map






Aerial View