WMKL








Langkawi International Airport





Airport

ICAO code


  WMKL





IATA Code

LGK




Summary

ICAO Region

APAC



ICAO Territory





Malaysia






 








Location

Padang Matsirat, Kedah




Serving

Langkawi



Elevation

16 ft



Coordinates



    6°
    20'
          33"
        N
  
      ,
    
    99°
    43'
          54"
        E
  




KCC

Af




Metar
WMKL 071100Z 07004KT 020V110 9999 -RA FEW010 SCT025 26/24 Q1009








Langkawi International Airport, is an airport situated on the island of Langkawi in the state of Kedah, Malaysia.
 














Airport map






Aerial View