LTCV








Şırnak Şerafettin Elçi Airport





Airport

ICAO code


  LTCV





IATA Code

NKT




Summary

ICAO Region

EUR



ICAO Territory





Turkey






 








Location

Cizre,




Serving

Sirnak



Coordinates



    37°
    21'
          50"
        N
  
      ,
    
    42°
    3'
          36"
        E
  





Metar
LTCV 071150Z 19009KT CAVOK 37/08 Q1008

















Airport map






Aerial View