OICI








Ilam Airport





Airport

ICAO code


  OICI





IATA Code

IIL




Summary

ICAO Region

MID



ICAO Territory





Iran






 








Location

Ilam, Ilam Province




Serving

Ilam



Elevation

4404 ft



Coordinates



    33°
    35'
          11"
        N
  
      ,
    
    46°
    23'
          58"
        E
  




KCC

BWh




Metar
OICI 071400Z 25010KT CAVOK 33/01 Q1015 A3000








Domestic airport 6km south of the centre of Ilam, Iran.
Climatology
Warm Desert climate (Köppen climate classification BWh).






Runways






Designator
Length
Width
Surface
Rops




14/32          
2799          
45          
ASP          
No/No          













Airport map






Aerial View