EGSS








London Stansted Airport





Airport

ICAO code


  EGSS





IATA Code

STN




Summary

ICAO Region

EUR



ICAO Territory





United Kingdom






 








Location

Stansted, England, United Kingdom, Essex




Serving

London



Elevation

348 ft



Coordinates



    51°
    53'
          22"
        N
  
      ,
    
    0°
    15'
          41"
        E
  




KCC

Cfb




Metar
EGSS 071150Z AUTO 20005KT 9999 NCD 20/13 Q1010








London Stansted Airport is an international airport located at Stansted Mountfitchet in the district of Uttlesford in Essex, 42nm northeast of Central London.
Climatology
Temperate Marine climate/Oceanic climate (Köppen climate classification Cfb).






Runways






Designator
Length
Width
Surface
Rops




5/23          
3048          
46          
ASP          
Yes/Yes          













Airport map






Aerial View








Airport accidents



CL60, London Stansted UK, 2022
A320, London Stansted UK, 2019
A320 / SF34, vicinity London Stansted UK, 2019
B742, vicinity Stansted UK, 1999
AT43, vicinity Stansted UK, 2007
L188, vicinity Stansted UK, 2007
B738, London Stansted UK, 2008