MMZO








Playa De Oro International Airport





Airport

ICAO code


  MMZO





IATA Code

ZLO




Summary

ICAO Region

CARSAM



ICAO Territory





Mexico






 








Location

Manzanillo, Colima, Mexico, Colima




Serving

Manzanillo



Elevation

30 ft



Coordinates



    19°
    8'
          41"
        N
  
      ,
    
    104°
    33'
          31"
        W
  




KCC

Aw



Airport BS

Bird Strike




Metar
MMZO 062242Z 26009KT 12SM BKN025 BKN090 BKN200 33/27 A2970 RMK 8/581 HZY DSTN CB N NE








Playa de Oro International Airport is approximately 20 nm west north west of Manzanillo, Mexico. It services the city and the surrounding tourist destinations.
Climatology
Tropical Savanna climate (Köppen climate classification Aw)






Runways






Designator
Length
Width
Surface
Rops




10/28          
2200          
45          
ASP          
Yes/Yes          













Airport map






Aerial View