MMCP








Ingeniero Alberto Acuña Ongay International Airport





Airport

ICAO code


  MMCP





IATA Code

CPE




Summary

ICAO Region

CARSAM



ICAO Territory





Mexico






 








Location

Campeche, Campeche




Serving

Campeche



Elevation

34 ft



Coordinates



    19°
    49'
          12"
        N
  
      ,
    
    90°
    30'
          4"
        W
  




KCC

Aw




Metar
MMCP 071240Z 12005KT 7SM SCT010 BKN015 BKN300 26/25 A2972 RMK 8/601








Ing. Alberto Acuña Ongay International Airport, also known as Campeche International Airport, is an international airport located in Campeche, Campeche, Mexico. It handles national and international air traffic of the city of Campeche.
Climatology
Tropical Savannah Climate (Köppen climate classification Aw)






Runways






Designator
Length
Width
Surface
Rops




16/34          
2500          
45          
ASP          
No/No          













Airport map






Aerial View