EGXC








RAF Coningsby





Airport

ICAO code


  EGXC





IATA Code

QCY




Summary

ICAO Region

EUR



ICAO Territory





United Kingdom






 








Location

Coningsby, Lincolnshire, England




Serving

Coningsby



Elevation

25 ft



Coordinates



    53°
    5'
          35"
        N
  
      ,
    
    0°
    9'
          58"
        W
  





Metar
EGXC 071428Z 07006KT 8000 HZ SCT011 BKN017 20/18 Q1009 RMK GRN








Royal Air Force Coningsby, is a Royal Air Force station located 13.7 km south west of Horncastle, and 15.8 km north west of Boston, Lincolnshire, England.






Runways






Designator
Length
Width
Surface
Rops




7/25          
2744          
61          
CON          
No/No          













Airport map






Aerial View