OIZI








Iramshahr Airport





Airport

ICAO code


  OIZI





IATA Code

IHR




Summary

ICAO Region

MID



ICAO Territory





Iran






 








Location

Sarzeh, Sistan and Baluchistan Province




Serving

Iramshahr



Elevation

2040 ft



Coordinates



    27°
    13'
          43"
        N
  
      ,
    
    60°
    43'
          6"
        E
  




KCC

BWh




Metar
OIZI 071400Z 24006KT 9999 FEW040 41/06 Q1004








Airport serving Iranshahr, Iran.
Climatology
Hot Desert climate (Köppen climate classification BWh).






Runways






Designator
Length
Width
Surface
Rops




17/35          
2350          
46          
ASP          
No/No          













Airport map






Aerial View