EGJB








Guernsey Airport





Airport

ICAO code


  EGJB





IATA Code

GCI




Summary

ICAO Region

EUR



ICAO Territory





United Kingdom






 








Location

Forest, Guernsey




Serving

St. Peter Port



Elevation

336 ft



Coordinates



    49°
    26'
          3"
        N
  
      ,
    
    2°
    36'
          3"
        W
  




KCC

Cfb




Metar
EGJB 071420Z 11007KT 9999 VCSH FEW004 18/17 Q1007








Description
Guernsey Airport is the only one on the Channel Island of Guernsey, a self-governing British Crown Dependency. It is located 2.5 nm west south west of St. Peter Port, the Island's main town.
Climatology
Temperate Marine climate/Oceanic climate (Köppen climate classification Cfb) - Moderately cool summer and comparatively warm winter.






Runways






Designator
Length
Width
Surface
Rops




9/27          
1463          
45          
ASP          
Yes/Yes          













Airport map






Aerial View








Airport accidents



AT43, Jersey Channel Islands, 2012
F27, vicinity Guernsey Channel Islands, 1999