SKAR








El Eden International Airport





Airport

ICAO code


  SKAR





IATA Code

AXM




Summary

ICAO Region

CARSAM



ICAO Territory





Colombia






 








Location

La Tebaida, Quindio Department




Serving

Armenia



Elevation

3990 ft



Coordinates



    4°
    27'
          10"
        N
  
      ,
    
    75°
    45'
          59"
        W
  




KCC

Cfb




Metar
SKAR 071200Z 00000KT 9999 SCT025 BKN120 19/17 Q1016








El Edén International Airport is an international airport serving Armenia, the capital of the Quindío Department of Colombia. The airport is 13km southwest of Armenia, near the town of La Tebaida.
Climatology
Oceanic climate (Köppen climate classification Cfb)






Runways






Designator
Length
Width
Surface
Rops




2/20          
2147          
36          
ASP          
No/No          













Airport map






Aerial View