MDST








Cibao International Airport





Airport

ICAO code


  MDST





IATA Code

STI




Summary

ICAO Region

CARSAM



ICAO Territory





Dominican Republic






 








Location

Santiago de los Caballeros, Dominican Republic




Serving

Santiago de los Caballeros



Elevation

565 ft



Coordinates



    19°
    24'
          8"
        N
  
      ,
    
    70°
    36'
          7"
        W
  




KCC

Aw



Airport WX

Tropical Revolving Storm




Metar
MDST 071300Z VRB03KT 090V180 9999 FEW012CB FEW014 SCT300 26/23 Q1014 CB/NE/E/N








Cibao International Airport, also known as Santiago Airport, is located in Santiago de los Caballeros, Dominican Republic's second-largest city
Climatology
Tropical savannah climate (Köppen climate classification Aw)






Runways






Designator
Length
Width
Surface
Rops




11/29          
2620          
45          
ASP          
Yes/Yes          













Airport map






Aerial View