PANC








Anchorage





Airport

ICAO code


  PANC






Summary

ICAO Region

NAM



ICAO Territory





Alaska






 








Location

Anchorage, Alaska,




Coordinates



    61°
    10'
          51"
        N
  
      ,
    
    150°
    0'
          16"
        W
  




KCC

Dfc



Airport CFIT

Altimeter Temperature Error Correction



Airport RI

Runway Misidentification



Airport WX

Volcanic Ash




Metar
PANC 071453Z 17004KT 10SM BKN021 BKN120 09/07 A2992 RMK AO2 SLP133 T00890072 53015








Description
International airport serving Anchorage.
Climatology
Cool continental climate/Subarctic climate (Köppen climate classification Dfc)






Runways






Designator
Length
Width
Surface
Rops




07L/25R          
3231          
46          
ASP          
Yes/Yes          


07R/25L          
3322          
46          
ASP          
Yes/Yes          


14/32          
3531          
46          
ASP          
Yes/Yes          













Airport map






Aerial View








Airport accidents



MD82 / MD11, Anchorage AK USA, 2002
A343, Anchorage AK USA, 2002