VTSG








Krabi Airport





Airport

ICAO code


  VTSG






Summary

ICAO Region

APAC



ICAO Territory





Thailand






 








Location

Krabi, Thailand,




Coordinates



    8°
    5'
          49"
        N
  
      ,
    
    98°
    58'
          42"
        E
  




KCC

Am



Airport WX

Cumulonimbus




Metar
VTSG 071100Z 23003KT 190V280 9999 FEW018 27/25 Q1009 NOSIG








Description
Airport serving Krabi, Thailand.
Climatology
Tropical Monsoon climate (Köppen climate classification Am) - monthly mean temperatures above 18°C in every month of the year and features wet and dry seasons. A tropical monsoon climate typically features less pronounced dry seasons than a tropical savanna climate and see less variance in temperatures during the course of the year. The driest month nearly always occurs at or soon after the "winter" solstice.














Airport map






Aerial View