LEGA








Armilla Airport





Airport

ICAO code


  LEGA






Summary

ICAO Region

EUR



ICAO Territory





Spain






 








Location

, Andalucia




Serving

Granada



Elevation

2297 ft



Coordinates



    37°
    7'
          60"
        N
  
      ,
    
    3°
    38'
          8"
        W
  





Metar
LEGA 061230Z 27008KT 180V320 CAVOK 31/01 Q1009









Runways






Designator
Length
Width
Surface
Rops




18/36          
1300          
30          
ASP          
No/No          













Airport map






Aerial View