YGLA








Gladstone Airport





Airport

ICAO code


  YGLA





IATA Code

GLT




Summary

ICAO Region

APAC



ICAO Territory





Australia






 








Location

, Queensland




Serving

Gladstone



Elevation

64 ft



Coordinates



    23°
    52'
          11"
        S
  
      ,
    
    151°
    13'
          23"
        E
  





Metar
YGLA 071400Z AUTO 21004KT 9999 // NCD 17/15 Q1023 RF00.0/000.0

















Airport map






Aerial View