VAUD








Maharana Pratap Airport





Airport

ICAO code


  VAUD






Summary

ICAO Region

APAC



ICAO Territory





India






 








Location

Udaipur, Rajasthan,




Coordinates



    24°
    37'
          12"
        N
  
      ,
    
    73°
    53'
          26"
        E
  




KCC

BSh



Airport WX

Cumulonimbus




Metar
VAUD 071330Z 26003KT 3000 BR SCT020 BKN080 25/24 Q1007 NOSIG








Description
Maharana Pratap Airport, also known as Udaipur Airport or Dabok Airport, is a public airport located 22 km east of Udaipur, a city in the state of Rajasthan, India.
Climatology
Hot, semi-arid climate (Köppen climate classification BSh) - hot, sometimes extremely hot summers and mild to warm winters, with low annual precipitation, the bulk of which falls during the monsoon season between June and September.






Runways






Designator
Length
Width
Surface
Rops




8/26          
2281          
46          
ASP          
Yes/Yes          













Airport map






Aerial View