SOCA








Cayenne - Félix Eboué Airport





Airport

ICAO code


  SOCA





IATA Code

CAY




Summary

ICAO Region

CARSAM



ICAO Territory





French Guiana






 








Location

Matoury, Cayenne




Serving

Cayenne



Elevation

24 ft



Coordinates



    4°
    49'
          11"
        N
  
      ,
    
    52°
    21'
          43"
        W
  




KCC

Af




Metar
SOCA 071400Z AUTO 10009KT 070V130 9999 FEW034 32/23 Q1012 TEMPO SCT025TCU








Cayenne - Rochambeau Airport is French Guiana's main international airport. It is located in the commune of Matoury, 13 km southwest of French Guiana's capital city of Cayenne. Air Guyane Express has its head office on the airport property.
Climatology
Tropical rainforest climate (Köppen climate classification Af)






Runways






Designator
Length
Width
Surface
Rops




8/26          
3196          
45          
ASP          
Yes/Yes          













Airport map






Aerial View








Airport accidents



A359, vicinity Cayenne French Guiana, 2021