DATM








Bordj Badji Mokhtar Airport





Airport

ICAO code


  DATM





IATA Code

BMW




Summary

ICAO Region

AFI



ICAO Territory





Algeria






 








Location

, Adrar




Serving

Bordj Badji Mokhtar



Elevation

1303 ft



Coordinates



    21°
    22'
          30"
        N
  
      ,
    
    0°
    55'
          26"
        E
  





Metar
DATM 071100Z 14004KT 090V200 CAVOK 34/21 Q1016









Runways






Designator
Length
Width
Surface
Rops




8/26          
2247          
0          
UNK          
No/No          













Airport map






Aerial View