UUBW








Zhukovsky/Ramenskoye Airport





Airport

ICAO code


  UUBW





IATA Code

ZIA




Summary

ICAO Region

EUR



ICAO Territory





Russian Federation






 








Location

Ramenskoye,




Serving

Zhukovsky



Elevation

377 ft



Coordinates



    55°
    35'
          20"
        N
  
      ,
    
    38°
    9'
          14"
        E
  





Metar
UUBW 071230Z 22002MPS 190V260 CAVOK 25/08 Q1030 R30/010060 NOSIG RMK QFE762

















Airport map






Aerial View