LGAV








Athens/Eleftherios Venizelos International Airport





Airport

ICAO code


  LGAV





IATA Code

ATH




Summary

ICAO Region

EUR



ICAO Territory





Greece






 








Location

Spata, Attica




Serving

Athens



Elevation

308 ft



Coordinates



    37°
    56'
          13"
        N
  
      ,
    
    23°
    56'
          43"
        E
  




KCC

Csa




Metar
LGAV 071250Z 05013G23KT 020V080 9999 FEW030 31/18 Q1014 NOSIG








International airport serving the Greek capital Athens. It is located 20 km east of Athens, in Spata.
Climatology
Mediterranean climate (Köppen climate classification Csa) - Hot, dry summer and a mild wet winter.






Runways






Designator
Length
Width
Surface
Rops




03L/21R          
3800          
45          
ASP          
Yes/Yes          


03R/21L          
4000          
45          
ASP          
Yes/Yes          













Airport map






Aerial View