KMCO








Orlando International





Airport

ICAO code


  KMCO






Summary

ICAO Region

NAM



ICAO Territory





United States






 








Location

Orlando, Florida,




Coordinates



    28°
    25'
          53"
        N
  
      ,
    
    81°
    18'
          30"
        W
  




KCC

Cfa



Airport WX

Lightning




Metar
KMCO 071353Z 19007KT 10SM FEW010 SCT150 BKN250 28/26 A2988








Description
International airport 6 nm south east of Orlando, Florida, USA.
Climatology
Humid “subtropical” climate (Köppen climate classification Cfa) - characterized by hot, humid summers and cool winters. From October to March the temperatures are more moderate and rain less frequent. Most summer rainfall occurs during thunderstorms and occasional tropical storms (hurricanes).






Runways






Designator
Length
Width
Surface
Rops




17L/35R          
2743          
46          
ASP          
Yes/Yes          


17R/35L          
3048          
46          
CON          
Yes/Yes          


18L/36R          
3659          
61          
PEM          
Yes/Yes          


18R/36L          
3659          
61          
CON          
Yes/Yes          













Airport map






Aerial View








Airport accidents



A333, vicinity Orlando FL USA, 2013