VAAU








Aurangabad Airport





Airport

ICAO code


  VAAU






Summary

ICAO Region

APAC



ICAO Territory





India






 








Location

Aurangabad, Maharashtra,




Coordinates



    19°
    51'
          59"
        N
  
      ,
    
    75°
    23'
          51"
        E
  




KCC

BSh



Airport BS

Bird Strike




Metar
VAAU 071400Z 27002KT 5000 HZ SCT020 BKN100 24/24 Q1010 NOSIG








Description
Aurangabad Airport, also known as Chikkalthana Airport, is a public airport located 4 km east of the city centre of Aurangabad, in the state of Maharashtra, India.
Climatology
Hot, semi-arid climate (Köppen climate classification BSh) - hot, sometimes extremely hot summers and mild to warm winters, with low annual precipitation, most of which occurs during the monsoon season (Jul-Sep).






Runways






Designator
Length
Width
Surface
Rops




9/27          
2351          
45          
PEM          
Yes/Yes          













Airport map






Aerial View