MDBH








Maria Montez International Airport





Airport

ICAO code


  MDBH





IATA Code

BRX




Summary

ICAO Region

CARSAM



ICAO Territory





Dominican Republic






 








Location

Barahona, Dominican Republic




Serving

Barahona



Elevation

10 ft



Coordinates



    18°
    14'
          57"
        N
  
      ,
    
    71°
    7'
          24"
        W
  




KCC

Aw



Airport WX

Tropical Revolving Storm




Metar
MDBH 071300Z 00000KT 9999 FEW020CB FEW022 30/25 Q1010 CB/SW








María Montez International Airport is an international airport located in Barahona, Dominican Republic.
Climatology
Tropical savannah climate (Köppen climate classification Aw)






Runways






Designator
Length
Width
Surface
Rops




12/30          
3000          
45          
ASP          
No/No          













Airport map






Aerial View