CYTR








CFB Trenton





Airport

ICAO code


  CYTR






Summary

ICAO Region

NAM



ICAO Territory





Canada






 








Location

Trenton, Ontario,




Coordinates



    44°
    7'
          8"
        N
  
      ,
    
    77°
    31'
          41"
        W
  




KCC

Dfa



Airport WX

Lake Effect Snow




Metar
CYTR 071400Z 31009KT 280V350 10SM SCT008 BKN023 BKN050 15/14 A2977 RMK SF3SC2SC2 DENSITY ALT 663FT SLP083








Description
Canadian Forces Base Trenton (also CFB Trenton), is a Canadian Forces base located 2.3 nm northeast of Trenton, Ontario. It is operated as an air force base by Canadian Forces Air Command (AIRCOM) and is the hub for air transport operations in Canada and abroad.
Climatology
Humid continental climate (Köppen climate classification Dfa) - characterized by four seasons: cold, windy, snowy winters, mild springs, hot, humid summers, and crisp and relatively short autumns. Precipitation reaches its lowest in January and February and peaks in summer and latter half of spring.






Runways






Designator
Length
Width
Surface
Rops




13/31          
922          
46          
ASP          
No/No          


6/24          
3048          
61          
ASP          
No/No          













Airport map






Aerial View