PAKW








Klawock Airport





Airport

ICAO code


  PAKW





IATA Code

KLW




Summary

ICAO Region

NAM



ICAO Territory





Alaska






 








Location

, Alaska




Serving

Klawock



Elevation

80 ft



Coordinates



    55°
    34'
          45"
        N
  
      ,
    
    133°
    4'
          34"
        W
  





Metar
PAKW 071218Z AUTO 00000KT 10SM BKN012 OVC037 14/13 A3004 RMK AO2 T01390128 TSNO









Runways






Designator
Length
Width
Surface
Rops




2/20          
1524          
30          
ASP          
No/No          













Airport map






Aerial View