OIHR








Arak Airport





Airport

ICAO code


  OIHR





IATA Code

AJK




Summary

ICAO Region

MID



ICAO Territory





Iran






 








Location

Mobarak Abad, Markazi




Serving

Arak



Elevation

5453 ft



Coordinates



    34°
    8'
          2"
        N
  
      ,
    
    49°
    50'
          34"
        E
  




KCC

Dsa




Metar
OIHR 071200Z 05019KT 5000 DU NSC 30/03 Q1017








Airport serving Arak, Iran.
Climatology
Continental climate (Köppen climate classification Dsa).






Runways






Designator
Length
Width
Surface
Rops




8/26          
2990          
45          
ASP          
No/No          













Airport map






Aerial View