SBCX








Campo dos Bugres Airport





Airport

ICAO code


  SBCX





IATA Code

CXJ




Summary

ICAO Region

CARSAM



ICAO Territory





Brazil






 








Location

Caxias do Sul, Grande do Sul




Serving

Caxias do Sul



Elevation

2474 ft



Coordinates



    29°
    11'
          44"
        S
  
      ,
    
    51°
    11'
          23"
        W
  




KCC

Cfb




Metar
SBCX 071105Z 03004KT 3000 TSRA SCT012 BKN080 //////CB 16/16 Q1017








Hugo Cantergiani Regional Airport, formerly called Campo dos Bugres Airport, is the airport serving Caxias do Sul, Brazil.
Climatology
Oceanic climate (Köppen climate classification Cfb)






Runways






Designator
Length
Width
Surface
Rops




15/33          
1670          
30          
ASP          
No/No          













Airport map






Aerial View