EICK








Cork Airport





Airport

ICAO code


  EICK





IATA Code

ORK




Summary

ICAO Region

EUR



ICAO Territory





Ireland






 








Location

Cork, County Cork




Serving

Cork



Elevation

502 ft



Coordinates



    51°
    50'
          29"
        N
  
      ,
    
    8°
    29'
          28"
        W
  




KCC

Cfb




Metar
EICK 071300Z 05005KT 010V100 9999 SCT009 BKN032 19/16 Q1011 TEMPO BKN009








Description
International airport serving Cork.
Climatology
Temperate Marine climate/Oceanic climate (Köppen climate classification Cfb). Moderately cool summer and comparatively warm winter with a temperature range of only 14°C. Prevailing south-westerly winds from the Atlantic Ocean.






Runways






Designator
Length
Width
Surface
Rops




7/25          
1310          
45          
PEM          
Yes/Yes          


17/35          
2133          
45          
ASP          
Yes/Yes          













Airport map






Aerial View








Airport accidents



SW4, Cork Ireland, 2011
AT75, vicinity Cork Ireland, 2014
B738, vicinity Cork Ireland, 2006