RJKI








Kikai Airport





Airport

ICAO code


  RJKI





IATA Code

KKX




Summary

ICAO Region

APAC



ICAO Territory





Japan






 








Location

Kikai, Kagoshima Prefecture




Serving

Kikaijima



Elevation

15 ft



Coordinates



    28°
    19'
          11"
        N
  
      ,
    
    129°
    55'
          39"
        E
  




KCC

Cfa




Metar
RJKI 071300Z AUTO 07006KT 9999 NCD 28/26 Q1012








Kikai Airport, also known as Kikaijima Airport or Kikaiga Shima Airport, is located in Kikai, a town on Kikaijima (also known as Kikai Island, Kikaishima, Kikaigashima, etc.), one of the Amami Islands in the Kagoshima Prefecture of Japan.
Climatology
Humid Sub-tropical climate (Köppen climate classification Cfa)






Runways






Designator
Length
Width
Surface
Rops




7/25          
1313          
30          
ASP          
No/No          













Airport map






Aerial View