LIRZ








Perugia San Francesco d'Assisi – Umbria International Airport





Airport

ICAO code


  LIRZ





IATA Code

PEG




Summary

ICAO Region

EUR



ICAO Territory





Italy






 








Location

Sant&#039;Egidio, Umbria




Serving

Perugia



Elevation

693 ft



Coordinates



    43°
    5'
          51"
        N
  
      ,
    
    12°
    30'
          50"
        E
  




KCC

Cfa




Metar
LIRZ 071350Z VRB03KT CAVOK 32/15 Q1016








Perugia San Francesco d'Assisi – Umbria International Airport, formerly Perugia Sant'Egidio Airport, is an airport serving Perugia, the capital city of the region of Umbria in central Italy.
Climatology
Humid subtropical climate (Köppen climate classification Cfa)






Runways






Designator
Length
Width
Surface
Rops




1/19          
1696          
45          
ASP          
Yes/Yes          













Airport map






Aerial View