LIBR








Brindisi/Papola Casale Airport/Salento Airport





Airport

ICAO code


  LIBR





IATA Code

BDS




Summary

ICAO Region

EUR



ICAO Territory





Italy






 








Location

Brindisi, Apulia




Serving

Brindisi



Elevation

47 ft



Coordinates



    40°
    39'
          45"
        N
  
      ,
    
    17°
    56'
          33"
        E
  




KCC

Csa




Metar
LIBR 071350Z 11007KT 070V140 CAVOK 29/23 Q1015








International airport serving Italian port of Brindisi.
Climatology
Dry-summer subtropical ”Mediterranean" climate (Köppen climate classification Csa) - characterized by hot, dry summers and mild winters. During the summer, subtropical high pressure cells dominate, making rainfall unlikely except for the occasional thunderstorm. In the winter, periodic storms bring rain (snow at higher elevations).






Runways






Designator
Length
Width
Surface
Rops




5/23          
1869          
45          
ASP          
Yes/Yes          


13/31          
2532          
45          
ASP          
Yes/Yes          













Airport map






Aerial View