DAOR








Béchar Boudghene Ben Ali Lotfi Airport





Airport

ICAO code


  DAOR





IATA Code

CBH




Summary

ICAO Region

AFI



ICAO Territory





Algeria






 








Location

Béchar, Bechar




Serving

Béchar



Elevation

2661 ft



Coordinates



    31°
    38'
          45"
        N
  
      ,
    
    2°
    16'
          11"
        W
  





Metar
DAOR 071224Z 23014G35KT 1000 BLSA FEW030CB SCT033 BKN100 30/20 Q1017









Runways






Designator
Length
Width
Surface
Rops




18/36          
2999          
45          
ASP          
No/No          


6/24          
3732          
45          
ASP          
No/No          













Airport map






Aerial View