KSBY








Salisbury-Ocean City Wicomico Regional Airport





Airport

ICAO code


  KSBY






Summary

ICAO Region

NAM



ICAO Territory





United States






 








Location

Salisbury, Maryland,




Coordinates



    38°
    20'
          25"
        N
  
      ,
    
    75°
    30'
          37"
        W
  




KCC

Cfa



Airport WX

Cumulonimbus




Metar
KSBY 071354Z 17003KT 10SM CLR 22/20 A2988 RMK AO2 SLP119 T02170200








Description
Salisbury-Ocean City Wicomico Regional Airport is located in Wicomico County, Maryland, 8km from the central business district of Salisbury, Maryland.
Climatology
Humid “subtropical” climate (Köppen climate classification Cfa) - characterized by hot, humid summers and cool winters. Significant amounts of precipitation occur in all seasons in most areas. Winter rainfall (and sometimes snowfall) is associated with large storms that the westerlies steer from west to east. Most summer rainfall occurs during thunderstorms and occasional tropical storms (hurricanes).






Runways






Designator
Length
Width
Surface
Rops




5/23          
1524          
30          
ASP          
Yes/Yes          


14/32          
1676          
46          
PEM          
Yes/Yes          













Airport map






Aerial View