LIPU








Padua Airport





Airport

ICAO code


  LIPU





IATA Code

QPA




Summary

ICAO Region

EUR



ICAO Territory





Italy






 








Location

Padua, Veneto




Serving

Padua



Elevation

44 ft



Coordinates



    45°
    23'
          43"
        N
  
      ,
    
    11°
    50'
          52"
        E
  




KCC

Cfa




Metar
LIPU 071350Z 22004KT 130V280 9999 SCT040 28/19 Q1015








Padua “Gino Allegri” Airport is an airport serving Padua, Veneto, Italy.
Climatology
Humid subtropical climate (Köppen climate classification Cfa)






Runways






Designator
Length
Width
Surface
Rops




4/22          
1122          
30          
ASP          
No/No          













Airport map






Aerial View