HTSO








Songea Airport





Airport

ICAO code


  HTSO





IATA Code

SGX




Summary

ICAO Region

AFI



ICAO Territory





Tanzania






 








Location

Songea, Ruvuma Region




Serving

Songea



Elevation

3445 ft



Coordinates



    10°
    40'
          60"
        S
  
      ,
    
    35°
    34'
          60"
        E
  




KCC

Cwa




Metar
HTSO 071200Z 08003KT 9999 BKN021 SCT070 24/14 Q1022








Songea Airport is an airport in southern Tanzania serving the town of Songea and the surrounding Ruvuma Region.
Climatology
Humid subtropical climate (Köppen climate classification Cwa)














Airport map






Aerial View