LFBC








Cazaux (BA 120) Air Base





Airport

ICAO code


  LFBC






Summary

ICAO Region

EUR



ICAO Territory





France






 








Location

, Aquitaine




Serving

Cazaux



Elevation

84 ft



Coordinates



    44°
    31'
          60"
        N
  
      ,
    
    1°
    7'
          30"
        W
  





Metar
LFBC 071400Z AUTO 27012KT 240V300 9999 BKN028 21/14 Q1010









Runways






Designator
Length
Width
Surface
Rops




6/24          
2408          
45          
ASP          
No/No          













Airport map






Aerial View