VDSA








Siem Reap-Angkor International Airport





Airport

ICAO code


  VDSA





IATA Code

SAI




Summary

ICAO Region

APAC



ICAO Territory





Cambodia






 








Location

Damdek, Siem Reap




Serving

Siem Reap



Elevation

60 ft



Coordinates



    13°
    22'
          31"
        N
  
      ,
    
    104°
    13'
          15"
        E
  




KCC

Aw




Metar
VDSA 071430Z 24011KT 9000 SCT015 BKN040 28/25 Q1008








Siem Reap International Airport is the airport in Cambodia handling the greatest number of passengers. It is located 25 nm east of Angkor Wat.














Airport map






Aerial View