YWLM








Newcastle Airport (New South Wales)





Airport

ICAO code


  YWLM





IATA Code

NTL




Summary

ICAO Region

APAC



ICAO Territory





Australia






 








Location

Port Stephens, New South Wales




Serving

Newcastle



Elevation

30 ft



Coordinates



    32°
    55'
          36"
        S
  
      ,
    
    151°
    46'
          44"
        E
  




KCC

Cfb




Metar
YWLM 071200Z AUTO 00000KT 9999 // NCD 17/16 Q1021 RF00.0/000.0








Airport located 8nm north of Newcastle, New South Wales, Australia. The runway is shared with RAAF Williamtown, home to Australia's Air Combat Group.
 














Airport map






Aerial View








Airport accidents



SF34, vicinity Newcastle New South Wales Australia, 2012