OIMN








Bojnord Airport





Airport

ICAO code


  OIMN





IATA Code

BJB




Summary

ICAO Region

MID



ICAO Territory





Iran






 








Location

Bojnord, North Khorasan




Serving

Bojnord



Elevation

3499 ft



Coordinates



    37°
    29'
          23"
        N
  
      ,
    
    57°
    18'
          28"
        E
  




KCC

BSk




Metar
OIMN 071400Z 29004KT CAVOK 26/07 Q1019








Airport serving Bojnord (also spelt Bojnourd or Bojnurd), the capital city of North Khorasan province, Iran.
Climatology
Cold Semi-arid climate (Köppen climate classification BSk).






Runways






Designator
Length
Width
Surface
Rops




7/25          
3225          
45          
ASP          
No/No          













Airport map






Aerial View