LGSY








Skyros Island National Airport





Airport

ICAO code


  LGSY





IATA Code

SKU




Summary

ICAO Region

EUR



ICAO Territory





Greece






 








Location

Trachi, Sporades




Serving

Skyros



Elevation

44 ft



Coordinates



    38°
    58'
          20"
        N
  
      ,
    
    24°
    29'
          18"
        E
  




KCC

Csa




Metar
LGSY 071350Z 04008KT CAVOK 28/18 Q1014 RMK FEW180 BLU








Skyros Island National Airport is an airport serving the island of Skyros in Greece.
Climatology
Warm mediterranean climate (Köppen climate classification Csa)






Runways






Designator
Length
Width
Surface
Rops




18/36          
3002          
30          
ASP          
No/No          













Airport map






Aerial View