LIRG








Guidonia Air Base





Airport

ICAO code


  LIRG






Summary

ICAO Region

EUR



ICAO Territory





Italy






 








Location

Guidonia Montecelio, Lazio




Serving

Rome



Elevation

345 ft



Coordinates



    41°
    59'
          20"
        N
  
      ,
    
    12°
    44'
          11"
        E
  




KCC

Csa




Metar
LIRG 061755Z 20003KT CAVOK 25/16 Q1013








Guidonia Air Base is a military airport in Guidonia Montecelio, Province of Rome, near Rome.
Climatology
Warm mediterranean climate (Köppen climate classification Csa)






Runways






Designator
Length
Width
Surface
Rops




4/22          
1200          
60          
GRS          
No/No          


18/36          
1462          
30          
ASP          
No/No          













Airport map






Aerial View