LGKV








Kavala/Chrysoupoli International Airport





Airport

ICAO code


  LGKV





IATA Code

KVA




Summary

ICAO Region

EUR



ICAO Territory





Greece






 








Location

Chrysoupoli, Eastern Macedonia and Thrace




Serving

Kavala



Elevation

18 ft



Coordinates



    39°
    36'
          7"
        N
  
      ,
    
    19°
    54'
          44"
        E
  




KCC

Csa




Metar
LGKV 071220Z 14008KT 9999 FEW025 30/17 Q1014








Description
Kavala International Airport "Alexander the Great" is an airport located in the municipality of Nestos, in Greece.
Climatology
Mediterranean climate (Köppen climate classification Csa) - Hot, dry summer and a mild wet winter.






Runways






Designator
Length
Width
Surface
Rops




05R/23L          
3000          
45          
ASP          
Yes/Yes          













Airport map






Aerial View