PAQT








Nuiqsut Airport





Airport

ICAO code


  PAQT





IATA Code

NUI




Summary

ICAO Region

NAM



ICAO Territory





Alaska






 








Location

, Alaska




Serving

Nuiqsut



Elevation

38 ft



Coordinates



    70°
    12'
          36"
        N
  
      ,
    
    151°
    0'
          20"
        W
  





Metar
PAQT 071225Z AUTO 27008KT 10SM BKN012 02/01 A2982 RMK AO2 T00220011 TSNO $









Runways






Designator
Length
Width
Surface
Rops




4/22          
1324          
27          
GVL          
Yes/Yes          













Airport map






Aerial View