UUDD








Moscow/Domodedovo International Airport





Airport

ICAO code


  UUDD





IATA Code

DME




Summary

ICAO Region

EUR



ICAO Territory





Russian Federation






 








Location

Domodedovo, Moscow Oblast,




Serving

Moscow



Elevation

588 ft



Coordinates



    55°
    24'
          31"
        N
  
      ,
    
    37°
    54'
          12"
        E
  




KCC

Dfb




Metar
UUDD 071430Z 04002MPS 010V080 CAVOK 24/10 Q1029 R32L/CLRD60 NOSIG








Description
International airport serving Moscow, Russia.
Climatology
Humid Continental climate (Köppen climate classification Dfb) - Variable weather patterns and a large seasonal temperature variance. Summers are often warm and humid with frequent thunderstorms and winters can be very cold with frequent snowfall and persistent snow cover.






Runways






Designator
Length
Width
Surface
Rops




14C/32C          
2600          
45          
CON          
Yes/Yes          


14R/32L          
3500          
70          
CON          
Yes/Yes          


14L/32R          
3794          
53          
CON          
Yes/Yes          













Airport map






Aerial View








Airport accidents



A388, vicinity Moscow Domodedovo Russia, 2017