CYPA








Prince Albert (Glass Field) Airport





Airport

ICAO code


  CYPA






Summary

ICAO Region

NAM



ICAO Territory





Canada






 








Location

Prince Albert, Saskatchewan,




Elevation

1405 ft



Coordinates



    53°
    12'
          48"
        N
  
      ,
    
    105°
    40'
          49"
        W
  




KCC

Dfb



Airport BS

Bird Strike



Airport CFIT

Altimeter Temperature Error Correction



Airport GND

Aircraft Ground De/Anti Icing



Airport RE

Landing on Contaminated Runways



Airport WX

Cumulonimbus




Metar
CYPA 071400Z 27002KT 12SM BKN270 11/09 A2994 RMK CI8 FU SLP149








Description
Regional airport serving Prince Albert, Saskatchewan, Canada.
Climatology
Humid Continental climate (Köppen climate classification Dfb) - Variable weather patterns and a large seasonal temperature variance. Summers are often warm and humid with frequent thunderstorms and winters can be very cold with frequent snowfall and persistent snow cover.






Runways






Designator
Length
Width
Surface
Rops




16/34          
762          
30          
GRS          
No/No          


8/26          
1524          
46          
ASP          
Yes/Yes          













Airport map






Aerial View