CYSM








Fort Smith Airport





Airport

ICAO code


  CYSM






Summary

ICAO Region

NAM



ICAO Territory





Canada






 








Location

Fort Smith, Northwest Territories,




Coordinates



    60°
    1'
          10"
        N
  
      ,
    
    111°
    57'
          30"
        W
  




KCC

Dfc



Airport BS

Non Avian Wildlife Hazards to Aircraft



Airport CFIT

Altimeter Temperature Error Correction



Airport GND

Aircraft Ground De/Anti Icing




Metar
CYSM 071500Z 15004KT 15SM BKN250 12/07 A2981 RMK CI6 SLP103








Description
Regional airport serving the town of Fort Smith, Northwest Territories, Canada.
Climatology
Subarctic climate (Köppen climate classification Dfc) - long, usually very cold winters, and short, cool to mild summers.






Runways






Designator
Length
Width
Surface
Rops




2/20          
549          
30          
COM          
No/No          


11/29          
1829          
61          
ASP          
No/No          













Airport map






Aerial View