KOWA








Owatonna Degner Regional Airport





Airport

ICAO code


  KOWA





IATA Code

OWA




Summary

ICAO Region

NAM



ICAO Territory





United States






 








Location

Owatonna, Minnesota,




Serving

Owatonna



Elevation

1145 ft



Coordinates



    44°
    7'
          23"
        N
  
      ,
    
    93°
    15'
          32"
        W
  




KCC

Dfb




Metar
KOWA 071413Z AUTO 14006KT 10SM CLR 11/06 A3035 RMK AO2








Description
Regional airport serving Owatonna, Minnesota.
Climatology
Humid Continental climate (Köppen climate classification Dfb) - Variable weather patterns and a large seasonal temperature variance. Summers are often warm and humid with frequent thunderstorms and winters can be very cold with frequent snowfall and persistent snow cover.






Runways






Designator
Length
Width
Surface
Rops




12/30          
1676          
30          
CON          
No/No          













Airport map






Aerial View








Airport accidents



H25B, vicinity Owatonna MN USA, 2008