CYXJ








Fort St. John





Airport

ICAO code


  CYXJ





IATA Code

YXJ




Summary

ICAO Region

NAM



ICAO Territory





Canada






 








Location

Fort St. John, British Columbia,




Serving

Fort St. John



Elevation

2280 ft



Coordinates



    56°
    14'
          13"
        N
  
      ,
    
    120°
    44'
          25"
        W
  




KCC

Dfb




Metar
CYXJ 071500Z 24008KT 15SM FEW160 BKN200 17/09 A2993 RMK FU1AC1CI5 SLP141 DENSITY ALT 3000FT








Description
Fort St. John Airport, North Peace Regional Airport, or North Peace Airport, is located at Fort St. John, British Columbia, Canada.
Climatology
Humid Continental climate (Köppen climate classification Dfb) - Variable weather patterns and a large seasonal temperature variance. Summers are often warm and humid with frequent thunderstorms and winters can be very cold with frequent snowfall and persistent snow cover.






Runways






Designator
Length
Width
Surface
Rops




2/20          
2042          
61          
ASP          
Yes/Yes          


11/29          
2103          
46          
ASP          
Yes/Yes          













Airport map






Aerial View








Airport accidents



JS31, Fort St. John BC Canada, 2007