VASU








Surat Airport





Airport

ICAO code


  VASU





IATA Code

STV




Summary

ICAO Region

APAC



ICAO Territory





India






 








Location

Magdalla, Gujarat




Serving

Surat



Elevation

16 ft



Coordinates



    21°
    6'
          51"
        N
  
      ,
    
    72°
    44'
          30"
        E
  




KCC

Aw




Metar
VASU 071330Z 22008KT 6000 SCT020 28/25 Q1005 NOSIG








Climatology
Tropical Savanna climate (Köppen climate classification Aw)






Runways






Designator
Length
Width
Surface
Rops




4/22          
2250          
30          
ASP          
No/No          













Airport map






Aerial View








Airport accidents



A320, Surat India, 2017
B738, Surat India, 2014