DAON








Zenata – Messali El Hadj Airport





Airport

ICAO code


  DAON





IATA Code

TLM




Summary

ICAO Region

AFI



ICAO Territory





Algeria






 








Location

, Tlemcen




Serving

Tlemcen



Elevation

814 ft



Coordinates



    35°
    1'
          0"
        N
  
      ,
    
    1°
    26'
          60"
        W
  





Metar
DAON 071100Z 35007KT 9000 NSC 30/18 Q1013









Runways






Designator
Length
Width
Surface
Rops




7/25          
2600          
45          
ASP          
Yes/Yes          













Airport map






Aerial View