RJAA








Tokyo Narita Airport





Airport

ICAO code


  RJAA





IATA Code

NRT




Summary

ICAO Region

APAC



ICAO Territory





Japan






 








Location

Narita, Chiba Prefecture




Serving

Tokyo



Elevation

135 ft



Coordinates



    35°
    46'
          25"
        N
  
      ,
    
    140°
    23'
          18"
        E
  




KCC

Cfa




Metar
RJAA 071300Z 16002KT 9999 FEW030 24/22 Q1014 NOSIG








Also know as Tokyo Narita Airport or Narita International Airport, Narita was formerly the major international airport serving Tokyo until Haneda reopened to intercontinental traffic. Narita airport is located 57.5 km east of Tokyo and 7 km east-southeast of the city of Narita.
Climatology
Humid subtropical climate (Köppen climate classification Cfa).






Runways






Designator
Length
Width
Surface
Rops




16L/34R          
2180          
60          
ASP          
Yes/Yes          


16R/34L          
4000          
60          
ASP          
Yes/Yes          













Airport map






Aerial View








Airport accidents



B748, Tokyo Narita Japan, 2017
A333 / A333, Narita International Japan, 2017
B772, Tokyo Narita Japan, 2008