RJKB








Okinoerabu Airport





Airport

ICAO code


  RJKB





IATA Code

OKE




Summary

ICAO Region

APAC



ICAO Territory





Japan






 








Location

Wadomari, Kagoshima Prefecture




Serving

Okinoerabujima



Elevation

88 ft



Coordinates



    27°
    25'
          59"
        N
  
      ,
    
    128°
    42'
          17"
        E
  




KCC

Cfa




Metar
RJKB 071300Z AUTO 07007KT 9999 FEW017 29/26 Q1012








Okinoerabu Airport is located on the island of Okinoerabujima in the town of Wadomari, Ōshima District, Kagoshima Prefecture, Japan.
Climatology
Humid Sub-tropical climate (Köppen climate classification Cfa)






Runways






Designator
Length
Width
Surface
Rops




4/22          
1350          
45          
ASP          
No/No          













Airport map






Aerial View