MGPB








Puerto Barrios Airport





Airport

ICAO code


  MGPB





IATA Code

PBR




Summary

ICAO Region

CARSAM



ICAO Territory





Guatemala






 








Location

Esperanza, Izabel Department




Serving

Puerto Barrios



Elevation

33 ft



Coordinates



    15°
    43'
          54"
        N
  
      ,
    
    88°
    35'
          5"
        W
  




KCC

Af




Metar
MGPB 071300Z 00000KT 9999 FEW017 BKN080 25/24 Q1007 A2974








Puerto Barrios Airport (formerly Base Aérea de Izabal) serves the city of Puerto Barrios, the port of Santo Tomás de Castilla and the Guatemalan Caribbean.
Climatology
Tropical rainforest climate (Köppen climate classification Af)






Runways






Designator
Length
Width
Surface
Rops




12/30          
2707          
34          
CON          
No/No          













Airport map






Aerial View