HTIR








Iringa Airport





Airport

ICAO code


  HTIR





IATA Code

IRI




Summary

ICAO Region

AFI



ICAO Territory





Tanzania






 








Location

Iringa, Iringa Region




Serving

Iringa



Elevation

4678 ft



Coordinates



    7°
    40'
          10"
        S
  
      ,
    
    35°
    45'
          5"
        E
  




KCC

Aw




Metar
HTIR 071200Z 05005KT 9999 BKN031 27/09 Q1021








Iringa Airport is an airport in Tanzania serving Iringa and the surrounding Iringa Region
Climatology
Tropical Savanna climate (Köppen climate classification Aw)






Runways






Designator
Length
Width
Surface
Rops




2/20          
1679          
30          
ASP          
No/No          













Airport map






Aerial View