KTBN








Waynesville-St. Robert Regional Airport





Airport

ICAO code


  KTBN






Summary

ICAO Region

NAM



ICAO Territory





United States






 








Location

Fort Leonard Wood/Waynesville, Missouri,




Coordinates



    37°
    44'
          31"
        N
  
      ,
    
    92°
    8'
          26"
        W
  




KCC

Cfa




Metar
KTBN 071355Z AUTO 01006KT 9SM CLR 15/10 A3023 RMK AO2 SLP236 T01530103 $








Description
Waynesville-St. Robert Regional Airport, also known as Forney Field, is a public and military (USA) use airport located at Fort Leonard Wood in Pulaski County, Missouri.
Climatology
Humid “subtropical” climate (Köppen climate classification Cfa) - characterized by hot, humid summers and cool winters. Significant amounts of precipitation occur in all seasons in most areas. Winter rainfall (and sometimes snowfall) is associated with large storms that the westerlies steer from west to east. Most summer rainfall occurs during thunderstorms.






Runways






Designator
Length
Width
Surface
Rops




14/32          
1840          
46          
ASP          
Yes/Yes          













Airport map






Aerial View