ZGSZ








Shenzhen Bao'an International Airport





Airport

ICAO code


  ZGSZ





IATA Code

SZX




Summary

ICAO Region

APAC



ICAO Territory





China






 








Location

Bao&#039;an, Shenzhen, Guangdong




Serving

Shenzhen



Elevation

13 ft



Coordinates



    22°
    38'
          21"
        N
  
      ,
    
    113°
    48'
          38"
        E
  




KCC

Cwa




Metar
ZGSZ 071300Z 09004MPS 060V120 9999 SCT050 29/26 Q1009 NOSIG








Description
Shenzhen Bao'an International Airport is located in the Bao'an District, Shenzhen, Guangdong, China. It is 32 km northwest of the city center.
Climatology
Within the Köppen Climate Classification System, ((Koppen climate classification Cwa)) this climate type generally has warm and humid summers with mild winters. Its extent is from 30 to 50° of latitude mainly on the eastern and western borders of most continents. During the winter, the main weather feature is the mid-latitude cyclone. Convective thunderstorms provide precipitation in the summer months.














Airport map






Aerial View