MMMA








General Servando Canales International Airport





Airport

ICAO code


  MMMA





IATA Code

MAM




Summary

ICAO Region

CARSAM



ICAO Territory





Mexico






 








Location

Servando Canales, Tamaulipas




Serving

Matamoros



Elevation

25 ft



Coordinates



    25°
    46'
          12"
        N
  
      ,
    
    97°
    31'
          31"
        W
  




KCC

Cfa




Metar
MMMA 071146Z 33011KT 4SM SCT080 24/22 A2986 RMK SLP110 5//// 961 8/030 HZ ISOL CI RTS








General Servando Canales International Airport is an international airport located in Matamoros, Tamaulipas, Mexico, near the U.S.- Mexico border.
Climatology
Humid Subtropical Climate (Köppen climate classification Cfa)






Runways






Designator
Length
Width
Surface
Rops




15/33          
2300          
46          
ASP          
No/No          













Airport map






Aerial View