SBJP








Presidente Castro Pinto International Airport





Airport

ICAO code


  SBJP





IATA Code

JPA




Summary

ICAO Region

CARSAM



ICAO Territory





Brazil






 








Location

Bayeux, Paraiba




Serving

João Pessoa



Elevation

215 ft



Coordinates



    7°
    8'
          45"
        S
  
      ,
    
    34°
    56'
          55"
        W
  




KCC

Am




Metar
SBJP 071300Z 13016KT 100V160 9999 BKN030 30/21 Q1017








Presidente Castro Pinto International Airport is the airport serving João Pessoa, Brazil located in the adjoining municipality of Bayeux.
Climatology
Tropical monsoon climate (Köppen climate classification Am)






Runways






Designator
Length
Width
Surface
Rops




16/34          
2515          
45          
ASP          
Yes/Yes          













Airport map






Aerial View