EPPO








Poznań-Ławica Airport





Airport

ICAO code


  EPPO





IATA Code

POZ




Summary

ICAO Region

EUR



ICAO Territory





Poland






 








Location

Poznań, Greater Poland




Serving

Poznań



Elevation

308 ft



Coordinates



    52°
    25'
          15"
        N
  
      ,
    
    16°
    49'
          38"
        E
  




KCC

Dfb



Airport RI

Runway Misidentification




Metar
EPPO 071130Z 11009KT CAVOK 29/12 Q1016








Poznań-Ławica Airport, built in 1913, is one of the oldest airports in Poland. It is located 5 km west of Poznań city centre. It takes its name from the neighborhood of Ławica, part of the city's Grunwald district (the airport lies in Jeżyce district).
Climatology
Humid Continental climate (Köppen climate classification Dfb) - Variable weather patterns and a large seasonal temperature variance. Summers are often warm and humid with frequent thunderstorms and winters can be very cold with frequent snowfall and persistent snow cover.






Runways






Designator
Length
Width
Surface
Rops




10/28          
2504          
50          
ASP          
Yes/Yes          













Airport map






Aerial View