VOCB








Coimbatore International Airport





Airport

ICAO code


  VOCB





IATA Code

CJB




Summary

ICAO Region

APAC



ICAO Territory





India






 








Location

Peelamedu, Tamil Nadu




Serving

Coimbatore



Elevation

1324 ft



Coordinates



    11°
    1'
          49"
        N
  
      ,
    
    77°
    2'
          20"
        E
  




KCC

Aw




Metar
VOCB 071300Z 22011KT 6000 FEW012 27/21 Q1011 BECMG 5000 BR








Coimbatore International Airport is located at Peelamedu, approximately 11 km from the central business district of Coimbatore, a large city in Tamil Nadu.
Climatology
Tropical Savanna climate (Köppen climate classification Aw) - monthly mean temperatures above 18°C, and a pronounced dry season. A Tropical Savanna climate has more pronounced dry seasons than a Tropical Monsoon climate.














Airport map






Aerial View