PTSA








Kosrae International Airport





Airport

ICAO code


  PTSA





IATA Code

KSA




Summary

ICAO Region

APAC



ICAO Territory





Micronesia






 








Location

Okat, Kosrae Island




Serving

Kosrae



Elevation

11 ft



Coordinates



    5°
    21'
          13"
        N
  
      ,
    
    162°
    57'
          20"
        E
  




KCC

Af




Metar
PTSA 062350Z 14006KT 10SM BKN022 BKN130 BKN300 31/26 A2984








Kosrae International Airport (IATA: KSA, ICAO: PTSA, FAA LID: TTK) is an airport serving Kosrae, the easternmost state of the Federated States of Micronesia. It is located on an artificial island within the fringing reef about 150 meters from the coast and is connected to the main island by a causeway.
Climatology
Tropical rainforest climate (Köppen climate classification Af)






Runways






Designator
Length
Width
Surface
Rops




5/23          
1753          
46          
ASP          
Yes/Yes          













Airport map






Aerial View








Airport accidents



B733, vicinity Kosrae Micronesia, 2015