KUNU








Dodge County Airport





Airport

ICAO code


  KUNU





IATA Code

UNU




Summary

ICAO Region

NAM



ICAO Territory





United States






 








Location

Juneau, Wisconsin




Serving

Juneau



Elevation

934 ft



Coordinates



    43°
    25'
          36"
        N
  
      ,
    
    88°
    42'
          12"
        W
  




KCC

Dfa




Metar
KUNU 071235Z AUTO 33005KT 10SM CLR 05/05 A3028 RMK AO2 T00540046








Description
Dodge County Airport is a public airport located north of Juneau, Wisconsin.






Runways






Designator
Length
Width
Surface
Rops




2/20          
1227          
23          
ASP          
No/No          


8/26          
1542          
30          
ASP          
No/No          













Airport map






Aerial View