KBIS








Bismark Municipal Airport





Airport

ICAO code


  KBIS





IATA Code

BIS




Summary

ICAO Region

NAM



ICAO Territory





United States






 








Location

Bismark , North Dakota




Serving

Bismark



Elevation

1661 ft



Coordinates



    46°
    46'
          25"
        N
  
      ,
    
    100°
    45'
          21"
        W
  




KCC

Dfb



Airport CFIT

Altimeter Temperature Error Correction



Airport WX

Cumulonimbus




Metar
KBIS 071352Z 08003KT 10SM CLR 11/08 A3023 RMK AO2 SLP239 T01060083








Description
Bismarck Municipal Airport is a public use airport located 3 nm southeast of the central business district of Bismarck, North Dakota, USA.














Airport map






Aerial View