KCMA








Camarillo Airport





Airport

ICAO code


  KCMA






Summary

ICAO Region

EUR



ICAO Territory





United States






 








Location

Camarillo, California




Serving

Oxnard



Elevation

77 ft



Coordinates



    34°
    12'
          44"
        N
  
      ,
    
    119°
    5'
          24"
        W
  




KCC

Csb




Metar
KCMA 071355Z 16003KT 7SM CLR 22/17 A2981 RMK AO2 SLP101 T02170167








Description
Camarillo Airport is a public airport located 3 nm west of the central business district of Camarillo, a city in Ventura County, California, United States.
 














Airport map






Aerial View