KBFL








Meadows Field Airport





Airport

ICAO code


  KBFL





IATA Code

BFL




Summary

ICAO Region

NAM



ICAO Territory





United States






 








Location

Bakersfield, California




Serving

Bakersfield



Elevation

510 ft



Coordinates



    35°
    26'
          16"
        N
  
      ,
    
    119°
    3'
          9"
        W
  




KCC

BWh



Airport LOS

Parallel Runway Operation




Metar
KBFL 071354Z 08004KT 10SM CLR 26/09 A2990 RMK AO2 SLP117 T02610089








International airport located 3 nm northwest of the central business district of Bakersfield, California, USA. It is the primary airport serving the Greater Bakersfield metropolitan area and one of two international airports in the San Joaquin Valley.














Airport map






Aerial View