KAGS








Augusta Regional Airport





Airport

ICAO code


  KAGS





IATA Code

AGS




Summary

ICAO Region

NAM



ICAO Territory





United States






 








Location

Richmond County, Georgia




Serving

Augusta



Elevation

144 ft



Coordinates



    33°
    22'
          20"
        N
  
      ,
    
    81°
    58'
          7"
        W
  




KCC

Cfa




Metar
KAGS 071353Z 31005KT 8SM SCT006 SCT090 BKN110 22/20 A2990 RMK AO2 RAE20 SLP124 P0000 T02170200 $








Description
Augusta Regional Airport, also known as Augusta Regional Airport at Bush Field, is a city-owned, public-use airport located 6 nm south of the central business district of Augusta, a city in Richmond County, Georgia.














Airport map






Aerial View