SAZM








Ástor Piazzola International Airport





Airport

ICAO code


  SAZM





IATA Code

MDQ




Summary

ICAO Region

CARSAM



ICAO Territory





Argentina






 








Location

Mar Del Plata, Buenos Aires




Serving

Mar Del Plata



Elevation

72 ft



Coordinates



    37°
    56'
          3"
        S
  
      ,
    
    57°
    34'
          24"
        W
  





Metar
SAZM 071300Z 32006KT 290V350 CAVOK 16/05 Q1014









Runways






Designator
Length
Width
Surface
Rops




13/31          
2200          
45          
ASP          
Yes/Yes          













Airport map






Aerial View