CYCP








Blue River Airport





Airport

ICAO code


  CYCP






Summary

ICAO Region

NAM



ICAO Territory





Canada






 








Location

Blue River, British Columbia




Serving

Blue River



Elevation

2240 ft



Coordinates



    52°
    7'
          25"
        N
  
      ,
    
    119°
    17'
          35"
        W
  





Metar
CYCP 071500Z 00000KT 15SM SKC 10/09 A3011 RMK SLP206









Runways






Designator
Length
Width
Surface
Rops




1/19          
1524          
18          
ASP          
No/No          













Airport map






Aerial View








Airport accidents



B190, Blue River BC Canada, 2012