SPHZ








Comandante FAP German Arias Graziani Airport





Airport

ICAO code


  SPHZ





IATA Code

ATA




Summary

ICAO Region

CARSAM



ICAO Territory





Peru






 








Location

Anta, Ancash




Serving

Huarez



Elevation

9097 ft



Coordinates



    9°
    20'
          51"
        S
  
      ,
    
    77°
    35'
          54"
        W
  




KCC

Aw




Metar
SPHZ 071300Z 05002KT CAVOK 09/03 Q1028 RMK HZTE BRUMOSO PP000








Regional airport serving the city of Huaraz, Ancash Region, Peru. The airport is in the Santa River valley, 20km northwest of Huaraz, at the village of Anta.
Climatology
Tropical Savannah climate (Köppen climate classification Aw).






Runways






Designator
Length
Width
Surface
Rops




16/34          
3050          
30          
ASP          
No/No          













Airport map






Aerial View