PANV








Anvik Airport





Airport

ICAO code


  PANV





IATA Code

ANV




Summary

ICAO Region

NAM



ICAO Territory





Alaska






 








Location

, Alaska




Serving

Anvik



Elevation

291 ft



Coordinates



    62°
    38'
          48"
        N
  
      ,
    
    160°
    11'
          28"
        W
  





Metar
PANV 071256Z AUTO 24005KT 10SM CLR 04/04 A2990 RMK AO2 SLP196 T00390039 TSNO









Runways






Designator
Length
Width
Surface
Rops




17/35          
902          
23          
GVL          
No/No          













Airport map






Aerial View