KSAT








San Antonio International Airport





Airport

ICAO code


  KSAT






Summary

ICAO Region

NAM



ICAO Territory





United States






 








Location

San Antonio, Texas,




Coordinates



    29°
    31'
          30"
        N
  
      ,
    
    98°
    28'
          24"
        W
  




KCC

Cfa



Airport LOS

Parallel Runway Operation




Metar
KSAT 071351Z 01014G21KT 10SM CLR 25/19 A3004 RMK AO2 PK WND 36026/1327 SLP153 T02500189 $








Description
San Antonio International Airport is a public use commercial airport in San Antonio, Texas.
Climatology
Transition between humid “subtropical” climate (Köppen climate classification Cfa) and hot semi-arid climate (Köppen climate classification BSh) - characterized by hot, humid summers and cool winters. Significant amounts of precipitation occur in all seasons in most areas. Winter rainfall (and sometimes snowfall) is associated with large storms that the westerlies steer from west to east. Most summer rainfall occurs during thunderstorms and occasional tropical storms (hurricanes).






Runways






Designator
Length
Width
Surface
Rops




12L/30R          
1682          
30          
ASP          
Yes/Yes          


3/21          
2288          
46          
CON          
Yes/Yes          


12R/30L          
2591          
46          
CON          
Yes/Yes          













Airport map






Aerial View