SBJV








Joinville-Lauro Carneiro de Loyola Airport





Airport

ICAO code


  SBJV





IATA Code

JOI




Summary

ICAO Region

CARSAM



ICAO Territory





Brazil






 








Location

Joinville, Santa Catarina




Serving

Joinville



Elevation

13 ft



Coordinates



    26°
    13'
          23"
        S
  
      ,
    
    48°
    47'
          51"
        W
  




KCC

Cfa




Metar
SBJV 071100Z 33002KT 9999 FEW010 16/15 Q1019








Joinville-Lauro Carneiro de Loyola Airport is the airport serving Joinville, Brazil.
Climatology
Humid subtropical climate (Köppen climate classification Cfa)






Runways






Designator
Length
Width
Surface
Rops




15/33          
1640          
45          
ASP          
Yes/Yes          













Airport map






Aerial View