KUIN








Quincy





Airport

ICAO code


  KUIN






Summary

ICAO Region

NAM



ICAO Territory





United States






 








Location

Quincy, Illinois,




Coordinates



    39°
    56'
          34"
        N
  
      ,
    
    91°
    11'
          41"
        W
  




KCC

Dfa




Metar
KUIN 071354Z AUTO 02008KT 10SM CLR 14/09 A3027 RMK AO2 SLP250 T01390094 $








Description
Regional Airport located 12 nm east of Quincy, Illinois, USA.
Climatology
Humid continental climate (Köppen climate classification Dfa) - characterized by four seasons: cold, windy, snowy winters, mild springs, hot, humid summers, and crisp and relatively short autumns. Precipitation reaches its lowest in January and February and peaks in summer and latter half of spring.






Runways






Designator
Length
Width
Surface
Rops




13/31          
1562          
46          
ASP          
Yes/Yes          


18/36          
1646          
46          
CON          
Yes/Yes          


4/22          
2163          
46          
PEM          
Yes/Yes          













Airport map






Aerial View








Airport accidents



B190 / BE9L, Quincy IL USA, 1996