MUVR








Juan Gualberto Gomez Airport





Airport

ICAO code


  MUVR





IATA Code

VRA




Summary

ICAO Region

CARSAM



ICAO Territory





Cuba






 








Location

Matanzas, Matanzas




Serving

Varadero



Elevation

210 ft



Coordinates



    23°
    2'
          4"
        N
  
      ,
    
    81°
    26'
          7"
        W
  




KCC

Aw



Airport WX

Tropical Revolving Storm




Metar
MUVR 071250Z 13005KT 100V160 9000 FEW030 27/25 Q1011








Juan Gualberto Gómez Airport is an international airport serving Varadero, Cuba and the province of Matanzas. The airport is located closer to the town of Matanzas than to Varadero. The closest airport to Varadero is Santa Marta Airport. Juan Gualberto Gómez Airport is the second busiest airport in Cuba after José Martí International Airport in Havana.
Climatology
Tropical Savanna climate (Köppen climate classification Aw)






Runways






Designator
Length
Width
Surface
Rops




6/24          
3502          
45          
ASP          
Yes/Yes          













Airport map






Aerial View








Airport accidents



A320, Varadero Cuba, 2010