SERB








Chimborazo Airport





Airport

ICAO code


  SERB






Summary

ICAO Region

CARSAM



ICAO Territory





Ecuador






 








Location

, Chimborazo




Serving

Riobamba



Elevation

9151 ft



Coordinates



    1°
    39'
          12"
        S
  
      ,
    
    78°
    39'
          22"
        W
  





Metar
SERB 062100Z 04012KT 9999 BKN040 16/07 Q1028









Runways






Designator
Length
Width
Surface
Rops




5/23          
1600          
29          
ASP          
No/No          













Airport map






Aerial View