WIMM








Kualanamu International Airport





Airport

ICAO code


  WIMM





IATA Code

KNO




Summary

ICAO Region

APAC



ICAO Territory





Indonesia






 








Location

Deli Serdang, Sumatra




Serving

Medan



Elevation

23 ft



Coordinates



    3°
    37'
          52"
        N
  
      ,
    
    98°
    52'
          30"
        E
  




KCC

Af




Metar
WIMM 071430Z 12010KT 9999 SCT018 27/26 Q1011 NOSIG








International Airport serving the city of Medan, Indonesia, about 26 km east of the city.
Climatology
Tropical Rainforest climate (Köppen climate classification Af)














Airport map






Aerial View








Airport accidents



A333, Medan Indonesia, 2020
AT75 / B739, Medan Indonesia, 2017
B732, Medan Indonesia, 2005