KBLV








MidAmerica St. Louis/Scott Air Force Base





Airport

ICAO code


  KBLV





IATA Code

BLV




Summary

ICAO Region

NAM



ICAO Territory





United States






 








Location

Belleville, Illinois




Serving

St. Louis



Elevation

459 ft



Coordinates



    38°
    32'
          42"
        N
  
      ,
    
    89°
    50'
          21"
        W
  




KCC

Dfa




Metar
KBLV 071355Z AUTO 03007KT 10SM FEW039 16/12 A3021 RMK AO2 SLP232 T01600116








MidAmerica St. Louis Airport is a public use airport next to Scott Air Force Base St. Clair County, Illinois, near Belleville (part of the St. Louis metropolitan area). 














Airport map






Aerial View