UDSG








Shirak International Airport





Airport

ICAO code


  UDSG





IATA Code

LWN




Summary

ICAO Region

APAC



ICAO Territory





Armenia






 








Location

Gyumri, Shirak,




Serving

Gyumri



Elevation

4987 ft



Coordinates



    40°
    45'
          5"
        N
  
      ,
    
    43°
    51'
          35"
        E
  




KCC

BSk




Metar
UDSG 071130Z 03011KT 9999 SCT043CB 22/10 Q1021 NOSIG








Description
Shirak International Airport is an international airport serving Gyumri and the province of Shirak. It is located about 5 km from the center of Gyumri.
Climatology
Cold Semi-arid climate (Köppen climate classification BSk). - Hot, sometimes extremely hot summers and cold, sometimes very cold winters. Some snowfall during the winter. Areas featuring cold semi-arid climates are sometimes subject to major temperature swings during a 24 hour period.






Runways






Designator
Length
Width
Surface
Rops




2/20          
3220          
45          
ASP          
No/No          













Airport map






Aerial View