LGIO








Ioannina National Airport





Airport

ICAO code


  LGIO





IATA Code

IOA




Summary

ICAO Region

EUR



ICAO Territory





Greece






 








Location

Ioannina, Epirus




Serving

Ioannina



Elevation

1558 ft



Coordinates



    39°
    41'
          54"
        N
  
      ,
    
    20°
    49'
          15"
        E
  




KCC

Cfa




Metar
LGIO 071350Z AUTO 28006KT 260V030 //// // ////// 32/15 Q1015 RE//








oannina International Airport is an airport serving the city Ioannina, Greece. Its full name is Ioannina International Airport - King Pyrrhus.
Climatology
Humid subtropical climate (Köppen climate classification Cfa)






Runways






Designator
Length
Width
Surface
Rops




14/32          
2400          
45          
ASP          
No/No          













Airport map






Aerial View