OIYY








Shahid Sadooghi Airport





Airport

ICAO code


  OIYY





IATA Code

AZD




Summary

ICAO Region

MID



ICAO Territory





Iran






 








Location

Yazd, Yazd Province




Serving

Yazd



Elevation

4054 ft



Coordinates



    31°
    54'
          5"
        N
  
      ,
    
    54°
    17'
          8"
        E
  




KCC

BWh




Metar
OIYY 071400Z 34004KT CAVOK 35/M01 Q1013 NOSIG








Airport located 8km west of the city of Yazd, Iran.
Climatology
Warm Desert climate (Köppen climate classification BWh). Very hot summers and cold winter nights; very little precipitation.






Runways






Designator
Length
Width
Surface
Rops




13/31          
4098          
45          
ASP          
No/No          













Airport map






Aerial View