SPJI








Juanjui Airport





Airport

ICAO code


  SPJI





IATA Code

JJI




Summary

ICAO Region

CARSAM



ICAO Territory





Peru






 








Location

Juanjui, San Martin




Serving

Juanjui



Elevation

1148 ft



Coordinates



    7°
    10'
          9"
        S
  
      ,
    
    76°
    43'
          43"
        W
  




KCC

Am




Metar
SPJI 071300Z 00000KT 4000 BR FEW016 BKN080 23/22 Q1023 RMK TX31.5/TN21.2 PP000








Airport serving Juanjuí, a city on the Huallaga River in the San Martín Region of Peru.
Climatology
Tropical Monsoon climate (Köppen climate classification Am).






Runways






Designator
Length
Width
Surface
Rops




3/21          
2100          
30          
ASP          
No/No          













Airport map






Aerial View