LTCG








Trabzon Airport





Airport

ICAO code


  LTCG





IATA Code

TZX




Summary

ICAO Region

EUR



ICAO Territory





Turkey






 








Location

Trabzon,




Serving

Trabzon



Elevation

104 ft



Coordinates



    40°
    59'
          43"
        N
  
      ,
    
    39°
    47'
          20"
        E
  





Metar
LTCG 071220Z 31003KT 270V040 9999 FEW020CB BKN035 26/21 Q1013 TEMPO 2000 TSRA








Trabzon Airport is an airport near the city of Trabzon in the eastern Black Sea region of Turkey.






Runways






Designator
Length
Width
Surface
Rops




11/29          
2640          
45          
ASP          
Yes/Yes          













Airport map






Aerial View