MMPS








Puerto Escondido International Airport





Airport

ICAO code


  MMPS





IATA Code

PXM




Summary

ICAO Region

CARSAM



ICAO Territory





Mexico






 








Location

Puerto Escondido, Oaxaca




Serving

Puerto Escondido



Elevation

294 ft



Coordinates



    15°
    52'
          37"
        N
  
      ,
    
    97°
    5'
          21"
        W
  




KCC

Aw




Metar
MMPS 062345Z 31007KT 10SM BKN100 31/27 A2976 RMK 8/020 HZY








Puerto Escondido International Airport is an airport located at Puerto Escondido in the state of Oaxaca in Mexico.
Climatology
Tropical Savannah Climate (Köppen climate classification Aw)






Runways






Designator
Length
Width
Surface
Rops




9/27          
2300          
45          
ASP          
No/No          













Airport map






Aerial View