UMOO








Mahilyow Airport





Airport

ICAO code


  UMOO





IATA Code

MVQ




Summary

ICAO Region

EUR



ICAO Territory





Russian Federation






 








Location

Nikitinichi, Mogilev Region




Serving

Mogilev



Elevation

637 ft



Coordinates



    53°
    57'
          18"
        N
  
      ,
    
    30°
    5'
          42"
        E
  




KCC

Dfb




Metar
UMOO 071200Z 13003MPS CAVOK 25/04 Q1029 NOSIG








Mahilyow Airport is an airport that serves Mogilev, Belarus.
Climatology
Humid continental climate (Köppen climate classification Dfb)






Runways






Designator
Length
Width
Surface
Rops




13/31          
2567          
42          
ASP          
No/No          













Airport map






Aerial View