GOGG








Ziguinchor Airport





Airport

ICAO code


  GOGG





IATA Code

ZIG




Summary

ICAO Region

AFI



ICAO Territory





Senegal






 








Location

Ziguinchor, Ziguinchor region




Serving

Ziguinchor



Elevation

75 ft



Coordinates



    12°
    33'
          20"
        N
  
      ,
    
    16°
    16'
          54"
        W
  




KCC

Aw




Metar
GOGG 071400Z 30004KT 9999 BKN015 32/26 Q1012








Ziguinchor Airport is an airport serving Ziguinchor, the capital of the Ziguinchor Region (also known as Basse Casamance) in Senegal.
Climatology
Tropical Savannah climate (Köppen climate classification Aw)






Runways






Designator
Length
Width
Surface
Rops




10/28          
1545          
30          
ASP          
No/No          













Airport map






Aerial View