EGUL








RAF Lakenheath





Airport

ICAO code


  EGUL






Summary

ICAO Region

EUR



ICAO Territory





United Kingdom






 








Location

Lakenheath, Suffolk, England,




Elevation

32 ft



Coordinates



    52°
    24'
          33"
        N
  
      ,
    
    0°
    33'
          40"
        E
  




KCC

Cfb




Metar
EGUL 071255Z AUTO 15005KT 9999 SCT060 SCT120 BKN160 27/15 A2979 RMK AO2 SLP091 T02690146 FZRANO $








Description
Royal Air Force Station Lakenheath, commonly abbreviated to RAF Lakenheath, is a military airbase hosting USAF forces near Lakenheath in Suffolk, England.
Climatology
Temperate Marine climate/Oceanic climate (Köppen climate classification Cfb) - Moderately cool summer and comparatively warm winter.






Runways






Designator
Length
Width
Surface
Rops




6/24          
2743          
46          
PEM          
No/No          













Airport map






Aerial View