RJCN








Nakashibetsu Airport





Airport

ICAO code


  RJCN





IATA Code

SHB




Summary

ICAO Region

APAC



ICAO Territory





Japan






 








Location

Nakashibetsu, Hokkaidō




Serving

Nakashibetsu



Elevation

214 ft



Coordinates



    43°
    34'
          24"
        N
  
      ,
    
    144°
    57'
          24"
        E
  




KCC

Dfb




Metar
RJCN 070100Z VRB02KT 9999 FEW020 BKN/// 22/17 Q1012








Airport located 2 nm from Nakashibetsu, Hokkaidō, Japan.
Climatology
Humid continental climate (Köppen climate classification Dfb)






Runways






Designator
Length
Width
Surface
Rops




8/26          
1999          
46          
ASP          
No/No          













Airport map






Aerial View