YPJT








Perth Jandakot Airport





Airport

ICAO code


  YPJT





IATA Code

JAD




Summary

ICAO Region

APAC



ICAO Territory





Australia






 








Location

, Western Australia




Serving

Perth



Elevation

99 ft



Coordinates



    32°
    5'
          51"
        S
  
      ,
    
    115°
    52'
          52"
        E
  





Metar
YPJT 071200Z AUTO 00000KT 9999 // NCD 12/09 Q1030 RF00.0/000.0

















Airport map






Aerial View