LEBA








Córdoba Airport





Airport

ICAO code


  LEBA





IATA Code

ODB




Summary

ICAO Region

EUR



ICAO Territory





Spain






 








Location

Fontanar de Quintos, Andalucia




Serving

Cordoba



Elevation

297 ft



Coordinates



    37°
    50'
          31"
        N
  
      ,
    
    4°
    50'
          56"
        W
  




KCC

Csa




Metar
LEBA 071400Z 24004KT CAVOK 30/03 Q1009








Climatology
Warm mediterranean climate (Köppen climate classification Csa).






Runways






Designator
Length
Width
Surface
Rops




3/21          
1380          
45          
ASP          
No/No          













Airport map






Aerial View