SBCB








Cabo Frio International Airport





Airport

ICAO code


  SBCB





IATA Code

CFB




Summary

ICAO Region

CARSAM



ICAO Territory





Brazil






 








Location

Cabo Frio, Rio de Janeiro




Serving

Cabo Frio



Elevation

23 ft



Coordinates



    22°
    55'
          15"
        S
  
      ,
    
    42°
    4'
          17"
        W
  




KCC

Af




Metar
SBCB 071300Z 04007KT 7000 SCT010 26/21 Q1019








Cabo Frio International Airport is the airport serving Cabo Frio, Brazil.
Climatology
Tropical rainforest climate (Köppen climate classification Af)






Runways






Designator
Length
Width
Surface
Rops




10/28          
2550          
45          
ASP          
No/No          













Airport map






Aerial View