SCCF








El Loa Airport





Airport

ICAO code


  SCCF





IATA Code

CJC




Summary

ICAO Region

CARSAM



ICAO Territory





Chile






 








Location

Calama, Antofagasta




Serving

Calama



Elevation

7543 ft



Coordinates



    22°
    29'
          53"
        S
  
      ,
    
    68°
    54'
          13"
        W
  




KCC

BWk




Metar
SCCF 071300Z 11018KT CAVOK 15/M17 Q1025








Airport serving Calama in northern Chile.
Climatology
Cold desert climate (Köppen climate classification BWk)






Runways






Designator
Length
Width
Surface
Rops




10/28          
2889          
30          
ASP          
No/No          













Airport map






Aerial View