KJAX








Jacksonville International





Airport

ICAO code


  KJAX





IATA Code

JAX




Summary

ICAO Region

NAM



ICAO Territory





United States






 








Location

Jacksonville, Florida




Serving

Jacksonville



Elevation

30 ft



Coordinates



    30°
    29'
          39"
        N
  
      ,
    
    81°
    41'
          16"
        W
  




KCC

Cfa



Airport WX

Tropical Revolving Storm




Metar
KJAX 071406Z 23003KT 9SM OVC005 25/23 A2988 RMK AO2 T02500233 $








International airport serving Jacksonville, Florida, USA. The joint civil-military airport is 13 nm north of Jacksonville.
 














Airport map






Aerial View