RKPK








Gimhae





Airport

ICAO code


  RKPK






Summary

ICAO Region

APAC



ICAO Territory





South Korea






 








Location

Busan,




Coordinates



    35°
    10'
          46"
        N
  
      ,
    
    128°
    56'
          17"
        E
  




KCC

Cfa




Metar
RKPK 071200Z 22002KT 9999 SCT030 BKN120 27/24 Q1014








Description
International airport serving Busan, South Korea.
Climatology
Humid “subtropical” climate (Köppen climate classification Cfa) - characterized by hot, humid summers and cool winters. Significant amounts of precipitation occur in all seasons in most areas. Winter rainfall is associated with large storms.






Runways






Designator
Length
Width
Surface
Rops




18L/36R          
2745          
46          
ASP          
Yes/Yes          


18R/36L          
3200          
60          
CON          
Yes/Yes          













Airport map






Aerial View








Airport accidents



B738, Busan South Korea, 2019
B762, vicinity Busan Korea, 2002