EGOS








RAF Shawbury





Airport

ICAO code


  EGOS






Summary

ICAO Region

EUR



ICAO Territory





United Kingdom






 








Location

, England




Serving

Shawbury



Elevation

249 ft



Coordinates



    52°
    47'
          53"
        N
  
      ,
    
    2°
    40'
          5"
        W
  





Metar
EGOS 071420Z AUTO 09003KT 6000 -RA OVC014/// 19/17 Q1009









Runways






Designator
Length
Width
Surface
Rops




5/23          
1379          
46          
ASP          
No/No          


18/36          
1834          
46          
ASP          
No/No          













Airport map






Aerial View