LIBP








Abruzzo Airport





Airport

ICAO code


  LIBP





IATA Code

PSR




Summary

ICAO Region

EUR



ICAO Territory





Italy






 








Location

Pescara, Abruzzo




Serving

Pescara



Elevation

48 ft



Coordinates



    42°
    25'
          56"
        N
  
      ,
    
    14°
    11'
          10"
        E
  




KCC

Cfa




Metar
LIBP 071350Z AUTO 08010KT 050V110 9999 NCD 29/22 Q1015








Abruzzo Airport (IATA: PSR, ICAO: LIBP) is an international airport serving Pescara, Italy.
Climatology
Humid subtropical climate (Köppen climate classification Cfa)






Runways






Designator
Length
Width
Surface
Rops




4/22          
2418          
45          
ASP          
Yes/Yes          













Airport map






Aerial View