KMYR








Myrtle Beach International Airport





Airport

ICAO code


  KMYR





IATA Code

MYR




Summary

ICAO Region

NAM



ICAO Territory





United States






 








Location

Myrtle Beach, South Carolina




Serving

Myrtle Beach



Elevation

25 ft



Coordinates



    33°
    40'
          47"
        N
  
      ,
    
    78°
    55'
          42"
        W
  




KCC

Cfa



Airport WX

Tropical Revolving Storm




Metar
KMYR 071356Z 35013KT 10SM BKN090 BKN120 23/22 A2982 RMK AO2 SLP098 P0001 T02330222








International airport serving Myrtle Beach, South Carolina, USA, located 3 nm south west of the city's central business district, USA. Formerly known as Myrtle Beach Jetport, the airport is on the site of the former Myrtle Beach Air Force Base.






Runways






Designator
Length
Width
Surface
Rops




18/36          
2897          
46          
ASP          
Yes/Yes          













Airport map






Aerial View