EKVJ








Stauning Vestjylland





Airport

ICAO code


  EKVJ






Summary

ICAO Region

EUR



ICAO Territory





Denmark






 








Location

Skjern,




Elevation

17 ft



Coordinates



    55°
    59'
          24"
        N
  
      ,
    
    8°
    21'
          14"
        E
  




KCC

Cfb




Metar
EKVJ 071150Z 09010KT 050V120 CAVOK 26/16 Q1014








Description
Stauning Airport is located 12 km from Skjern, Denmark.
Climatology
Temperate Marine climate/Oceanic climate (Köppen climate classification Cfb). Moderately cool summer and comparatively warm winter with a temperature range of only 14°C. Prevailing south-westerly winds from the Atlantic Ocean.






Runways






Designator
Length
Width
Surface
Rops




9/27          
1450          
30          
ASP          
No/No          













Airport map






Aerial View