HBBA








Bujumbura International





Airport

ICAO code


  HBBA






Summary

ICAO Region

AFI



ICAO Territory





Burundi






 








Location

Bujumbura,




Coordinates



    3°
    19'
          13"
        S
  
      ,
    
    29°
    19'
          3"
        E
  





Metar
HBBA 071000Z 18020KT 8000 FEW030TCU 30/20 Q1016 NOSIG








Bujumbura International Airport (IATA: BJM, ICAO: HBBA) is an airport in Bujumbura, the capital of Burundi.






Runways






Designator
Length
Width
Surface
Rops




2/20          
0          
0          
UNK          
No/No          


17/35          
3600          
45          
ASP          
Yes/Yes          













Airport map






Aerial View