PFCB








Chenega Bay Airport





Airport

ICAO code


  PFCB





IATA Code

NCN




Summary

ICAO Region

NAM



ICAO Territory





Alaska






 








Location

, Alaska




Serving

Chenega



Elevation

72 ft



Coordinates



    60°
    4'
          38"
        N
  
      ,
    
    147°
    59'
          31"
        W
  





Metar
PFCB 071315Z AUTO 04003KT 10SM SCT008 OVC028 12/12 A2992 RMK AO2 T01230119









Runways






Designator
Length
Width
Surface
Rops




15/33          
914          
23          
GRAVEL-G          
No/No          













Airport map






Aerial View