KPIH








Pacatello Regional Airport





Airport

ICAO code


  KPIH






Summary

ICAO Region

NAM



ICAO Territory





United States






 








Location

Pacatello, Idaho,




Coordinates



    42°
    54'
          42"
        N
  
      ,
    
    112°
    35'
          22"
        W
  




KCC

BSk



Airport CFIT

Altimeter Temperature Error Correction



Airport RE

Hot and High Operations




Metar
KPIH 071353Z 00000KT 10SM CLR 10/06 A3020 RMK AO2 SLP191 T01000056 $








Description
Pocatello Regional Airport is a public airport located about 11kmwest of the city of Pocatello, in Power County, Idaho.
Climatology
Cold Semi-arid climate (Köppen climate classification BSk). - Hot, sometimes extremely hot summers and cold, sometimes very cold winters. Some snowfall during the winter. Areas featuring cold semi-arid climates are sometimes subject to major temperature swings during a 24 hour period.






Runways






Designator
Length
Width
Surface
Rops




17/35          
2179          
30          
ASP          
Yes/Yes          


3/21          
2761          
46          
ASP          
Yes/Yes          













Airport map






Aerial View