LPMT








Montijo Air Base





Airport

ICAO code


  LPMT





IATA Code

PAF




Summary

ICAO Region

EUR



ICAO Territory





Portugal






 








Location

Montijo, Setubal




Serving

Portuguese military



Elevation

46 ft



Coordinates



    38°
    42'
          14"
        N
  
      ,
    
    9°
    2'
          9"
        W
  




KCC

Csb




Metar
LPMT 071300Z 25008KT 210V290 9999 SCT040 23/15 Q1012








Montijo Air Base - officially known as Air Base No. 6 - is a military air base located in Montijo, Portugal.
Climatology
Temperate mediterranean climate (Köppen climate classification Csb)






Runways






Designator
Length
Width
Surface
Rops




1/19          
2147          
45          
ASP          
No/No          


8/26          
2440          
45          
CON          
No/No          













Airport map






Aerial View