ZBAA








Beijing Capital International Airport





Airport

ICAO code


  ZBAA





IATA Code

PEK




Summary

ICAO Region

APAC



ICAO Territory





China






 








Location

Chaoyang District, Beijing




Serving

Beijing



Elevation

116 ft



Coordinates



    40°
    4'
          31"
        N
  
      ,
    
    116°
    35'
          32"
        E
  




KCC

Cwa




Metar
ZBAA 071400Z VRB01MPS CAVOK 20/19 Q1017 NOSIG








Description
International airport serving the city of Beijing.
Climatology
Within the Köppen Climate Classification System, ((Koppen climate classification Cwa)) this climate type generally has warm and humid summers with mild winters. Its extent is from 30 to 50° of latitude mainly on the eastern and western borders of most continents. During the winter, the main weather feature is the mid-latitude cyclone. Convective thunderstorms provide precipitation in the summer months.














Airport map






Aerial View