KSUX








Sioux Gateway





Airport

ICAO code


  KSUX






Summary

ICAO Region

NAM



ICAO Territory





United States






 








Location

Sioux City, Iowa,




Coordinates



    42°
    24'
          6"
        N
  
      ,
    
    96°
    23'
          3"
        W
  




KCC

Dfa



Airport CFIT

Altimeter Temperature Error Correction




Metar
KSUX 071152Z 00000KT 10SM CLR 07/06 A3030 RMK AO2 SLP263 T00670061 10106 20061 53003








Description
Sioux Gateway Airport, also known as Colonel Bud Day Field, is a joint civil-military public airport located 10 km south of Sioux City and just west of Sergeant Bluff, in Woodbury County, Iowa, United States.
Climatology
Humid continental climate (Köppen climate classification Dfa) - characterized by four seasons: cold, windy, snowy winters, mild springs, hot, humid summers, and crisp and relatively short autumns. Precipitation reaches its lowest in January and February and peaks in summer and latter half of spring.






Runways






Designator
Length
Width
Surface
Rops




17/35          
2012          
46          
ASP          
Yes/Yes          


13/31          
2744          
46          
CON          
Yes/Yes          













Airport map






Aerial View








Airport accidents



DC10, Sioux City USA, 1989