LFBF








Toulouse-Francazal (BA 101) Air Base





Airport

ICAO code


  LFBF






Summary

ICAO Region

EUR



ICAO Territory





France






 








Location

, Midi-Pyrenees




Serving

Toulouse



Elevation

535 ft



Coordinates



    43°
    32'
          44"
        N
  
      ,
    
    1°
    22'
          3"
        E
  





Metar
LFBF 071400Z AUTO 30013KT 9999 FEW029 OVC049 24/13 Q1009









Runways






Designator
Length
Width
Surface
Rops




12/30          
1800          
45          
ASP          
No/No          













Airport map






Aerial View