LFPN








Toussus-le-Noble Airport





Airport

ICAO code


  LFPN





IATA Code

TNF




Summary

ICAO Region

EUR



ICAO Territory





France






 








Location

, Ile-de-France




Serving

Toussus-le-Noble



Elevation

538 ft



Coordinates



    48°
    45'
          7"
        N
  
      ,
    
    2°
    6'
          22"
        E
  





Metar
LFPN 071300Z AUTO 11006KT 9999 FEW015 SCT021 BKN170 21/17 Q1009 NOSIG









Runways






Designator
Length
Width
Surface
Rops




07R/25L          
1050          
30          
ASP          
No/No          


07L/25R          
1100          
30          
ASP          
No/No          













Airport map






Aerial View