MMRX








General Lucio Blanco International Airport





Airport

ICAO code


  MMRX





IATA Code

REX




Summary

ICAO Region

CARSAM



ICAO Territory





Mexico






 








Location

Reynosa, Tamaulipas




Serving

Reynosa



Elevation

139 ft



Coordinates



    26°
    0'
          32"
        N
  
      ,
    
    98°
    13'
          43"
        W
  




KCC

BSh




Metar
MMRX 071240Z 04010KT 7SM BKN020 24/22 A2991 RMK 8/500 ISOL AC








General Lucio Blanco International Airport is an international airport located in Reynosa, Tamaulipas, Mexico, near the Mexico–United States border.
Climatology
Warm Semi-arid climate (Köppen climate classification BSh)






Runways






Designator
Length
Width
Surface
Rops




13/31          
1903          
45          
ASP          
Yes/Yes          













Airport map






Aerial View