ESTA








Angelholm Helsingborg Airport





Airport

ICAO code


  ESTA






Summary

ICAO Region

EUR



ICAO Territory





Sweden






 








Location

Angelholm, Sweden,




Coordinates



    56°
    17'
          28"
        N
  
      ,
    
    12°
    51'
          18"
        E
  




KCC

Cfb




Metar
ESTA 071220Z 11015KT CAVOK 27/13 Q1016








Description
Airport serving towns of Angelholm and Helsingborg, southwest Sweden.
Climatology
Temperate Marine climate/Oceanic climate (Köppen climate classification Cfb). Moderately cool summer and comparatively warm winter.






Runways






Designator
Length
Width
Surface
Rops




14/32          
1945          
40          
ASP          
Yes/Yes          


4/22          
1997          
40          
ASP          
No/No          













Airport map






Aerial View