YPAD








Adelaide International Airport





Airport

ICAO code


  YPAD





IATA Code

ADL




Summary

ICAO Region

APAC



ICAO Territory





Australia






 








Location

, South Australia




Serving

Adelaide



Elevation

20 ft



Coordinates



    34°
    56'
          42"
        S
  
      ,
    
    138°
    31'
          50"
        E
  





Metar
YPAD 071400Z 31006KT CAVOK 13/09 Q1024

















Airport map






Aerial View








Airport accidents



DH8C, vicinity Adelaide Australia, 2015
A320 / F50, Adelaide Australia, 2016