SBFI








Foz do Iguaçu International Airport





Airport

ICAO code


  SBFI





IATA Code

IGU




Summary

ICAO Region

CARSAM



ICAO Territory





Brazil






 








Location

Foz do Iguaçu, Parana




Serving

Foz do Iguaçu



Elevation

786 ft



Coordinates



    25°
    36'
          1"
        S
  
      ,
    
    54°
    29'
          6"
        W
  




KCC

Cfa




Metar
SBFI 071300Z 03005KT 8000 NSC 24/17 Q1015








Foz do Iguaçu/Cataratas International Airport, is the airport serving Foz do Iguaçu, Brazil.
Climatology
Humid subtropical climate (Köppen climate classification Cfa)






Runways






Designator
Length
Width
Surface
Rops




14/32          
2195          
45          
ASP          
Yes/Yes          













Airport map






Aerial View