SBCT








Afonso Pena International Airport





Airport

ICAO code


  SBCT





IATA Code

CWB




Summary

ICAO Region

CARSAM



ICAO Territory





Brazil






 








Location

São José dos Pinhais, Parana




Serving

Curitiba



Elevation

2988 ft



Coordinates



    25°
    31'
          52"
        S
  
      ,
    
    49°
    10'
          32"
        W
  




KCC

Cfb




Metar
SBCT 071300Z 01004KT 340V060 9000 BKN009 BKN030 18/14 Q1022








Afonso Pena International Airport is the main airport serving Curitiba, Brazil, located in the adjoining municipality of São José dos Pinhais.
Climatology
Subtropical highland/oceanic climate (Köppen climate classification Cfb)






Runways






Designator
Length
Width
Surface
Rops




11/29          
1800          
45          
ASP          
Yes/Yes          


15/33          
2215          
45          
ASP          
Yes/Yes          













Airport map






Aerial View