KBGR








Bangor International Airport





Airport

ICAO code


  KBGR





IATA Code

BGR




Summary

ICAO Region

NAM



ICAO Territory





United States






 








Location

Bangor, Maine




Serving

Bangor



Elevation

192 ft



Coordinates



    44°
    48'
          27"
        N
  
      ,
    
    68°
    49'
          41"
        W
  




KCC

Dfb



Airport CFIT

Altimeter Temperature Error Correction



Airport WX

Cumulonimbus




Metar
KBGR 071305Z 34007KT 7SM FEW006 FEW014 OVC027 15/14 A2989 RMK AO2 RAB1254E04 P0000 T01500139








Description
International airport serving Bangor, Maine.














Airport map






Aerial View