SELT








Cotopaxi International Airport





Airport

ICAO code


  SELT





IATA Code

LTX




Summary

ICAO Region

CARSAM



ICAO Territory





Ecuador






 








Location

Latacunga, Cotopaxi




Serving

Latacunga



Elevation

9205 ft



Coordinates



    0°
    54'
          25"
        S
  
      ,
    
    78°
    36'
          57"
        W
  





Metar
SELT 071300Z 18008KT 9999 FEW030 BKN100 12/05 Q1031









Runways






Designator
Length
Width
Surface
Rops




18/36          
3693          
45          
ASP          
Yes/Yes          













Airport map






Aerial View