DAUH








Hassi Messaoud/Oued Irara - Krim Belkacem Airport





Airport

ICAO code


  DAUH





IATA Code

HME




Summary

ICAO Region

AFI



ICAO Territory





Algeria






 








Location

Hassi Messaoud, Ouargla




Serving

Hassi Messaoud



Elevation

459 ft



Coordinates



    31°
    40'
          31"
        N
  
      ,
    
    6°
    8'
          44"
        E
  





Metar
DAUH 071100Z 30004KT 250V010 3000 SA NSC 36/19 Q1014








Description
Oued Irara - Krim Belkacem Airport is an airport serving Hassi Messaoud, a city in the Ouargla Province of eastern Algeria. It is located 5 nm southeast of the city.






Runways






Designator
Length
Width
Surface
Rops




1/19          
0          
0          
UNK          
Yes/Yes          


18/36          
3000          
45          
ASP          
Yes/Yes          













Airport map






Aerial View