KSHV








Shreveport Regional Airport





Airport

ICAO code


  KSHV






Summary

ICAO Region

NAM



ICAO Territory





United States






 








Location

Shreveport, Louisiana,




Coordinates



    32°
    26'
          41"
        N
  
      ,
    
    93°
    49'
          32"
        W
  




KCC

Cfa




Metar
KSHV 071356Z 01010KT 10SM FEW200 23/14 A3004 RMK SLPNO








Description
Shreveport Regional Airport is a public use airport located 7 km southwest of the central business district of Shreveport, Louisiana.
Climatology
Humid “subtropical” climate (Köppen climate classification Cfa) - characterized by hot, humid summers and cool winters. Significant amounts of precipitation occur in all seasons in most areas. Winter rainfall (and sometimes snowfall) is associated with large storms that the westerlies steer from west to east. Most summer rainfall occurs during thunderstorms and occasional tropical storms (hurricanes).






Runways






Designator
Length
Width
Surface
Rops




5/23          
1890          
46          
ASP          
Yes/Yes          


14/32          
2545          
61          
ASP          
Yes/Yes          













Airport map






Aerial View