VOTV








Trivandrum International Airport





Airport

ICAO code


  VOTV






Summary

ICAO Region

APAC



ICAO Territory





India






 








Location

Thiruvananthapuram, Kerala,




Coordinates



    8°
    29'
          9"
        N
  
      ,
    
    76°
    55'
          16"
        E
  




KCC

Am




Metar
VOTV 071230Z 32009KT 5000 BR FEW015 SCT080 FEW025CB 28/25 Q1009 NOSIG








Description
Trivandrum International Airport is a public use airport located 2 km west of Thiruvananthapuram, a city in the in the state of Kerala, India.
Climatology
Tropical Monsoon climate (Köppen climate classification Am) - monthly mean temperatures above 18°C in every month of the year and features wet and dry seasons. A tropical monsoon climate typically features less pronounced dry seasons than a tropical savanna climate and sees less variance in temperatures during the course of the year. The driest month nearly always occurs at or soon after the "winter" solstice.














Airport map






Aerial View








Airport accidents



B738, vicinity Trivandrum India, 2015