YBAS








Alice Springs Airport





Airport

ICAO code


  YBAS





IATA Code

ASP




Summary

ICAO Region

APAC



ICAO Territory





Australia






 








Location

, Northern Territory




Serving

Alice Springs



Elevation

1789 ft



Coordinates



    23°
    48'
          24"
        S
  
      ,
    
    133°
    54'
          8"
        E
  





Metar
YBAS 071330Z AUTO 12006KT 9999 // NCD 20/07 Q1023 RF00.0/000.0

















Airport map






Aerial View