KYNG








Youngstown-Warren Regional Airport





Airport

ICAO code


  KYNG






Summary

ICAO Region

NAM



ICAO Territory





United States






 








Location

Youngstown-Warren, Ohio,




Coordinates



    41°
    15'
          27"
        N
  
      ,
    
    80°
    40'
          2"
        W
  




KCC

Dfa



Airport WX

Cumulonimbus




Metar
KYNG 071351Z 26008KT 10SM BKN007 BKN013 OVC055 14/12 A2999 RMK AO2 SLP152 BINOVC T01390117








Description
Youngstown–Warren Regional Airport is a joint civil–military (USAFR) airport located 19 km north of the central business district of Youngstown and 16 km east of Warren in Trumbull County, Ohio.
Climatology
Humid continental climate (Köppen climate classification Dfa) - characterized by four seasons: cold, windy, snowy winters, mild springs, hot, humid summers, and crisp and relatively short autumns. Precipitation reaches its lowest in January and February and peaks in summer and latter half of spring.






Runways






Designator
Length
Width
Surface
Rops




143/323          
1067          
18          
ASPH-F          
No/No          


5/23          
1525          
46          
ASP          
Yes/Yes          


14/32          
2744          
46          
ASP          
Yes/Yes          













Airport map






Aerial View