FMNM








Amborovy Airport





Airport

ICAO code


  FMNM





IATA Code

MJN




Summary

ICAO Region

AFI



ICAO Territory





Madagascar






 








Location

Amborovy, Boeny




Serving

Mahajanga



Elevation

87 ft



Coordinates



    15°
    40'
          1"
        S
  
      ,
    
    46°
    21'
          6"
        E
  




KCC

Aw




Metar
FMNM 071200Z 12009KT 080V160 9999 FEW023 35/15 Q1016 NOSIG








Amborovy Airport, also known as Philibert Tsiranana Airport, is an airport in Mahajanga, Madagascar.
Climatology
Tropical savanna climate (Köppen climate classification Aw)






Runways






Designator
Length
Width
Surface
Rops




14/32          
2200          
45          
ASP          
No/No          













Airport map






Aerial View