RJNT








Toyama Airport





Airport

ICAO code


  RJNT





IATA Code

TOY




Summary

ICAO Region

APAC



ICAO Territory





Japan






 








Location

Toyama, Toyama Prefecture




Serving

Toyama



Elevation

127 ft



Coordinates



    36°
    38'
          38"
        N
  
      ,
    
    137°
    11'
          22"
        E
  




KCC

Cfa




Metar
RJNT 071200Z 18003KT 9999 FEW020 BKN080 27/24 Q1014








Toyama Airport is an airport located 3 nm south southwest of Toyama City, Toyama Prefecture, Japan.
Climatology
Humid Sub-tropical climate (Köppen climate classification Cfa)






Runways






Designator
Length
Width
Surface
Rops




2/20          
2000          
46          
ASP          
Yes/Yes          













Airport map






Aerial View