SPME








Capitan FAP Pedro Canga Rodriguez Airport





Airport

ICAO code


  SPME





IATA Code

TBP




Summary

ICAO Region

CARSAM



ICAO Territory





Peru






 








Location

Tumbes, Tumbes




Serving

Tumbes



Elevation

115 ft



Coordinates



    3°
    33'
          9"
        S
  
      ,
    
    80°
    22'
          53"
        W
  




KCC

BWh




Metar
SPME 070100Z 29003KT 9999 FEW015 22/19 Q1010 RMK BIRD HAZARD RWY 32/14 PP000








Airport serving Tumbes, Peru. It is the main airport of the Tumbes Region.
Climatology
Warm Desert climate (Köppen climate classification BWh).






Runways






Designator
Length
Width
Surface
Rops




14/32          
2500          
45          
ASP          
No/No          













Airport map






Aerial View