DAUE








El Golea Airport





Airport

ICAO code


  DAUE





IATA Code

ELG




Summary

ICAO Region

AFI



ICAO Territory





Algeria






 








Location

, Ghardaia




Serving

El Golea



Elevation

1306 ft



Coordinates



    30°
    34'
          17"
        N
  
      ,
    
    2°
    51'
          35"
        E
  





Metar
DAUE 071200Z 29006KT CAVOK 36/19 Q1016









Runways






Designator
Length
Width
Surface
Rops




10/28          
1800          
45          
ASP          
No/No          


18/36          
3000          
45          
ASP          
No/No          













Airport map






Aerial View