LIMW








Aosta Valley Airport





Airport

ICAO code


  LIMW





IATA Code

AOT




Summary

ICAO Region

EUR



ICAO Territory





Italy






 








Location

Saint-Christophe, Aosta Valley




Serving

Aosta



Elevation

1791 ft



Coordinates



    45°
    44'
          20"
        N
  
      ,
    
    7°
    22'
          6"
        E
  




KCC

Dfb




Metar
LIMW 071350Z 12018KT 9999 FEW095 26/13 Q1015








Aosta Valley Airport formerly Corrado Gex Airport is an airport located in Saint-Christophe and serving Aosta, a city in the Aosta Valley region of Italy.
Climatology
Humid continental climate (Köppen climate classification Dfb)






Runways






Designator
Length
Width
Surface
Rops




9/27          
1246          
30          
ASP          
No/No          













Airport map






Aerial View