RJFT








Kumamato Airport





Airport

ICAO code


  RJFT





IATA Code

KMJ




Summary

ICAO Region

APAC



ICAO Territory





Japan






 








Location

Mashiki, Kumamoto Prefecture, Kyushu




Serving

Kumamoto



Elevation

632 ft



Coordinates



    32°
    50'
          4"
        N
  
      ,
    
    130°
    51'
          30"
        E
  




KCC

Cfa




Metar
RJFT 071200Z 17003KT 140V200 9999 FEW035 SCT045 BKN060 28/22 Q1015








Airport in Mashiki, Kumamoto, Japan.
Climatology
Humid Sub-tropical climate (Köppen climate classification Cfa)






Runways






Designator
Length
Width
Surface
Rops




7/25          
2999          
46          
ASP          
Yes/Yes          













Airport map






Aerial View