LGSO








Syros Island National Airport





Airport

ICAO code


  LGSO





IATA Code

JSY




Summary

ICAO Region

EUR



ICAO Territory





Greece






 








Location

Syros, Cyclades




Serving

Syros



Elevation

236 ft



Coordinates



    37°
    25'
          23"
        N
  
      ,
    
    24°
    56'
          59"
        E
  




KCC

Csa




Metar
LGSO 071350Z AUTO 36011KT //// // ////// 30/19 Q1014 RE//








Syros Island National Airport is an airport serving Syros Island in Greece. It is also known as Syros National Airport "Demetrius Vikelas"
Climatology
Warm mediterranean climate (Köppen climate classification Csa)






Runways






Designator
Length
Width
Surface
Rops




18/36          
1080          
30          
ASP          
No/No          













Airport map






Aerial View