HKLU








Manda Airport





Airport

ICAO code


  HKLU





IATA Code

LAU




Summary

ICAO Region

AFI



ICAO Territory





Kenya






 








Location

Manda, Lamu County




Serving

Lamu Archipelago



Elevation

20 ft



Coordinates



    2°
    15'
          18"
        S
  
      ,
    
    40°
    54'
          52"
        E
  




KCC

Aw




Metar
HKLU 071200Z 18005KT 9999 SCT027 31/21 Q1014








Manda Airport is located in on Manda Island in the Lamu Archipelago of Lamu County on the western shore of the Indian Ocean, on the Kenya coast.
Climatology
Tropical Savannah climate (Köppen climate classification Aw)






Runways






Designator
Length
Width
Surface
Rops




7/25          
931          
14          
GRE          
No/No          


8/26          
931          
14          
GRE          
No/No          


16/34          
1004          
18          
ASP          
No/No          













Airport map






Aerial View