LSME








Emmen Airport





Airport

ICAO code


  LSME





IATA Code

EML




Summary

ICAO Region

EUR



ICAO Territory





Switzerland






 








Location

Emmen Dorf, Luzern




Serving

Emmen



Elevation

1400 ft



Coordinates



    47°
    5'
          33"
        N
  
      ,
    
    8°
    18'
          18"
        E
  





Metar
LSME 071420Z AUTO VRB02KT 9999NDV NCD 27/17 Q1011 RMK








Militärflugplatz Emmen (Emmen Military Air Base) (IATA: EML, ICAO: LSME) is a military airfield north of Emmen, Switzerland, located northwest of Lucerne.
Climatology
Humid continental climate (Köppen climate classification Dfb)






Runways






Designator
Length
Width
Surface
Rops




4/22          
2502          
40          
ASP          
No/No          













Airport map






Aerial View