KXNA








Northwest Arkansas Regional Airport





Airport

ICAO code


  KXNA






Summary

ICAO Region

NAM



ICAO Territory





United States






 








Location

Fayetteville, Arkansas,




Coordinates



    36°
    16'
          54"
        N
  
      ,
    
    94°
    18'
          25"
        W
  




KCC

Cfa



Airport RI

Runway Misidentification




Metar
KXNA 071353Z 04008KT 10SM CLR 17/09 A3024 RMK AO2 SLP229 T01720094








Description
Regional airport located in Highfill, Arkansas which is 15 nm northwest of the city of Fayetteville and 10 nm northwest of the city of Springdale. The airport also serves the cities of Bentonville, Rogers, and Siloam Springs.
Climatology
Humid “subtropical” climate (Köppen climate classification Cfa) - characterized by hot, humid summers and cool winters. Significant amounts of precipitation occur in all seasons in most areas. Winter rainfall (and sometimes snowfall) is associated with large storms that the westerlies steer from west to east. Most summer rainfall occurs during thunderstorms and occasional tropical storms (hurricanes).






Runways






Designator
Length
Width
Surface
Rops




16/34          
2682          
46          
CON          
Yes/Yes          













Airport map






Aerial View