YBRM








Broome International Airport





Airport

ICAO code


  YBRM





IATA Code

BME




Summary

ICAO Region

APAC



ICAO Territory





Australia






 








Location

Broome, Western Australia




Serving

Broome



Elevation

56 ft



Coordinates



    17°
    57'
          9"
        S
  
      ,
    
    122°
    14'
          2"
        E
  




KCC

BSh




Metar
YBRM 071400Z AUTO 31006KT 9999 // NCD 27/21 Q1016 RF00.0/000.0

















Airport map






Aerial View