SUDU








Durazno





Airport

ICAO code


  SUDU






Summary

ICAO Region

CARSAM



ICAO Territory





Uruguay






 








Location

Durazno,




Coordinates



    33°
    21'
          33"
        S
  
      ,
    
    56°
    29'
          59"
        W
  




KCC

Cfa




Metar
SUDU 071400Z 12005KT 080V160 CAVOK 19/12 Q1015








Description
Santa Bernardina International Airport is the airport serving Durazno, Uruguay.
Climatology
(Köppen climate classification Cfa)






Runways






Designator
Length
Width
Surface
Rops




9/27          
1452          
30          
ASP          
No/No          


3/21          
2279          
45          
PEM          
No/No          













Airport map






Aerial View