HTAR








Arusha Airport





Airport

ICAO code


  HTAR





IATA Code

ARK




Summary

ICAO Region

AFI



ICAO Territory





Tanzania






 








Location

Arusha, Arusha Region




Serving

Arusha



Elevation

4550 ft



Coordinates



    3°
    22'
          0"
        S
  
      ,
    
    36°
    37'
          19"
        E
  




KCC

Cwb




Metar
HTAR 070900Z 09005KT 9999 BKN024 22/13 Q1026 NOSIG








Arusha Airport is an airport serving Arusha, the capital of the Arusha Region of Tanzania.
Climatology
Subtropical highland climate (Köppen climate classification Cwb)






Runways






Designator
Length
Width
Surface
Rops




9/27          
1639          
32          
BIT          
No/No          













Airport map






Aerial View