EGPA








Kirkwall Airport





Airport

ICAO code


  EGPA





IATA Code

KOI




Summary

ICAO Region

EUR



ICAO Territory





United Kingdom






 








Location

Grimsetter, Kirkwall, Orkney, Scotland




Serving

Kirkwall



Elevation

58 ft



Coordinates



    58°
    57'
          30"
        N
  
      ,
    
    2°
    54'
          19"
        W
  




KCC

Cfb




Metar
EGPA 071420Z 15005KT 110V190 8000 2000N VCFG SCT005 16/15 Q1014








Description
Kirkwall Airport is the main airport serving the Orkney Islands in Scotland. It is located 2.5 nm southeast of the town of Kirkwall.
Climatology
Temperate Marine climate/Oceanic climate (Köppen climate classification Cfb). Moderately cool summer and comparatively warm winter with a temperature range of only 14°C. Prevailing south-westerly winds from the Atlantic Ocean.






Runways






Designator
Length
Width
Surface
Rops




15/33          
680          
18          
ASP          
No/No          


6/24          
1183          
46          
ASP          
No/No          


9/27          
1428          
46          
ASP          
No/No          













Airport map






Aerial View








Airport accidents



SF34, Kirkwall Orkney UK, 2003