RJSI








Hanamaki Airport





Airport

ICAO code


  RJSI





IATA Code

HNA




Summary

ICAO Region

APAC



ICAO Territory





Japan






 








Location

Hanamaki, Iwate Prefecture




Serving

Hanamaki



Elevation

294 ft



Coordinates



    39°
    25'
          17"
        N
  
      ,
    
    141°
    8'
          18"
        E
  




KCC

Cfa




Metar
RJSI 070100Z VRB02KT 9999 FEW015 SCT060 BKN070 25/21 Q1014








Regional airport located 6 km north-northeast of the city of Hanamaki, Iwate Prefecture, in the Tohoku region of northern Japan.
Climatology
Humid Sub-tropical climate (Köppen climate classification Cfa)






Runways






Designator
Length
Width
Surface
Rops




2/20          
2500          
45          
ASP          
Yes/Yes          













Airport map






Aerial View