RJOK








Kochi Airport





Airport

ICAO code


  RJOK





IATA Code

KCZ




Summary

ICAO Region

APAC



ICAO Territory





Japan






 








Location

Nankoku, Kochi Prefecture




Serving

Kochi



Elevation

29 ft



Coordinates



    33°
    32'
          51"
        N
  
      ,
    
    133°
    40'
          27"
        E
  




KCC

Cfa




Metar
RJOK 071300Z AUTO 36006KT 9999 NCD 25/22 Q1014








Kōchi Airport, also known as Kōchi Ryōma Airport, is a regional airport in Nankoku, a city in Kōchi Prefecture of Japan. It is located on the southeastern coast, 13km east of the city of Kōchi.
Climatology
Humid Sub-tropical climate (Köppen climate classification Cfa)






Runways






Designator
Length
Width
Surface
Rops




14/32          
2500          
45          
ASP          
Yes/Yes          













Airport map






Aerial View