GVSV








São Pedro/Cesária Évora Airport





Airport

ICAO code


  GVSV





IATA Code

VXE




Summary

ICAO Region

AFI



ICAO Territory





Cape Verde






 








Location

São Pedro, São Vicente Island, Ilhas de Barlavento




Serving

Mindelo



Elevation

66 ft



Coordinates



    16°
    50'
          8"
        N
  
      ,
    
    25°
    3'
          14"
        W
  





Metar
GVSV 071500Z 04015KT 9999 SCT022 SCT100 29/21 Q1012 NOSIG









Runways






Designator
Length
Width
Surface
Rops




7/25          
2000          
30          
ASP          
No/No          













Airport map






Aerial View