GMTA








Cherif Al Idrissi Airport





Airport

ICAO code


  GMTA





IATA Code

AHU




Summary

ICAO Region

AFI



ICAO Territory





Morocco






 








Location

Boukidan, Tanger-Tetouan-Al Hoceima region




Serving

Al Hoceima



Elevation

95 ft



Coordinates



    35°
    10'
          37"
        N
  
      ,
    
    3°
    50'
          22"
        W
  




KCC

Csa




Metar
GMTA 071300Z 36005KT 280V030 8000 BKN080 SCT200 27/12 Q1009 NOSIG








Cherif Al Idrissi Airport is an airport serving Al Hoceima, Morocco. It is the second-busiest airport in the Tanger-Tetouan-Al Hoceima region of northern Morocco.
Climatology
Warm mediterranean climate (Köppen climate classification Csa)






Runways






Designator
Length
Width
Surface
Rops




18/36          
2500          
45          
ASP          
No/No          













Airport map






Aerial View








Airport accidents



AT76, vicinity Al Hoceima Morocco, 2018