PACM








Scammon Bay Airport





Airport

ICAO code


  PACM





IATA Code

SCM




Summary

ICAO Region

NAM



ICAO Territory





Alaska






 








Location

, Alaska




Serving

Scammon Bay



Elevation

14 ft



Coordinates



    61°
    50'
          43"
        N
  
      ,
    
    165°
    34'
          17"
        W
  





Metar
PACM 071203Z AUTO 02006KT 10SM BKN011 BKN018 07/05 A2992 RMK AO2









Runways






Designator
Length
Width
Surface
Rops




10/28          
914          
23          
GVL          
No/No          


04W/22W          
3048          
152          
WATER-E          
No/No          













Airport map






Aerial View