KCVS








Cannon Air Force Base





Airport

ICAO code


  KCVS






Summary

ICAO Region

NAM



ICAO Territory





United States






 








Location

Clovis, New Mexico




Serving

Clovis



Elevation

4295 ft



Coordinates



    34°
    23'
          36"
        N
  
      ,
    
    103°
    19'
          10"
        W
  




KCC

BSk



Airport RE

Hot and High Operations




Metar
KCVS 071355Z AUTO 12005KT 10SM CLR 18/14 A3033 RMK AO2 SLP217 T01840141 $








Description
Cannon Air Force Base is a United States Air Force installation located 7 nm west the central business district of Clovis, New Mexico.














Airport map






Aerial View