FIMP








Mauritius/Sir Seewoosagur Ramgoolam





Airport

ICAO code


  FIMP





IATA Code

MRU




Summary

ICAO Region

AFI



ICAO Territory





Mauritius






 








Location

Plaine Magnein, Mauritius




Serving

Port Louis



Elevation

186 ft



Coordinates



    20°
    25'
          48"
        S
  
      ,
    
    57°
    40'
          59"
        E
  




KCC

Aw




Metar
FIMP 071400Z 13009KT 9999 VCSH BKN016 23/18 Q1023








Sir Seewoosagur Ramgoolam International Airport, also known as Plaisance Airport or SSR Airport, is an international airport serving the island country of Mauritius. The airport is located at Plaine Magnien, near Plaisance and 48 km southeast of Port Louis, the capital of Mauritius.
Climatology
Tropical Savanna climate (Köppen climate classification Aw)






Runways






Designator
Length
Width
Surface
Rops




14/32          
3370          
45          
ASP          
Yes/Yes          













Airport map






Aerial View








Airport accidents



B773, Mauritius, 2018