LFTH








Toulon-Hyères Airport





Airport

ICAO code


  LFTH





IATA Code

TLN




Summary

ICAO Region

EUR



ICAO Territory





France






 








Location

, Provence-Alpes-Cote d&#039;Azur




Serving

Hyeres



Elevation

7 ft



Coordinates



    43°
    5'
          50"
        N
  
      ,
    
    6°
    8'
          46"
        E
  





Metar
LFTH 071400Z AUTO 08021G32KT 9000 SCT042 28/20 Q1012 NOSIG









Runways






Designator
Length
Width
Surface
Rops




14/32          
1900          
50          
ASP          
Yes/Yes          


5/23          
2120          
45          
ASP          
Yes/Yes          













Airport map






Aerial View








Airport accidents



A318, vicinity Toulon-Hyères France, 2019