KLAS








Las Vegas/ Harry Reid International Airport





Airport

ICAO code


  KLAS





IATA Code

LAS




Summary

ICAO Region

NAM



ICAO Territory





United States






 








Location

Las Vegas, Nevada




Serving

Las Vegas



Elevation

2181 ft



Coordinates



    36°
    5'
          8"
        N
  
      ,
    
    115°
    8'
          60"
        W
  




KCC

BWh



Airport LOS

Parallel Runway Operation




Metar
KLAS 071156Z 21006KT 10SM FEW120 27/M02 A2997 RMK AO2 SLP117 T02721017 10339 20272 53004 $








International airport 5 nm south of downtown Las Vegas, Nevada, USA. Previously known as McCarran International/McCarran Field.






Runways






Designator
Length
Width
Surface
Rops




01L/19R          
2739          
46          
CON          
Yes/Yes          


01R/19L          
2979          
46          
ASP          
Yes/Yes          


07R/25L          
3208          
46          
ASP          
Yes/Yes          


07L/25R          
4423          
46          
ASP          
Yes/Yes          













Airport map






Aerial View








Airport accidents



B772, Las Vegas NV USA, 2015
B752, Las Vegas NV USA, 2008
A319, Las Vegas NV USA, 2006