LIVD








Toblach Airport





Airport

ICAO code


  LIVD






Summary

ICAO Region

EUR



ICAO Territory





Italy






 








Location

Toblach, South Tyrol




Serving

Toblach



Elevation

4068 ft



Coordinates



    46°
    43'
          38"
        N
  
      ,
    
    12°
    13'
          51"
        E
  




KCC

Dfb




Metar
LIVD 071155Z AUTO 30006KT 250V340 //// 23/11 Q1021








Toblach Airport lies approximately 1 km to the South of the village of Toblach, in the South Tyrol, and is Italy's northernmost and highest airport. Military airfield with some civil use.
Climatology
Humid continental climate (Köppen climate classification Dfb)














Airport map






Aerial View