OISR








Lamerd Airport





Airport

ICAO code


  OISR





IATA Code

LFM




Summary

ICAO Region

MID



ICAO Territory





Iran






 








Location

Lamerd, Fars Province




Serving

Lamerd



Elevation

1337 ft



Coordinates



    27°
    22'
          22"
        N
  
      ,
    
    53°
    11'
          24"
        E
  




KCC

BWh




Metar
OISR 071400Z 29010KT 7000 FEW035TCU 40/24 Q1004 A2965 NOSIG








Airport 4km north of the city of Lamerd, Iran.
Climatology
Warm Desert climate (Köppen climate classification BWh).






Runways






Designator
Length
Width
Surface
Rops




11/29          
3054          
45          
ASP          
No/No          













Airport map






Aerial View