MMOX








Xoxocotlán International Airport





Airport

ICAO code


  MMOX





IATA Code

OAX




Summary

ICAO Region

CARSAM



ICAO Territory





Mexico






 








Location

San Juan Bautista la Raya, Oaxaca




Serving

Oaxaca



Elevation

4989 ft



Coordinates



    17°
    0'
          4"
        N
  
      ,
    
    96°
    43'
          31"
        W
  




KCC

Aw




Metar
MMOX 071155Z 29002KT 6SM SCT025 BKN190 17/16 A3008 RMK 8/502 AC








Xoxocotlán International Airport is an international airport located at Oaxaca, Oaxaca, Mexico.
Climatology
Tropical Savannah Climate (Köppen climate classification Aw)






Runways






Designator
Length
Width
Surface
Rops




1/19          
2450          
45          
ASP          
No/No          













Airport map






Aerial View