RKPC








Jeju





Airport

ICAO code


  RKPC






Summary

ICAO Region

APAC



ICAO Territory





South Korea






 








Location

Jeju,




Coordinates



    33°
    30'
          41"
        N
  
      ,
    
    126°
    29'
          35"
        E
  




KCC

Dwa




Metar
RKPC 071300Z 10003KT 060V120 9999 FEW035 BKN090 28/23 Q1015 NOSIG








Description
Jeju International Airport serves many mainland destinations in South Korea, as well as international destinations in China, Japan, and Taiwan.
Climatology
Warm continental climate/Humid continental climate/Humid subtropical climate (Köppen climate classification Dwa/Cwa)






Runways






Designator
Length
Width
Surface
Rops




13/31          
1910          
45          
ASP          
Yes/Yes          


6/24          
3000          
45          
ASP          
Yes/Yes          













Airport map






Aerial View