MHLC








Golosón International Airport





Airport

ICAO code


  MHLC





IATA Code

LCE




Summary

ICAO Region

CARSAM



ICAO Territory





Honduras






 








Location

La Ceiba, Atlantida Department




Serving

La Ceiba



Elevation

39 ft



Coordinates



    15°
    44'
          34"
        N
  
      ,
    
    86°
    51'
          7"
        W
  




KCC

Aw



Airport WX

Tropical Revolving Storm




Metar
MHLC 071400Z 06004KT 9999 FEW035 29/25 Q1008 A2977 NOSIG








Golosón International Airport (Spanish: Aeropuerto Internacional Golosón) is an airport located on the western side of the city of La Ceiba, in the Atlántida Department on the north coast of Honduras. It is also known as La Ceiba Airport and Hector C. Moncada Air Base.
Climatology
Tropical Savanna climate (Köppen climate classification Aw)






Runways






Designator
Length
Width
Surface
Rops




7/25          
3010          
45          
ASP          
Yes/Yes          













Airport map






Aerial View