LGNX








Naxos Island National Airport





Airport

ICAO code


  LGNX





IATA Code

JNX




Summary

ICAO Region

EUR



ICAO Territory





Greece






 








Location

Agios Prokopios, Cyclades




Serving

Naxos



Elevation

10 ft



Coordinates



    37°
    4'
          53"
        N
  
      ,
    
    25°
    22'
          7"
        E
  




KCC

Csa




Metar
LGNX 071350Z 01011KT CAVOK 30/22 Q1012








Naxos Island National Airport is an airport in Naxos, Greece.
Climatology
Warm mediterranean climate (Köppen climate classification Csa)






Runways






Designator
Length
Width
Surface
Rops




18/36          
900          
0          
UNK          
No/No          













Airport map






Aerial View