LIPC








Cervia Air Force Base





Airport

ICAO code


  LIPC






Summary

ICAO Region

EUR



ICAO Territory





Italy






 








Location

Cervia, Emilia-Romagna




Serving

Cervia



Elevation

18 ft



Coordinates



    44°
    13'
          30"
        N
  
      ,
    
    12°
    18'
          20"
        E
  




KCC

Cfa




Metar
LIPC 071355Z 07009KT CAVOK 29/19 Q1016








Cervia Air Base is an air base of the Italian Air Force. It is located approximately 3.2 nm southwest of Cervia, in the province of Ravenna (Emilia-Romagna) in northern Italy.
Climatology
Humid subtropical climate (Köppen climate classification Cfa)






Runways






Designator
Length
Width
Surface
Rops




12/30          
3050          
45          
ASP          
No/No          













Airport map






Aerial View