FZNA








Goma International Airport





Airport

ICAO code


  FZNA





IATA Code

GOM




Summary

ICAO Region

AFI



ICAO Territory





Democratic Republic of the Congo






 








Location

, Nord-Kivu




Serving

Goma



Elevation

5089 ft



Coordinates



    1°
    40'
          15"
        S
  
      ,
    
    29°
    14'
          18"
        E
  





Metar
FZNA 060730Z 18008KT 4000 BR SCT018 23/17 Q1023 NOSIG









Runways






Designator
Length
Width
Surface
Rops




18/36          
1995          
45          
ASP          
No/No          













Airport map






Aerial View