KGSO








Piedmont Triad International





Airport

ICAO code


  KGSO






Summary

ICAO Region

NAM



ICAO Territory





United States






 








Location

Friendship Township, Guilford County, Greensboro, North Carolina,




Elevation

925 ft



Coordinates



    36°
    5'
          52"
        N
  
      ,
    
    79°
    56'
          14"
        W
  




KCC

Cfa




Metar
KGSO 071354Z 27005KT 10SM FEW160 BKN250 22/17 A2989 RMK AO2 SLP111 T02220167








Description
Piedmont Triad International Airport (commonly referred to as "PTIA" or just "PTI") is an airport just west of Greensboro, serving Greensboro, High Point and Winston-Salem in North Carolina.
Climatology
Humid “subtropical” climate (Köppen climate classification Cfa) - characterized by hot, humid summers and cool winters. Significant amounts of precipitation occur in all seasons in most areas. Winter rainfall (and sometimes snowfall) is associated with large storms that the westerlies steer from west to east. Most summer rainfall occurs during thunderstorms and occasional tropical storms (hurricanes). Tornadoes are a threat in the Spring.














Airport map






Aerial View