ETAD








Spangdahlem Air Base





Airport

ICAO code


  ETAD






Summary

ICAO Region

EUR



ICAO Territory





Germany






 








Location

Spangdahlem, Rhineland-Palatinate,




Coordinates



    49°
    58'
          29"
        N
  
      ,
    
    6°
    41'
          57"
        E
  





Metar
ETAD 071355Z AUTO 07006KT 9999 CLR 26/17 A2985 RMK AO2 SLP095 T02640166 $








Description
Spangdahlem Air Base is a United States Air Force base located near the small German town of Spangdahlem, approximately 30 km NNE of the city of Trier, Rhineland-Palatinate.






Runways






Designator
Length
Width
Surface
Rops




5/23          
3050          
45          
ASP          
No/No          













Airport map






Aerial View