MDSD








Las Americas International Airport





Airport

ICAO code


  MDSD





IATA Code

SDQ




Summary

ICAO Region

CARSAM



ICAO Territory





Dominican Republic






 








Location

Punta Caucedo, Dominican Republic




Serving

Santo Domingo



Elevation

59 ft



Coordinates



    18°
    25'
          47"
        N
  
      ,
    
    69°
    40'
          11"
        W
  




KCC

Am



Airport WX

Tropical Revolving Storm




Metar
MDSD 071300Z 03004KT 9999 FEW018 SCT300 28/25 Q1012








Las Américas International Airport is an international airport located in Punta Caucedo, near Santo Domingo and Boca Chica in the Dominican Republic.
Climatology
Tropical Monsoon climate (Köppen climate classification Am) - monthly mean temperatures above 18°C in every month of the year and features wet and dry seasons. A tropical monsoon climate typically features less pronounced dry seasons than a tropical savanna climate and see less variance in temperatures during the course of the year. The driest month nearly always occurs at or soon after the "winter" solstice.






Runways






Designator
Length
Width
Surface
Rops




17/35          
3353          
61          
ASP          
Yes/Yes          













Airport map






Aerial View