EGJA








Alderney Airport





Airport

ICAO code


  EGJA





IATA Code

ACI




Summary

ICAO Region

EUR



ICAO Territory





United Kingdom






 








Location

St. Anne, Guernsey




Serving

Alderney



Elevation

290 ft



Coordinates



    49°
    42'
          22"
        N
  
      ,
    
    2°
    12'
          53"
        W
  




KCC

Cfb




Metar
EGJA 071420Z 06004KT 030V090 9999 FEW005 18/16 Q1007








Alderney Airport is the only airport on the island of Alderney in the Channel Islands. Located on the Blaye 1.9 km southwest of St Anne, it is the closest Channel Island airport to the south coast of England and the coast of France.






Runways






Designator
Length
Width
Surface
Rops




3/21          
497          
37          
GRE          
No/No          


14/32          
732          
37          
GRE          
No/No          


8/26          
880          
23          
ASP          
No/No          













Airport map






Aerial View