LIPQ








Trieste – Friuli Venezia Giulia Airport





Airport

ICAO code


  LIPQ





IATA Code

TRS




Summary

ICAO Region

EUR



ICAO Territory





Italy






 








Location

Ronchi dei Legionari, Friuli-Venezia Giulia




Serving

Trieste



Elevation

39 ft



Coordinates



    45°
    49'
          34"
        N
  
      ,
    
    13°
    28'
          24"
        E
  




KCC

Cfa




Metar
LIPQ 071220Z AUTO 20004KT 170V250 9999 NCD 29/17 Q1016








Trieste – Friuli Venezia Giulia Airport is an international airport located 0.3 NM west of Ronchi dei Legionari, near Trieste in Venezia Giulia, north-eastern Italy.
Climatology
Humid subtropical climate (Köppen climate classification Cfa)






Runways






Designator
Length
Width
Surface
Rops




9/27          
3000          
45          
ASP          
Yes/Yes          













Airport map






Aerial View