KCMH








Port Columbus International





Airport

ICAO code


  KCMH






Summary

ICAO Region

NAM



ICAO Territory





United States






 








Location

Columbus, Ohio,




Coordinates



    39°
    59'
          54"
        N
  
      ,
    
    82°
    53'
          33"
        W
  




KCC

Cfa



Airport LOS

Parallel Runway Operation




Metar
KCMH 071151Z 34014G19KT 10SM FEW011 12/09 A3005 RMK AO2 SLP173 70008 T01170094 10156 20111 53016








Description
Port Columbus International Airport, commonly shortened to Port Columbus, is an international airport located 10 km east of downtown Columbus, Ohio, USA.
Climatology
Humid “subtropical” climate (Köppen climate classification Cfa) - characterized by hot, humid summers and cool winters. Significant amounts of precipitation occur in all seasons in most areas. Winter rainfall (and sometimes snowfall) is associated with large storms that the westerlies steer from west to east. Most summer rainfall occurs during thunderstorms.














Airport map






Aerial View