GMAG








Guelmim Airport





Airport

ICAO code


  GMAG





IATA Code

GLN




Summary

ICAO Region

AFI



ICAO Territory





Morocco






 








Location

Guelmim, Guelmim-Oued Noun region




Serving

Guelmim



Coordinates



    29°
    1'
          0"
        N
  
      ,
    
    10°
    4'
          4"
        W
  




KCC

BWh




Metar
GMAG 071300Z 24010KT 5000 SCT026 FEW030CB 30/19 Q1009 TEMPO TS








Guelmim Airport is an airport serving Guelmim, a city in the central Guelmim-Oued Noun region in Morocco.
Climatology
Hot desert climate (Köppen climate classification BWh)














Airport map






Aerial View