KOLS








Nogales





Airport

ICAO code


  KOLS






Summary

ICAO Region

NAM



ICAO Territory





United States






 








Location

Nogales, Santa Cruz County, Arizona,




Coordinates



    31°
    25'
          5"
        N
  
      ,
    
    110°
    50'
          58"
        W
  




KCC

BSk



Airport CFIT

Altimeter Temperature Error Correction



Airport RE

Hot and High Operations




Metar
KOLS 071354Z AUTO 06005KT 10SM CLR 24/10 A3016 RMK AO2 SLP134 T02440100 $








Description
Nogales International Airport is a county-owned public-use airport located 7 nm northeast of the central business district of Nogales, a city in Santa Cruz County, Arizona, United States.
Climatology
Cold Semi-arid climate (Köppen climate classification BSk). - Hot, sometimes extremely hot summers and cold, sometimes very cold winters. Some snowfall during the winter. Areas featuring cold semi-arid climates are sometimes subject to major temperature swings during a 24 hour period.






Runways






Designator
Length
Width
Surface
Rops




3/21          
2194          
27          
ASP          
No/No          













Airport map






Aerial View








Airport accidents



Q9, vicinity Nogales USA, 2006