KMIB








Minot Air Force Base





Airport

ICAO code


  KMIB





IATA Code

MIB




Summary

ICAO Region

NAM



ICAO Territory





United States






 








Location

Minot, North Dakota




Serving

Minot



Elevation

1666 ft



Coordinates



    48°
    25'
          12"
        N
  
      ,
    
    101°
    20'
          11"
        W
  




KCC

Dfb



Airport CFIT

Altimeter Temperature Error Correction



Airport WX

Cumulonimbus




Metar
KMIB 071355Z 20004KT 10SM FEW100 12/09 A3015 RMK AO2A SLP220 T01180088 $








Minot Air Force Base is a USAF installation in Ward County, North Dakota, USA, 12 nm north of the city of Minot.






Runways






Designator
Length
Width
Surface
Rops




11/29          
4022          
91          
CON          
Yes/Yes          













Airport map






Aerial View