CYPX








Puvirnituq Airport





Airport

ICAO code


  CYPX





IATA Code

YPX




Summary

ICAO Region

NAM



ICAO Territory





Canada






 








Location

Puvirnituq, Quebec,




Serving

Puvirnituq



Elevation

74 ft



Coordinates



    60°
    3'
          1"
        N
  
      ,
    
    77°
    17'
          12"
        W
  




KCC

Dfc



Airport RE

Landing on Contaminated Runways




Metar
CYPX 071400Z AUTO 04003KT 020V090 9SM CLR 06/01 A3027 RMK SLP253








Description
Puvirnituq Airport, is located 1 NM north of Puvirnituq, Quebec, Canada.
Climatology
Subarctic climate (Köppen climate classification Dfc) - long, usually very cold winters, and short, cool to mild summers.






Runways






Designator
Length
Width
Surface
Rops




1/19          
1528          
30          
GVL          
No/No          













Airport map






Aerial View