TFFJ








Saint Barthélemy





Airport

ICAO code


  TFFJ






Summary

ICAO Region

CARSAM



ICAO Territory





French Antilles









Location

St. Jean, Saint Barthélemy,




Coordinates



    17°
    54'
          16"
        N
  
      ,
    
    62°
    50'
          37"
        W
  





Metar
TFFJ 071130Z AUTO 08006KT 9999 FEW024 BKN058 BKN072 28/25 Q1011








Description
Gustaf III Airport, also known as Saint Barthélemy Airport or St. Jean Airport, is a public use airport located in the village of St. Jean on the Caribbean island of Saint Barthélemy.
Climatology














Airport map






Aerial View








Airport accidents



DHC6, vicinity Saint Barthelemy French Antilles, 2001