SAZN








Neuquén/Presidente Perón International Airport





Airport

ICAO code


  SAZN





IATA Code

NQN




Summary

ICAO Region

CARSAM



ICAO Territory





Argentina






 








Location

Neuquén, Neuquén




Serving

Neuquén



Elevation

961 ft



Coordinates



    38°
    57'
          7"
        S
  
      ,
    
    68°
    8'
          25"
        W
  





Metar
SAZN 071300Z 25008KT CAVOK 09/M01 Q1017








Presidente Perón International Airport is an airport in Neuquén Province, Argentina serving the cities of Neuquén, Cipolletti, Plottier, Centenario, and General Roca.






Runways






Designator
Length
Width
Surface
Rops




9/27          
2570          
45          
ASP          
Yes/Yes          













Airport map






Aerial View