KJBR








Jonesboro Municipal Airport





Airport

ICAO code


  KJBR





IATA Code

JBR




Summary

ICAO Region

NAM



ICAO Territory





United States






 








Location

Jonesboro, Arkansas




Serving

Jonesboro



Elevation

262 ft



Coordinates



    35°
    49'
          54"
        N
  
      ,
    
    90°
    38'
          49"
        W
  




KCC

Cfa




Metar
KJBR 071353Z AUTO 04013G21KT 10SM CLR 19/11 A3015 RMK AO2 SLP207 T01940111 $








Municipal airport serving Jonesboro, Arkansas, USA, located 3 nm east of the city's business district.
 














Airport map






Aerial View