NVSG








Longana Airport





Airport

ICAO code


  NVSG





IATA Code

LOD




Summary

ICAO Region

APAC



ICAO Territory





Vanuatu






 








Location

Longana, Penama province




Serving

Ambae Island



Elevation

167 ft



Coordinates



    15°
    18'
          24"
        S
  
      ,
    
    167°
    58'
          2"
        E
  




KCC

Af




Metar
NVSG 070000Z 16017KT 9999 SCT025 27/19 Q1017








Longana Airport is an airport in Longana, Vanuatu.
Climatology
Tropical Rainforest climate (Köppen climate classification Af)














Airport map






Aerial View