SPHY








Andahuaylas Airport





Airport

ICAO code


  SPHY





IATA Code

ANS




Summary

ICAO Region

CARSAM



ICAO Territory





Peru






 








Location

Huinchos, Apurimac




Serving

Andahuaylas



Elevation

11300 ft



Coordinates



    13°
    42'
          23"
        S
  
      ,
    
    73°
    21'
          1"
        W
  




KCC

BSk




Metar
SPHY 071300Z 35002KT 9999 FEW040 05/02 Q1035 RMK PP000








A high-elevation airport serving Andahuaylas, Peru.
Climatology
Cold Semi-arid climate (Köppen climate classification BSk).






Runways






Designator
Length
Width
Surface
Rops




3/21          
2500          
30          
ASP          
No/No          













Airport map






Aerial View