LEJR








Jerez Airport





Airport

ICAO code


  LEJR





IATA Code

XRY




Summary

ICAO Region

EUR



ICAO Territory





Spain






 








Location

, Andalucia




Serving

Jerez



Elevation

93 ft



Coordinates



    36°
    44'
          41"
        N
  
      ,
    
    6°
    3'
          36"
        W
  





Metar
LEJR 071400Z 27011KT 240V310 9999 -TSRA SCT040CB 26/11 Q1012









Runways






Designator
Length
Width
Surface
Rops




2/20          
2300          
45          
ASP          
Yes/Yes          













Airport map






Aerial View