SULS








Punta del Esta





Airport

ICAO code


  SULS






Summary

ICAO Region

CARSAM



ICAO Territory





Uruguay






 








Location

Maldonado,




Coordinates



    34°
    51'
          25"
        S
  
      ,
    
    55°
    5'
          60"
        W
  




KCC

Cfa




Metar
SULS 071400Z 26007KT 240V300 CAVOK 19/07 Q1015








Description
Capitan Corbeta CA Curbelo International Airport, formerly called Laguna del Salce International Airport, is the airport serving Punta del Este, Uruguay, located in the adjoining municipality of Maldonado.
Some of its facilities are shared with the Naval Aviation Base of the National Navy of Uruguay.International airport serving Montevideo, the capital of Uruguay.
Climatology
(Köppen climate classification Cfa)






Runways






Designator
Length
Width
Surface
Rops




1/19          
1600          
38          
ASP          
No/No          


8/26          
2133          
45          
ASP          
No/No          













Airport map






Aerial View