KRDR








Grand Forks Air Force Base





Airport

ICAO code


  KRDR





IATA Code

RDR




Summary

ICAO Region

NAM



ICAO Territory





United States






 








Location

Emerado, North Dakota




Serving

Grand Forks



Elevation

911 ft



Coordinates



    47°
    57'
          44"
        N
  
      ,
    
    97°
    23'
          2"
        W
  




KCC

Dfb



Airport CFIT

Altimeter Temperature Error Correction



Airport WX

Cumulonimbus




Metar
KRDR 071355Z AUTO 22003KT 10SM CLR 12/09 A3023 RMK AO2 SLP246 T01210091 $








Grand Forks Air Force Base is a United States Air Force installation located just to the north of Emerado, North Dakota and approximately 16 nm west of the central business district of Grand Forks, North Dakota, USA.






Runways






Designator
Length
Width
Surface
Rops




17/35          
3764          
46          
ASP          
Yes/Yes          













Airport map






Aerial View