SBAX








Araxa Airport





Airport

ICAO code


  SBAX





IATA Code

AAX




Summary

ICAO Region

CARSAM



ICAO Territory





Brazil






 








Location

Araxa, Minas Gerais




Serving

Araxa



Elevation

3276 ft



Coordinates



    19°
    33'
          38"
        S
  
      ,
    
    46°
    57'
          56"
        W
  




KCC

Cwb




Metar
SBAX 071200Z AUTO 08006KT 040V120 CAVOK 24/11 Q1023








Romeu Zema Airport is the airport serving Araxá, Brazil.
Climatology
Humid subtropical climate (Köppen climate classification Cwb)






Runways






Designator
Length
Width
Surface
Rops




15/33          
1900          
30          
ASP          
No/No          













Airport map






Aerial View