LTAU








Kayseri/Erkilet Airport





Airport

ICAO code


  LTAU





IATA Code

ASR




Summary

ICAO Region

EUR



ICAO Territory





Turkey






 








Location

Kayseri,




Serving

Kayseri



Elevation

3506 ft



Coordinates



    38°
    46'
          29"
        N
  
      ,
    
    35°
    29'
          31"
        E
  





Metar
LTAU 071220Z 36006KT 9999 SCT040 29/04 Q1014 NOSIG









Runways






Designator
Length
Width
Surface
Rops




7/25          
3000          
44          
CON          
Yes/Yes          













Airport map






Aerial View