KTLH








Tallahassee Regional Airport





Airport

ICAO code


  KTLH






Summary

ICAO Region

NAM



ICAO Territory





United States






 








Location

Tallahassee, Florida,




Coordinates



    30°
    24'
          3"
        N
  
      ,
    
    84°
    21'
          17"
        W
  




KCC

Cfa




Metar
KTLH 071353Z 35005KT 5SM BR SCT006 BKN021 BKN032 26/24 A2989 RMK AO2 RAE24 SLP120 P0001 T02610239








Description
Tallahassee Regional Airport public-use airport located 7 km southwest of the central business district of Tallahassee, the Capital City of the state of Florida.
Climatology
Humid “subtropical” climate (Köppen climate classification Cfa) - characterized by hot, humid summers and cool winters. Significant amounts of precipitation occur in all seasons in most areas.






Runways






Designator
Length
Width
Surface
Rops




18/36          
1852          
46          
ASP          
Yes/Yes          


9/27          
2438          
46          
ASP          
Yes/Yes          













Airport map






Aerial View