AYMH








Mount Hagen Kagamuga Airport





Airport

ICAO code


  AYMH





IATA Code

HGU




Summary

ICAO Region

APAC



ICAO Territory





Papua New Guinea






 








Location

, Western Highlands




Serving

Mount Hagen



Elevation

5388 ft



Coordinates



    5°
    49'
          36"
        S
  
      ,
    
    144°
    17'
          45"
        E
  





Metar
AYMH 070000Z VRB03KT 9999 SCT020 21/17 Q1025=









Runways






Designator
Length
Width
Surface
Rops




8/26          
1097          
18          
ASP          
No/No          


12/30          
2190          
30          
ASP          
No/No          













Airport map






Aerial View