EYKA








Kaunas International Airport





Airport

ICAO code


  EYKA





IATA Code

KUN




Summary

ICAO Region

EUR



ICAO Territory





Lithuania






 








Location

Karmėlava, Trakai




Serving

Kaunas



Elevation

256 ft



Coordinates



    54°
    57'
          53"
        N
  
      ,
    
    24°
    4'
          30"
        E
  




KCC

Dfb




Metar
EYKA 071250Z 15010KT 120V180 CAVOK 27/10 Q1024








Kaunas International Airport, Kaunas, Lithuania is the second busiest civil airport in Lithuania after Vilnius Airport.
Climatology
Humid continental climate (Köppen climate classification Dfb)






Runways






Designator
Length
Width
Surface
Rops




8/26          
3150          
45          
ASP          
Yes/Yes          













Airport map






Aerial View