EVLA








Liepāja International Airport





Airport

ICAO code


  EVLA





IATA Code

LPX




Summary

ICAO Region

EUR



ICAO Territory





Latvia






 








Location

Liepāja, Grobiņa Municipality




Serving

Liepāja



Elevation

18 ft



Coordinates



    56°
    31'
          3"
        N
  
      ,
    
    21°
    5'
          49"
        E
  




KCC

Dfb




Metar
EVLA 071220Z AUTO 14008KT 110V170 9999 NCD 28/12 Q1022








Liepāja International Airport is situated in Grobiņa Municipality, 3 nm east of Liepāja, Latvia.
Climatology
Humid continental climate (Köppen climate classification Dfb)






Runways






Designator
Length
Width
Surface
Rops




7/25          
2002          
40          
ASP          
No/No          













Airport map






Aerial View