USRR








Surgut International Airport





Airport

ICAO code


  USRR





IATA Code

SGC




Summary

ICAO Region

APAC



ICAO Territory





Russian Federation






 








Location

Kryl&#039;ya Surguta, Khanty-Mansi Autonomous Okrug




Serving

Surgut



Elevation

200 ft



Coordinates



    61°
    20'
          25"
        N
  
      ,
    
    73°
    24'
          28"
        E
  




KCC

Dfc




Metar
USRR 071230Z 30005MPS 9999 SCT040CB 13/09 Q1012 R25/CLRD60 NOSIG RMK QFE753








Airport in Khanty-Mansi Autonomous Okrug, Russia located 10km north of Surgut.
Climatology
Subarctic climate (Köppen climate classification Dec)






Runways






Designator
Length
Width
Surface
Rops




7/25          
2790          
45          
ASP          
Yes/Yes          













Airport map






Aerial View