DNJO








Yakubu Gowon Airport





Airport

ICAO code


  DNJO





IATA Code

JOS




Summary

ICAO Region

AFI



ICAO Territory





Nigeria






 








Location

Heipang, Plateau State




Serving

Jos



Elevation

4232 ft



Coordinates



    9°
    38'
          17"
        N
  
      ,
    
    8°
    52'
          5"
        E
  




KCC

Aw




Metar
DNJO 071100Z 27003KT 9999 BKN008 FEW017CB 23/18 Q1021








Yakubu Gowon Airport, also known as Jos Airport, is an airport serving Jos, the capital of the Plateau State of Nigeria.
Climatology
Tropical savanna climate (Köppen climate classification Aw) 






Runways






Designator
Length
Width
Surface
Rops




10/28          
3001          
45          
ASP          
No/No          













Airport map






Aerial View








Airport accidents



B735, Jos Nigeria, 2010