KELY








Ely Airport





Airport

ICAO code


  KELY





IATA Code

ELY




Summary

ICAO Region

NAM



ICAO Territory





United States






 








Location

Ely, Nevada




Serving

Ely



Elevation

6259 ft



Coordinates



    39°
    17'
          58"
        N
  
      ,
    
    114°
    50'
          5"
        W
  




KCC

BSk



Airport CFIT

Altimeter Temperature Error Correction



Airport RE

Hot and High Operations




Metar
KELY 071353Z AUTO 00000KT 10SM CLR 09/M04 A3029 RMK AO2 SLP166 T00941044








Ely Airport (Yelland Field) is a public use airport located 3 nm northeast of Ely, in White Pine County, Nevada, USA.














Airport map






Aerial View