FKKD








Douala International Airport





Airport

ICAO code


  FKKD





IATA Code

DLA




Summary

ICAO Region

AFI



ICAO Territory





Cameroon






 








Location

Douala,




Serving

Douala



Elevation

33 ft



Coordinates



    4°
    1'
          1"
        N
  
      ,
    
    9°
    43'
          8"
        E
  




KCC

Am




Metar
FKKD 071230Z VRB01KT 9999 BKN016 FEW020CB 30/25 Q1012 NOSIG








Description
International airport serving Douala, Cameroon.
Climatology
Tropical Monsoon climate (Köppen climate classification Am) - monthly mean temperatures above 18°C in every month of the year and features wet and dry seasons. A tropical monsoon climate typically features less pronounced dry seasons than a tropical savanna climate and sees less variance in temperatures during the course of the year. The driest month nearly always occurs at or soon after the "winter" solstice.






Runways






Designator
Length
Width
Surface
Rops




12/30          
2850          
45          
ASP          
Yes/Yes          













Airport map






Aerial View








Airport accidents



B738, vicinity Douala Cameroon, 2007