TISX








Henry E. Rohlsen Airport





Airport

ICAO code


  TISX





IATA Code

STX




Summary

ICAO Region

CARSAM



ICAO Territory





Virgin Islands






 








Location

Christiansted, US Virgin Islands




Serving

St Croix



Elevation

74 ft



Coordinates



    17°
    41'
          58"
        N
  
      ,
    
    64°
    47'
          51"
        W
  




KCC

Am



Airport WX

Tropical Revolving Storm




Metar
TISX 071353Z 11008KT 10SM CLR 31/27 A2988 RMK AO2 SLP115 T03110267 $








Henry E. Rohlsen Airport is a public airport located 10 km southwest of Christiansted on the island of St. Croix in the United States Virgin Islands.
Climatology
Tropical monsoon climate (Köppen climate classification Am)






Runways






Designator
Length
Width
Surface
Rops




10/28          
3049          
46          
ASP          
Yes/Yes          













Airport map






Aerial View