GMFK








Moulay Ali Cherif Airport





Airport

ICAO code


  GMFK





IATA Code

ERH




Summary

ICAO Region

AFI



ICAO Territory





Morocco






 








Location

Tighiourine, Draa-Tafilalet region




Serving

Errachidia



Elevation

3428 ft



Coordinates



    31°
    56'
          51"
        N
  
      ,
    
    4°
    23'
          54"
        W
  




KCC

BWh




Metar
GMFK 071300Z 20006KT 160V320 9999 SCT040 FEW050TCU 32/15 Q1018 NOSIG








Moulay Ali Cherif Airport is an airport serving Errachidia, a town in the Drâa-Tafilalet region in Morocco.
Climatology
Hot desert climate (Köppen climate classification BWh)






Runways






Designator
Length
Width
Surface
Rops




13/31          
3200          
45          
ASP          
No/No          













Airport map






Aerial View