OINR








Ramsar Airport





Airport

ICAO code


  OINR





IATA Code

RZR




Summary

ICAO Region

MID



ICAO Territory





Iran






 








Location

Ramsar, Mazandaran Province




Serving

Ramsar



Elevation

-70 ft



Coordinates



    36°
    54'
          18"
        N
  
      ,
    
    50°
    40'
          57"
        E
  




KCC

Csa




Metar
OINR 071400Z 30010KT 4000 HZ FEW022CB BKN025 OVC080 26/18 Q1016








Airport 3 km south east of the centre of Ramsar in norther Iran.
Climatology
Warm Mediterranean climate (Köppen climate classification Csa).






Runways






Designator
Length
Width
Surface
Rops




13/31          
1500          
45          
ASP          
No/No          













Airport map






Aerial View