GOTT








Tambacounda Airport





Airport

ICAO code


  GOTT





IATA Code

TUD




Summary

ICAO Region

AFI



ICAO Territory





Senegal






 








Location

Tambacounda, Tambacounda region




Serving

Tambacounda



Elevation

161 ft



Coordinates



    13°
    44'
          12"
        N
  
      ,
    
    13°
    39'
          11"
        W
  




KCC

Aw




Metar
GOTT 071400Z 25004KT 9999 SCT013 31/25 Q1011








Tambacounda Airport is an airport serving Tambacounda, the capital of the Tambacounda Region in Senegal.
Climatology
Tropical Savannah climate (Köppen climate classification Aw)






Runways






Designator
Length
Width
Surface
Rops




6/24          
2000          
30          
ASP          
No/No          













Airport map






Aerial View