OIHH








Hamadan Airport





Airport

ICAO code


  OIHH





IATA Code

HDM




Summary

ICAO Region

MID



ICAO Territory





Iran






 








Location

Hamedan, Hamadan Province




Serving

Hamedan



Elevation

5755 ft



Coordinates



    34°
    52'
          2"
        N
  
      ,
    
    48°
    32'
          16"
        E
  




KCC

BWh




Metar
OIHH 071400Z 01010KT 9999 FEW040 30/02 Q1017 A3004








Airport 8km north of Hamedan, a city in Iran.
Climatology
Continental climate (Köppen climate classification Dsa). The temperature may drop below −30 °C (−22 °F) on the coldest days. Heavy snowfall is common during winter and this can persist for periods of up to two months. During the short summer, the weather is mild, pleasant, and mostly sunny.






Runways






Designator
Length
Width
Surface
Rops




10/28          
3234          
45          
ASP          
No/No          













Airport map






Aerial View