SPZO








Cusco/Alejandro Velasco Astete International Airport





Airport

ICAO code


  SPZO





IATA Code

CUZ




Summary

ICAO Region

CARSAM



ICAO Territory





Peru






 








Location

Cusco, Cusco




Serving

Cusco



Elevation

10860 ft



Coordinates



    13°
    32'
          9"
        S
  
      ,
    
    71°
    56'
          20"
        W
  




KCC

Cwb




Metar
SPZO 071300Z VRB02KT 9000 NSC 09/02 Q1034 NOSIG RMK VIS 8000 QUAD NE FU BIRD HAZARD RWY 10/28 PP000








International airport located in the city of Cusco, in southeastern Peru.
Climatology
Sub-tropical Highland climate (Köppen climate classification Cwb).






Runways






Designator
Length
Width
Surface
Rops




10/28          
3397          
45          
ASP          
No/No          













Airport map






Aerial View