KFLG








Flagstaff Pulliam Airport





Airport

ICAO code


  KFLG





IATA Code

FLG




Summary

ICAO Region

NAM



ICAO Territory





United States






 








Location

Flagstaff, Arizona




Serving

Flagstaff



Elevation

7014 ft



Coordinates



    35°
    8'
          16"
        N
  
      ,
    
    111°
    40'
          18"
        W
  




KCC

BSk



Airport RE

Hot and High Operations




Metar
KFLG 071357Z 07003KT 10SM BKN120 15/07 A3041 RMK AO2 SLP196 T01500072








Regional airport serving Flagstaff, Arizona, USA and the surrounding area.














Airport map






Aerial View