WBGR








Miri Airport





Airport

ICAO code


  WBGR





IATA Code

MYY




Summary

ICAO Region

APAC



ICAO Territory





Malaysia






 








Location

Riam, Sarawak




Serving

Miri



Elevation

59 ft



Coordinates



    4°
    19'
          30"
        N
  
      ,
    
    113°
    59'
          18"
        E
  




KCC

Af




Metar
WBGR 071200Z 08004KT 9999 SCT016 29/26 Q1009








Miri International Airport is an airport serving Miri, a city in the state of Sarawak in East Malaysia.














Airport map






Aerial View








Airport accidents



DHC6, Miri Sarawak Malaysia, 2020