WBGG








Kuching International Airport





Airport

ICAO code


  WBGG





IATA Code

KCH




Summary

ICAO Region

APAC



ICAO Territory





Malaysia






 








Location

Kota Sentosa, Sarawak




Serving

Kuching



Elevation

89 ft



Coordinates



    1°
    29'
          7"
        N
  
      ,
    
    110°
    20'
          51"
        E
  




KCC

Af




Metar
WBGG 071030Z VRB03KT 9999 FEW020 30/25 Q1008 NOSIG








Kuching International Airport is an international airport serving the entire south-western region of Sarawak, Malaysia. It is located 7 nm south of Kuching city centre.
 














Airport map






Aerial View