KRCA








Ellsworth Air Force Base





Airport

ICAO code


  KRCA





IATA Code

RCA




Summary

ICAO Region

NAM



ICAO Territory





United States






 








Location

Box Elder, South Dakota




Serving

Rapid City



Elevation

3276 ft



Coordinates



    44°
    8'
          48"
        N
  
      ,
    
    103°
    5'
          33"
        W
  




KCC

BSk



Airport CFIT

Altimeter Temperature Error Correction




Metar
KRCA 071355Z AUTO 18013KT 10SM CLR 14/10 A3017 RMK AO2 SLP206 T01390095








Ellsworth Air Force Base is a United States Air Force facility located 10 nm northeast of the central business district of Rapid City, South Dakota, USA.






Runways






Designator
Length
Width
Surface
Rops




13/31          
4114          
91          
CON          
Yes/Yes          













Airport map






Aerial View