KUNV








University Park Airport





Airport

ICAO code


  KUNV






Summary

ICAO Region

NAM



ICAO Territory





United States






 








Location

State College, Pennsylvania,




Coordinates



    40°
    51'
          21"
        N
  
      ,
    
    77°
    50'
          38"
        W
  




KCC

Dfa



Airport WX

Cumulonimbus




Metar
KUNV 071353Z 23003KT 10SM VCSH BKN025 14/14 A2992








Description
University Park Airport is a public airport located in Centre County, Pennsylvania which serves the towns of State College and Bellefonte.
Climatology
Humid continental climate (Köppen climate classification Dfa) - characterized by four seasons: cold, windy, snowy winters, mild springs, hot, humid summers, and crisp and relatively short autumns. Precipitation reaches its lowest in January and February and peaks in summer and latter half of spring.






Runways






Designator
Length
Width
Surface
Rops




6/24          
2042          
46          
ASP          
Yes/Yes          













Airport map






Aerial View