ENRS








Røst Airport





Airport

ICAO code


  ENRS





IATA Code

RET




Summary

ICAO Region

EUR



ICAO Territory





Norway






 








Location

Røst, Nordland,




Serving

Røstlandet



Elevation

10 ft



Coordinates



    67°
    31'
          37"
        N
  
      ,
    
    12°
    6'
          9"
        E
  




KCC

Cfc




Metar
ENRS 071520Z AUTO 18008KT 9999 FEW061/// 13/10 Q1018








Description
Regional airport serving the island and municipality of Røst in Nordland, Norway.
Climatology
Subpolar Oceanic climate (Köppen climate classification Cfc) - uniform precipitation distribution, temperatures are moderated by the proximity of the ocean and warm currents - cool summers and comparatively mild winters.






Runways






Designator
Length
Width
Surface
Rops




3/21          
880          
0          
UNK          
No/No          













Airport map






Aerial View