DTNH








Enfidha Hammamet International Airport





Airport

ICAO code


  DTNH





IATA Code

NBE




Summary

ICAO Region

AFI



ICAO Territory





Tunisia






 








Location

Enfidha, Hammamet




Serving

Hammamet



Coordinates



    36°
    4'
          60"
        N
  
      ,
    
    10°
    26'
          19"
        E
  




KCC

BSh




Metar
DTNH 071200Z AUTO 09015KT /// 33/28 Q1013








Description
International airport serving the resort of Hammamet in Tunisia.
Climatology
(Köppen climate classification BSh)














Airport map






Aerial View