CYZS








Coral Harbour





Airport

ICAO code


  CYZS






Summary

ICAO Region

NAM



ICAO Territory





Canada






 








Location

Coral Harbour, Nunavut,




Coordinates



    64°
    11'
          36"
        N
  
      ,
    
    83°
    21'
          34"
        W
  





Metar
CYZS 070300Z 23005KT 15SM OVC020 06/04 A3008 RMK SC8 WIND EST SLP192









Runways






Designator
Length
Width
Surface
Rops




16T/34T          
1524          
30          
GVL          
No/No          













Airport map






Aerial View