CZUM








Churchill Falls Airport





Airport

ICAO code


  CZUM





IATA Code

ZUM




Summary

ICAO Region

NAM



ICAO Territory





Canada






 








Location

Churchill Falls, Newfoundland and Labrador,




Serving

Churchill Falls



Elevation

1442 ft



Coordinates



    53°
    33'
          46"
        N
  
      ,
    
    64°
    6'
          23"
        W
  





Metar
CZUM 071500Z AUTO 22009G15KT 160V280 9SM CLR 21/09 A3007 RMK SLP189 DENSITY ALT 2300FT









Runways






Designator
Length
Width
Surface
Rops




13/31          
1676          
46          
ASP          
No/No          













Airport map






Aerial View