KLMT








Klamath Regional Airport





Airport

ICAO code


  KLMT





IATA Code

LMT




Summary

ICAO Region

NAM



ICAO Territory





United States






 








Location

Altamont, Oregon




Serving

Klamath Falls



Elevation

4095 ft



Coordinates



    42°
    9'
          54"
        N
  
      ,
    
    121°
    44'
          12"
        W
  




KCC

Csb



Airport BS

Bird Strike



Airport WX

Mountain Waves




Metar
KLMT 071353Z 00000KT 10SM R32/3000VP6000FT CLR 12/06 A3011 RMK AO2 SLP156 T01170061








Klamath Falls Airport is a joint-use public/military (ANG) airport located 5 nm southeast of Klamath Falls, a city in Klamath County, Oregon, USA.






Runways






Designator
Length
Width
Surface
Rops




1/19          
1573          
30          
ASP          
No/No          


7/25          
1603          
30          
ASP          
Yes/Yes          


14/32          
3140          
46          
PEM          
Yes/Yes          













Airport map






Aerial View