GOBD








Blaise Diagne International Airport





Airport

ICAO code


  GOBD





IATA Code

DSS




Summary

ICAO Region

AFI



ICAO Territory





Senegal






 








Location

Diass, Thies region




Serving

Dakar



Elevation

290 ft



Coordinates



    14°
    40'
          16"
        N
  
      ,
    
    17°
    4'
          1"
        W
  




KCC

BSh




Metar
GOBD 071400Z 33007KT 280V340 9999 BKN030 30/22 Q1012 NOSIG








Blaise Diagne International Airport is an international airport near the town of Diass in Thiès Region, Senegal, 25nm east of downtown Dakar.
Climatology
Warm semi-arid climate (Köppen climate classification BSh)














Airport map






Aerial View