SPQT








Coronel FAP Francisco Secada Vignetta International Airport





Airport

ICAO code


  SPQT





IATA Code

IQT




Summary

ICAO Region

CARSAM



ICAO Territory





Peru






 








Location

Iquitos, Loreto




Serving

Iquitos



Elevation

306 ft



Coordinates



    3°
    47'
          5"
        S
  
      ,
    
    73°
    18'
          32"
        W
  




KCC

Af




Metar
SPQT 071300Z VRB01KT 9999 FEW003 SCT100 24/24 Q1012 NOSIG RMK PP000








airport serving Iquitos, capital of Loreto Region and Peru's fifth largest city. Iquitos and Pucallpa are the main air hubs in the Peruvian Amazon.
Climatology
Equatorial climate (Köppen climate classification Af).






Runways






Designator
Length
Width
Surface
Rops




6/24          
2500          
45          
CON          
No/No          













Airport map






Aerial View