KRDD








Redding Municipal Airport





Airport

ICAO code


  KRDD






Summary

ICAO Region

NAM



ICAO Territory





United States






 








Location

Redding, California,




Coordinates



    40°
    30'
          34"
        N
  
      ,
    
    122°
    17'
          41"
        W
  




KCC

Csb




Metar
KRDD 071353Z 00000KT 10SM CLR 19/10 A2986 RMK AO2 SLP105 T01940100








Description
Redding Municipal Airport is a city-owned public-use airport located 10 km southeast of the central business district of Redding, a city in Shasta County, California.
Climatology
Dry-summer subtropical ”Mediterranean" climate (Köppen climate classification Csb) - characterized by warm, dry summers and mild winters.






Runways






Designator
Length
Width
Surface
Rops




12/30          
1544          
46          
ASP          
Yes/Yes          


16/34          
2135          
46          
ASP          
Yes/Yes          













Airport map






Aerial View