PASC








Deadhorse (Prudhoe Bay)





Airport

ICAO code


  PASC






Summary

ICAO Region

NAM



ICAO Territory





Alaska






 








Location

Deadhorse,




Coordinates



    70°
    11'
          41"
        N
  
      ,
    
    148°
    27'
          46"
        W
  




KCC

Dfc



Airport BS

Non Avian Wildlife Hazards to Aircraft



Airport CFIT

Altimeter Temperature Error Correction




Metar
PASC 071326Z 26009KT 1 1/2SM R06/4500VP6000FT BR OVC004 03/02 A2979 RMK AO2 VIS 3/4V4 T00280022 PNO








Description
Regional airport serving Deadhorse, Alaska. Sometimes referred to as Prudhoe Bay Airport.
Climatology
Subarctic climate (Köppen climate classification Dfc) - long, usually very cold winters, and short, cool to mild summers.






Runways






Designator
Length
Width
Surface
Rops




5/23          
1981          
46          
ASPH-G          
Yes/Yes          













Airport map






Aerial View