KORS








Orcas Island Airport





Airport

ICAO code


  KORS






Summary

ICAO Region

NAM



ICAO Territory





United States






 








Location

Eastsound, Washington,




Coordinates



    48°
    42'
          25"
        N
  
      ,
    
    122°
    54'
          37"
        W
  




KCC

Cfb



Airport BS

Bird Strike




Metar
KORS 071435Z AUTO 00000KT 10SM CLR 17/16 A2995 RMK AO2








Description
Orcas Island Airport is a public airport located 2 km north of the central business district of Eastsound on Orcas Island in San Juan County, Washington.
Climatology
Temperate Marine climate/Oceanic climate (Köppen climate classification Cfb). Moderately cool summer and comparatively warm winter.






Runways






Designator
Length
Width
Surface
Rops




16/34          
884          
18          
ASPH-G          
Yes/Yes          













Airport map






Aerial View