KPIA








General Wayne A. Downing-Peoria International Airport





Airport

ICAO code


  KPIA





IATA Code

PIA




Summary

ICAO Region

NAM



ICAO Territory





United States






 








Location

Bartonville, Illinois




Serving

Peoria



Elevation

661 ft



Coordinates



    40°
    39'
          51"
        N
  
      ,
    
    89°
    41'
          35"
        W
  




KCC

Dfa




Metar
KPIA 071354Z VRB05KT 10SM CLR 14/07 A3027 RMK AO2 SLP250 T01390067








General Wayne A. Downing-Peoria International Airport is a joint civil and military (ANG) public use airport located 5 nm west of the central business district of Peoria, a city in Peoria County, Illinois, USA.






Runways






Designator
Length
Width
Surface
Rops




4/22          
2439          
46          
ASP          
Yes/Yes          


13/31          
3080          
46          
CON          
Yes/Yes          













Airport map






Aerial View