MMMX








Licenciado Benito Juarez International Airport





Airport

ICAO code


  MMMX





IATA Code

MEX




Summary

ICAO Region

CARSAM



ICAO Territory





Mexico






 








Location

Venustiano Carranza, Distrito Federal




Serving

Mexico City



Elevation

7316 ft



Coordinates



    19°
    26'
          11"
        N
  
      ,
    
    99°
    4'
          20"
        W
  




KCC

Aw



Airport RE

Hot and High Operations




Metar
MMMX 071156Z 34008KT 8SM BKN020 BKN080 16/13 A3028 NOSIG RMK SLP097 52008 905 8/570 HZY LWR SC 3RD 4TH QUAD








International airport serving Mexico City, Mexico.
Climatology
Tropical Savanna climate (Köppen climate classification Aw)






Runways






Designator
Length
Width
Surface
Rops




05R/23L          
3900          
45          
ASP          
Yes/Yes          


05L/23R          
3952          
45          
ASP          
Yes/Yes          













Airport map






Aerial View