LYBT








Batajnica Air Base





Airport

ICAO code


  LYBT





IATA Code

BJY




Summary

ICAO Region

EUR



ICAO Territory





Serbia






 








Location

Batajnica, Belgrade




Serving

Belgrade



Elevation

281 ft



Coordinates



    44°
    56'
          14"
        N
  
      ,
    
    20°
    14'
          59"
        E
  




KCC

Dfa




Metar
LYBT 071430Z 12010KT CAVOK 30/15 Q1016 NOSIG








The Colonel-pilot Milenko Pavlović Air Base, commonly known as Batajnica Air Base, is the main military air base of Serbia. It is located between Batajnica and Nova Pazova, about 25 km northwest from the center of Belgrade, Serbia.
Climatology
Humid continental climate (Köppen climate classification Dfa)






Runways






Designator
Length
Width
Surface
Rops




12/30          
985          
58          
GRS          
No/No          


12R/30L          
2438          
45          
ASP          
No/No          


12L/30R          
2494          
45          
ASP          
No/No          













Airport map






Aerial View