VLLN








Luang Namtha Airport





Airport

ICAO code


  VLLN





IATA Code

LXG




Summary

ICAO Region

APAC



ICAO Territory





Laos






 








Location

Louang Namtha, Loungnamtha




Serving

Luang Namtha



Elevation

1968 ft



Coordinates



    20°
    57'
          38"
        N
  
      ,
    
    101°
    24'
          9"
        E
  




KCC

Aw




Metar
VLLN 071200Z 09006KT 5000 TS SCT020 FEW023 OVC100 29/26 Q1004 CB/N NOSIG








Louangnamtha Airport is an airport in Laos, 6 km south of the city of Luang Namtha.
Climatology
Tropical savannah climate (Köppen climate classification Aw)














Airport map






Aerial View