SBTE








Teresina Airport





Airport

ICAO code


  SBTE





IATA Code

THE




Summary

ICAO Region

CARSAM



ICAO Territory





Brazil






 








Location

Teresina, Piaui




Serving

Teresina



Elevation

219 ft



Coordinates



    5°
    3'
          38"
        S
  
      ,
    
    42°
    49'
          28"
        W
  




KCC

Aw




Metar
SBTE 071300Z 13012KT CAVOK 31/17 Q1014








Teresina–Senador Petrônio Portella Airport is the airport serving Teresina, Brazil.
Climatology
Tropical savanna climate (Köppen climate classification Aw)






Runways






Designator
Length
Width
Surface
Rops




2/20          
2200          
45          
ASP          
Yes/Yes          













Airport map






Aerial View