VERC








Birsa Munda Airport





Airport

ICAO code


  VERC






Summary

ICAO Region

APAC



ICAO Territory





India






 








Location

Ranchi, Jharkhand,




Coordinates



    23°
    19'
          1"
        N
  
      ,
    
    85°
    19'
          26"
        E
  




KCC

Cwa



Airport WX

Cumulonimbus




Metar
VERC 071330Z 12001KT 3500 BR SCT020 SCT025 FEW030CB BKN100 27/25 Q1007 NOSIG








Description
Birsa Munda Airport is a public use domestic airport located 7 km south of the central business district of Ranchi, a city in the state of Jharkhand, India.
Climatology
Humid “subtropical” climate (Köppen climate classification Cwa) - characterized by hot, humid summers and cool winters.














Airport map






Aerial View