KHRL








Valley International Airport





Airport

ICAO code


  KHRL






Summary

ICAO Region

NAM



ICAO Territory





United States






 








Location

Harlington, Texas,




Elevation

36 ft



Coordinates



    26°
    13'
          26"
        N
  
      ,
    
    97°
    39'
          43"
        W
  




KCC

Cfa



Airport LOS

Parallel Runway Operation




Metar
KHRL 071352Z 35013KT 10SM OVC035 24/22 A2989 RMK AO2 SLP122 T02440217 $








Description
Valley International Airport is a public use airport located 6 km northeast of the central business district of Harlingen, a city in Cameron County, Texas.
Climatology
Humid “subtropical” climate (Köppen climate classification Cfa) - characterized by hot, humid summers and mild winters. Most rainfall occurs during summer and is often associated with thunderstorms and occasional tropical storms (hurricanes).














Airport map






Aerial View