LZIB








Bratislava/M.R. Stefanik Airport





Airport

ICAO code


  LZIB





IATA Code

BTS




Summary

ICAO Region

EUR



ICAO Territory





Slovakia






 








Location

Ivanka, Bratislava




Serving

Bratislava



Elevation

436 ft



Coordinates



    48°
    10'
          12"
        N
  
      ,
    
    17°
    12'
          48"
        E
  




KCC

Dfa




Metar
LZIB 071300Z 15012KT CAVOK 30/14 Q1016 NOSIG








International airport serving capital of Slovakia.
Climatology
Humid continental climate (Köppen climate classification Dfa)






Runways






Designator
Length
Width
Surface
Rops




4/22          
2900          
60          
CON          
Yes/Yes          


13/31          
3190          
45          
CON          
Yes/Yes          













Airport map






Aerial View








Airport accidents



A30B, Bratislava Slovakia, 2012