KMQY








Smyrna Airport





Airport

ICAO code


  KMQY






Summary

ICAO Region

NAM



ICAO Territory





United States






 








Location

Smyrna, Tennessee,




Coordinates



    36°
    0'
          16"
        N
  
      ,
    
    86°
    31'
          33"
        W
  




KCC

Cfa



Airport WX

Cumulonimbus




Metar
KMQY 071356Z 02012KT 10SM FEW060 19/13 A3009 RMK AO2 SLP193 T01890128 PNO $








Description
Smyrna Airport is a public and military (ANG) use airport located 4 km north of the central business district of Smyrna, a town in Rutherford County, Tennessee.
Climatology
Humid “subtropical” climate (Köppen climate classification Cfa) - characterized by hot, humid summers and cool winters. Significant amounts of precipitation occur in all seasons in most areas. Winter rainfall (and sometimes snowfall) is associated with large storms that the westerlies steer from west to east. Most summer rainfall occurs during thunderstorms and occasional tropical storms (hurricanes).






Runways






Designator
Length
Width
Surface
Rops




1/19          
1690          
30          
ASP          
Yes/Yes          


14/32          
2449          
46          
ASP          
Yes/Yes          













Airport map






Aerial View