LFMP








Perpignan - Rivesaltes Airport





Airport

ICAO code


  LFMP





IATA Code

PGF




Summary

ICAO Region

EUR



ICAO Territory





France






 








Location

Perpignan, Languedoc-Roussillon




Serving

Perpignan



Elevation

144 ft



Coordinates



    42°
    44'
          41"
        N
  
      ,
    
    2°
    52'
          11"
        E
  




KCC

Csa




Metar
LFMP 071300Z AUTO 12017KT 090V150 CAVOK 30/22 Q1006 BECMG 14018G28KT








Description
International airport serving Perginan.
Climatology
Dry-summer subtropical ”Mediterranean" climate (Köppen climate classification Csa) - characterized by hot, dry summers and mild winters. During the summer, subtropical high pressure cells dominate, making rainfall unlikely except for the occasional thunderstorm. In the winter, periodic storms bring rain (snow at higher elevations).






Runways






Designator
Length
Width
Surface
Rops




13/31          
1265          
20          
ASP          
Yes/Yes          


15/33          
2500          
45          
ASP          
Yes/Yes          













Airport map






Aerial View








Airport accidents



A320, vicinity Perpignan France, 2008