KELM








Elmira/Corning Regional Airport





Airport

ICAO code


  KELM





IATA Code

ELM




Summary

ICAO Region

NAM



ICAO Territory





United States






 








Location

Big Flats, New York




Serving

Elmira/Corning



Elevation

954 ft



Coordinates



    42°
    9'
          46"
        N
  
      ,
    
    76°
    53'
          45"
        W
  




KCC

Dfb



Airport WX

Cumulonimbus




Metar
KELM 071353Z 27006KT 10SM -RA OVC055 16/13 A2985 RMK AO2 SLP104 P0001 T01560133 $








Elmira/Corning Regional Airport is a public-use airport located 7 nm northwest of the city of Elmira and 8 nm east of the city of Corning in Chemung County, New York, USA.














Airport map






Aerial View