GMFF








Fes-Saiss Airport





Airport

ICAO code


  GMFF





IATA Code

FEZ




Summary

ICAO Region

AFI



ICAO Territory





Morocco






 








Location

Oulad Tayeb, Fes-Meknes region




Serving

Fez



Elevation

1900 ft



Coordinates



    33°
    55'
          38"
        N
  
      ,
    
    4°
    58'
          41"
        W
  




KCC

Csb




Metar
GMFF 071300Z 08008KT 020V090 9999 SCT033 FEW040CB 34/11 Q1010 NOSIG








International airport serving Fez, the capital city of the Fès-Boulemane region in Morocco.
Climatology
Warm mediterranean climate (Köppen climate classification Csa)






Runways






Designator
Length
Width
Surface
Rops




9/27          
3200          
45          
ASP          
Yes/Yes          













Airport map






Aerial View








Airport accidents



AT76, Fez Morocco, 2018