KIAB








McConnell Air Force Base





Airport

ICAO code


  KIAB





IATA Code

IAB




Summary

ICAO Region

NAM



ICAO Territory





United States






 








Location

Wichita, Kansas




Serving

Wichita



Elevation

1371 ft



Coordinates



    37°
    38'
          1"
        N
  
      ,
    
    97°
    15'
          35"
        W
  




KCC

Cfa



Airport CFIT

Altimeter Temperature Error Correction



Airport LOS

Parallel Runway Operation




Metar
KIAB 071355Z AUTO 09007KT 10SM FEW055 17/09 A3027 RMK AO2 SLP245 T01660090 $








McConnell Air Force Base is a United States Air Force installation located 4 nm southeast of the central business district of Wichita, a city in Sedgwick County, Kansas, USA.














Airport map






Aerial View