WIOO








Supadio International Airport





Airport

ICAO code


  WIOO





IATA Code

PNK




Summary

ICAO Region

APAC



ICAO Territory





Indonesia






 








Location

Limbung, West Kalimantan




Serving

Ponianak



Elevation

10 ft



Coordinates



    0°
    9'
          2"
        S
  
      ,
    
    109°
    24'
          14"
        E
  




KCC

Af




Metar
WIOO 071430Z 34003KT 6000 SCT012 25/25 Q1011 NOSIG








Supadio International Airport, formerly known as Sei Durian Airport or Sungai Durian Airport, is an international airport located 17 km from Pontianak, West Kalimantan, Indonesia.
Climatology
Tropical Rainforest climate (Köppen climate classification Af)














Airport map






Aerial View