KNBG








Naval Air Station Joint Reserve Base New Orleans





Airport

ICAO code


  KNBG






Summary

ICAO Region

NAM



ICAO Territory





United States






 








Location

New Orleans, Louisiana,




Coordinates



    29°
    49'
          52"
        N
  
      ,
    
    90°
    1'
          24"
        W
  




KCC

Cfa



Airport BS

Bird Strike




Metar
KNBG 071355Z AUTO 03007KT 10SM SCT008 BKN011 OVC016 23/23 A2989 RMK AO2 RAE54 SLP119 P0003 T02330233 $








Description
Naval Air Station Joint Reserve Base New Orleans, also known as NASJRB New Orleans and Alvin Callender Field, is a United States military base and airport located in Belle Chasse, Plaquemines Parish, Louisiana, 6 km south of the central business district of New Orleans.
Climatology
Humid “subtropical” climate (Köppen climate classification Cfa) - characterized by hot, humid summers and cool winters. Significant amounts of precipitation occur in all seasons in most areas. Winter rainfall (and sometimes snowfall) is associated with large storms that the westerlies steer from west to east. Most summer rainfall occurs during thunderstorms and occasional tropical storms (hurricanes).






Runways






Designator
Length
Width
Surface
Rops




14/32          
1829          
61          
ASP          
Yes/Yes          


4/22          
3048          
61          
ASP          
Yes/Yes          













Airport map






Aerial View