OIAM








Mahshahr Airport





Airport

ICAO code


  OIAM





IATA Code

MRX




Summary

ICAO Region

MID



ICAO Territory





Iran






 








Location

Bandar Mahshahr, Khuzestan Province




Serving

Bandar Mashahr



Elevation

8 ft



Coordinates



    30°
    32'
          59"
        N
  
      ,
    
    49°
    9'
          11"
        E
  




KCC

BWh




Metar
OIAM 071400Z 32016KT CAVOK 44/12 Q1002








Airport serving the city of Bandar Mahshahr, Iran
Climatology
Warm Desert climate (Köppen climate classification BWh).






Runways






Designator
Length
Width
Surface
Rops




14/32          
2705          
45          
ASP          
No/No          













Airport map






Aerial View








Airport accidents



MD83, Mahshahr Iran, 2020