HEAL








El Alamein International Airport





Airport

ICAO code


  HEAL





IATA Code

DBB




Summary

ICAO Region

AFI



ICAO Territory





Egypt






 








Location

El Alamein, Matruh




Serving

Dabaa City



Elevation

143 ft



Coordinates



    30°
    55'
          28"
        N
  
      ,
    
    28°
    27'
          41"
        E
  





Metar
HEAL 071200Z 32015KT CAVOK 32/19 Q1011 NOSIG









Runways






Designator
Length
Width
Surface
Rops




13/31          
3499          
45          
ASP          
No/No          













Airport map






Aerial View