KOGS








Ogdensburg International Airport





Airport

ICAO code


  KOGS






Summary

ICAO Region

NAM



ICAO Territory





United States






 








Location

Ogdensburg International Airport,




Coordinates



    44°
    40'
          54"
        N
  
      ,
    
    75°
    27'
          55"
        W
  




KCC

Dfb



Airport GND

Aircraft Ground De/Anti Icing



Airport RE

Landing on Contaminated Runways




Metar
KOGS 071435Z AUTO 22004KT 9SM SCT033 BKN046 16/15 A2974 RMK AO2








Description
Ogdensburg International Airport is a public use airport located 4 km southeast of the central business district of Ogdensburg, a city in St. Lawrence County, New York.
Climatology
Humid Continental climate (Köppen climate classification Dfb) - Variable weather patterns and a large seasonal temperature variance. Summers are often warm and humid with frequent thunderstorms and winters can be very cold with frequent snowfall and persistent snow cover.






Runways






Designator
Length
Width
Surface
Rops




9/27          
1585          
46          
ASP          
Yes/Yes          













Airport map






Aerial View