KAVL








Asheville Regional Airport





Airport

ICAO code


  KAVL





IATA Code

AVL




Summary

ICAO Region

NAM



ICAO Territory





United States






 








Location

Fletcher, North Carolina




Serving

Asheville



Elevation

2165 ft



Coordinates



    35°
    26'
          14"
        N
  
      ,
    
    82°
    32'
          26"
        W
  




KCC

Cfa




Metar
KAVL 071454Z 36007G15KT 10SM FEW018 SCT034 BKN090 21/17 A3000 RMK AO2 SLP136 T02060167 53006








Description
Asheville Regional Airport near the town of Fletcher, 9 nm south of the city of Asheville, in the U.S. state of North Carolina.














Airport map






Aerial View