KNSE








Naval Air Station Whiting Field





Airport

ICAO code


  KNSE






Summary

ICAO Region

NAM



ICAO Territory





United States






 








Location

Milton, Florida,




Coordinates



    30°
    43'
          27"
        N
  
      ,
    
    87°
    1'
          19"
        W
  




KCC

Cfa




Metar
KNSE 071424Z AUTO 03004KT 10SM OVC004 22/21 A2991 RMK AO2 CIG 002V008 T02220211 $








Description
Naval Air Station Whiting or NAS Whiting Field, is a military airfield located 6 km north of the central business district of Milton, a city in Santa Rosa County, Florida.
Climatology
Humid “subtropical” climate (Köppen climate classification Cfa) - characterized by hot, humid summers and cool winters. Significant amounts of precipitation occur in all seasons in most areas. Winter rainfall (and sometimes snowfall) is associated with large storms that the westerlies steer from west to east. Most summer rainfall occurs during thunderstorms and occasional tropical storms (hurricanes).






Runways






Designator
Length
Width
Surface
Rops




18/36          
1829          
61          
ASP          
No/No          


5/23          
1829          
61          
ASP          
No/No          


9/27          
1829          
61          
ASP          
No/No          


14/32          
1829          
61          
ASP          
No/No          













Airport map






Aerial View