SPLO








Ilo Airport





Airport

ICAO code


  SPLO





IATA Code

ILQ




Summary

ICAO Region

CARSAM



ICAO Territory





Peru






 








Location

Pozo de Lisas, Moquegua




Serving

Ilo



Elevation

72 ft



Coordinates



    17°
    41'
          42"
        S
  
      ,
    
    71°
    20'
          38"
        W
  




KCC

BWh




Metar
SPLO 071300Z 34006KT 9999 OVC022 17/11 Q1014 RMK TN15.4 PP000








airport in the Moquegua Region of Peru serving the city of Ilo. The runway is on the Pacific shoreline 4km south of the city.
Climatology
Warm Desert climate (Köppen climate classification BWh).






Runways






Designator
Length
Width
Surface
Rops




12/30          
2500          
45          
ASP          
No/No          













Airport map






Aerial View