KPWM








Portland International Jetport





Airport

ICAO code


  KPWM






Summary

ICAO Region

NAM



ICAO Territory





United States






 








Location

Portland, Maine,




Coordinates



    43°
    38'
          46"
        N
  
      ,
    
    70°
    18'
          31"
        W
  




KCC

Dfb



Airport BS

Bird Strike
Non Avian Wildlife Hazards to Aircraft




Metar
KPWM 071351Z 35007KT 10SM SCT200 20/16 A2987 RMK AO2 SLP114 T02000156 $








Description
Portland International Jetport is a public airport located two miles (3 km) west of the central business district of Portland, in Cumberland County, Maine, United States. A significant portion of the Jetport, including the main runway, is located in the neighboring city of South Portland.
Climatology
Humid Continental climate (Köppen climate classification Dfb) - Variable weather patterns and a large seasonal temperature variance. Summers are often warm and humid with frequent thunderstorms and winters can be very cold with frequent snowfall and persistent snow cover.






Runways






Designator
Length
Width
Surface
Rops




18/36          
1524          
46          
ASP          
Yes/Yes          


11/29          
2195          
46          
ASP          
Yes/Yes          













Airport map






Aerial View