KBHM








Birmingham-Shuttlesworth International Airport





Airport

ICAO code


  KBHM





IATA Code

BHM




Summary

ICAO Region

NAM



ICAO Territory





United States






 








Location

Jefferson County , Alabama




Serving

Birmingham



Elevation

644 ft



Coordinates



    33°
    33'
          44"
        N
  
      ,
    
    86°
    45'
          4"
        W
  




KCC

Cfa




Metar
KBHM 071353Z 35005KT 4SM BR OVC005 21/19 A2999 RMK AO2 CIG 004V008 SLP150 VIS NE 2 T02060189








Description
Civil/Military (USAF) international airport serving the city of Birmingham and central Alabama, USA.














Airport map






Aerial View








Airport accidents



A306, vicinity Birmingham AL USA, 2013