PAII








Egegik Airport





Airport

ICAO code


  PAII





IATA Code

EGX




Summary

ICAO Region

NAM



ICAO Territory





Alaska






 








Location

, Alaska




Serving

Egegik



Elevation

92 ft



Coordinates



    58°
    11'
          8"
        N
  
      ,
    
    157°
    22'
          32"
        W
  





Metar
PAII 071331Z AUTO 19006KT 1/2SM FG SCT002 OVC048 09/09 A2998 RMK AO2









Runways






Designator
Length
Width
Surface
Rops




3/21          
457          
23          
GVL          
No/No          


12/30          
1707          
30          
GVL          
No/No          













Airport map






Aerial View