DAUZ








In Aménas Airport





Airport

ICAO code


  DAUZ





IATA Code

IAM




Summary

ICAO Region

AFI



ICAO Territory





Algeria






 








Location

, Illizi




Serving

Zarzaitine



Elevation

1847 ft



Coordinates



    28°
    3'
          6"
        N
  
      ,
    
    9°
    38'
          34"
        E
  





Metar
DAUZ 071100Z 19005KT 150V230 8000 NSC 33/18 Q1019









Runways






Designator
Length
Width
Surface
Rops




15/33          
2200          
30          
ASP          
No/No          


5/23          
3000          
45          
ASP          
No/No          













Airport map






Aerial View