EGAA








Belfast International Airport





Airport

ICAO code


  EGAA





IATA Code

BFS




Summary

ICAO Region

EUR



ICAO Territory





United Kingdom






 








Location

Belfast, Aldergrove, Northern Ireland




Serving

Belfast



Elevation

268 ft



Coordinates



    54°
    39'
          15"
        N
  
      ,
    
    6°
    13'
          5"
        W
  




KCC

Cfb




Metar
EGAA 071120Z AUTO 06008KT 9999 NCD 20/16 Q1012








Description
International airport serving Northern Ireland.
Formerly (until January 1983) known as Belfast Aldergrove Airport. Originally it was an RAF Station but when the nearby Belfast Nutts Corner civil Airport closed in 1963, it became a joint use one until the RAF withdrew in 2009 and the remaining military presence was transferred to the UK Joint Helicopter Command.
Climatology
Temperate Marine climate/Oceanic climate (Köppen climate classification Cfb). Moderately cool summer and comparatively warm winter with a temperature range of only 14°C. Prevailing south-westerly winds from the Atlantic Ocean.






Runways






Designator
Length
Width
Surface
Rops




17/35          
1951          
45          
ASP          
Yes/Yes          


7/25          
2780          
45          
ASP          
Yes/Yes          













Airport map






Aerial View








Airport accidents



A319, Belfast Aldergrove UK, 2011
B738, Belfast International UK, 2017
B733, vicinity Belfast Aldergrove UK, 2006