SBCG








Campo Grande International Airport





Airport

ICAO code


  SBCG





IATA Code

CGR




Summary

ICAO Region

CARSAM



ICAO Territory





Brazil






 








Location

Campo Grande, Mato Grosso do Sul




Serving

Campo Grande



Elevation

1834 ft



Coordinates



    20°
    28'
          10"
        S
  
      ,
    
    54°
    40'
          13"
        W
  




KCC

Aw




Metar
SBCG 071300Z 07007KT 5000 FU NSC 31/14 Q1016








Campo Grande International Airport, sometimes also informally referred to as Antônio João Airport, after the neighborhood where it is located, is the airport serving Campo Grande, Brazil.
Climatology
Tropical savannah climate (Köppen climate classification Aw)






Runways






Designator
Length
Width
Surface
Rops




6/24          
2600          
43          
CON          
Yes/Yes          













Airport map






Aerial View