FKYS








Yaoundé Nsimalen International Airport





Airport

ICAO code


  FKYS





IATA Code

NSI




Summary

ICAO Region

AFI



ICAO Territory





Cameroon






 








Location

Nsimalen,




Serving

Yaoundé



Elevation

2278 ft



Coordinates



    3°
    43'
          20"
        N
  
      ,
    
    11°
    33'
          11"
        E
  




KCC

Am




Metar
FKYS 071230Z 24007KT 210V270 9999 BKN016 28/20 Q1017 NOSIG








Description
International airport serving Douala, Cameroon.
Climatology
Tropical Monsoon climate (Köppen climate classification Am) - monthly mean temperatures above 18°C in every month of the year and features wet and dry seasons. A tropical monsoon climate typically features less pronounced dry seasons than a tropical savanna climate and sees less variance in temperatures during the course of the year. The driest month nearly always occurs at or soon after the "winter" solstice.






Runways






Designator
Length
Width
Surface
Rops




1/19          
3400          
45          
ASP          
Yes/Yes          













Airport map






Aerial View