SBMT








Campo de Marte Airport





Airport

ICAO code


  SBMT





IATA Code

MAE




Summary

ICAO Region

CARSAM



ICAO Territory





Brazil






 








Location

Campo de Marte, Sao Paulo




Serving

Sao Paulo



Elevation

2368 ft



Coordinates



    23°
    30'
          25"
        S
  
      ,
    
    46°
    38'
          3"
        W
  




KCC

Cfa




Metar
SBMT 071100Z 06006KT 4000 BR OVC007 17/16 Q1021








Campo de Marte Airport is the first airport built in São Paulo, Brazil, opened in 1919.
Climatology
Humid subtropical climate (Köppen climate classification Cfa)






Runways






Designator
Length
Width
Surface
Rops




12/30          
25          
25          
CON          
No/No          













Airport map






Aerial View