KWYS








Yellowstone Airport





Airport

ICAO code


  KWYS






Summary

ICAO Region

NAM



ICAO Territory





United States






 








Location

West Yellowstone, Montana,




Coordinates



    44°
    41'
          13"
        N
  
      ,
    
    111°
    7'
          2"
        W
  




KCC

Dfc



Airport CFIT

Altimeter Temperature Error Correction



Airport RE

Hot and High Operations



Airport WX

Mountain Waves




Metar
KWYS 070135Z AUTO 23006KT 10SM CLR 22/M01 A3033 RMK AO2








Description
Yellowstone Airport is a public-use airport located 2 km north of the central business district of West Yellowstone, a town in Gallatin County, Montana.
Climatology
Subarctic climate (Köppen climate classification Dfc) - long, usually very cold winters, and short, cool to mild summers.






Runways






Designator
Length
Width
Surface
Rops




1/19          
2560          
46          
ASP          
Yes/Yes          













Airport map






Aerial View