DNMM








Murtala Muhammed International Airport





Airport

ICAO code


  DNMM





IATA Code

LOS




Summary

ICAO Region

AFI



ICAO Territory





Nigeria






 








Location

Ikeja, Lagos State




Serving

Lagos



Elevation

135 ft



Coordinates



    6°
    34'
          40"
        N
  
      ,
    
    3°
    19'
          18"
        E
  




KCC

Aw




Metar
DNMM 071400Z 19011KT 9999 BKN011 27/23 Q1014 NOSIG








International airport serving Lagos, Nigeria.
Climatology
Tropical Savanna climate (Köppen climate classification Aw)






Runways






Designator
Length
Width
Surface
Rops




18L/36R          
2742          
45          
ASP          
Yes/Yes          


18R/36L          
3900          
60          
ASP          
Yes/Yes          













Airport map






Aerial View








Airport accidents



B722, Lagos Nigeria, 2006
S76, vicinity Lagos Nigeria, 2015
MD83, vicinity Lagos Nigeria, 2012
B773, Lagos Nigeria, 2010