UTAV








Turkmenabat Airport





Airport

ICAO code


  UTAV





IATA Code

CRZ




Summary

ICAO Region

EUR



ICAO Territory





Turkmenistan






 








Location

Chardzhev (Türkmenabat), Turkmenistan,




Serving

Chardzhev



Elevation

630 ft



Coordinates



    39°
    5'
          2"
        N
  
      ,
    
    63°
    36'
          41"
        E
  





Metar
UTAV 071400Z 01008KT CAVOK 25/M01 Q1018 R31/CLRD70 NOSIG









Runways






Designator
Length
Width
Surface
Rops




15/33          
2750          
42          
ASP          
No/No          













Airport map






Aerial View