DAOV








Ghriss Airport





Airport

ICAO code


  DAOV





IATA Code

MUW




Summary

ICAO Region

AFI



ICAO Territory





Algeria






 








Location

, Mascara




Serving

Ghriss



Elevation

1686 ft



Coordinates



    35°
    12'
          28"
        N
  
      ,
    
    0°
    8'
          50"
        E
  





Metar
DAOV 071200Z 20016KT CAVOK 37/16 Q1013









Runways






Designator
Length
Width
Surface
Rops




8/26          
1700          
30          
ASP          
No/No          













Airport map






Aerial View