MMHO








General Ignacio P. Garcia International Airport





Airport

ICAO code


  MMHO





IATA Code

HMO




Summary

ICAO Region

CARSAM



ICAO Territory





Mexico






 








Location

La Manga, Sonora




Serving

Hermosillo



Elevation

627 ft



Coordinates



    29°
    5'
          45"
        N
  
      ,
    
    111°
    2'
          52"
        W
  




KCC

BWh




Metar
MMHO 071240Z 06009KT 10SM SKC 35/12 A2983 RMK HZY ISOL SC








Hermosillo International Airport, also known by its ceremonial name, General Ignacio L. Pesqueira International Airport, is an international airport located in Hermosillo, Sonora, Mexico.
Climatology
Hot Desert Climate (Köppen climate classification BWh)






Runways






Designator
Length
Width
Surface
Rops




11/29          
1100          
30          
ASP          
Yes/Yes          


5/23          
2300          
45          
ASP          
Yes/Yes          













Airport map






Aerial View