KPOC








La Verne





Airport

ICAO code


  KPOC






Summary

ICAO Region

NAM



ICAO Territory





United States






 








Location

La Verne, California




Serving

La Verne



Elevation

1014 ft



Coordinates



    34°
    5'
          29"
        N
  
      ,
    
    117°
    46'
          54"
        W
  




KCC

Csa




Metar
KPOC 071347Z 00000KT 10SM CLR 24/17 A2985








La Verne Airport, also known as Brackett Field, is a public airport located 1 nm southwest of La Verne, in Los Angeles County, California, USA.






Runways






Designator
Length
Width
Surface
Rops




08L/26R          
1116          
23          
ASP          
Yes/Yes          


08R/26L          
1475          
23          
ASP          
Yes/Yes          













Airport map






Aerial View