OPMT








Multan International Airport





Airport

ICAO code


  OPMT





IATA Code

MUX




Summary

ICAO Region

APAC



ICAO Territory





Pakistan






 








Location

Multan, Punjab




Serving

Multan



Elevation

400 ft



Coordinates



    30°
    11'
          45"
        N
  
      ,
    
    71°
    25'
          35"
        E
  




KCC

BWh




Metar
OPMT 071230Z 00000KT 4000 FU SCT040 34/26 Q1002 TEMPO 31025KT 1500 TSRA FEW030CB








International airport 4 km west of the City of Multan, Pakistan.
Climatology
Mild Desert Climate (Köppen climate classification BWh).
Arid climate with low average precipitation levels, the bulk of which occurs during the July-August monsoon season. Winters are mild & dry, while the summers are hot & humid.






Runways






Designator
Length
Width
Surface
Rops




18/36          
2757          
30          
ASP          
Yes/Yes          













Airport map






Aerial View