KCHS








Charleston International Airport / Charleston AFB





Airport

ICAO code


  KCHS





IATA Code

CHS




Summary

ICAO Region

NAM



ICAO Territory





United States






 








Location

North Charleston, South Carolina




Serving

Charleston



Elevation

46 ft



Coordinates



    32°
    53'
          40"
        N
  
      ,
    
    80°
    2'
          29"
        W
  




KCC

Cfa




Metar
KCHS 071356Z 32009KT 10SM OVC010 23/21 A2987 RMK AO2 RAE00 CIG 008V015 SLP113 P0000 T02280206








Description
Charleston International Airport / Charleston AFB is a joint civil-military (USAF) airport in North Charleston, Charleston County, South Carolina, USA.














Airport map






Aerial View