SBBI








Bacacheri Airport





Airport

ICAO code


  SBBI





IATA Code

BFH




Summary

ICAO Region

CARSAM



ICAO Territory





Brazil






 








Location

Bacacheri, Parana




Serving

Curitiba



Elevation

10029 ft



Coordinates



    25°
    24'
          12"
        S
  
      ,
    
    49°
    14'
          1"
        W
  




KCC

Cfb




Metar
SBBI 071200Z 35004KT 6000 BKN007 BKN030 16/14 Q1022








Bacacheri Airport is an airport in Curitiba, Brazil. It is named after the neighbourhood where it is located.
Climatology
Humid subtropical/oceanic climate (Köppen climate classification Cfb)






Runways






Designator
Length
Width
Surface
Rops




18/36          
1390          
30          
ASP          
No/No          













Airport map






Aerial View