SBCH








Chapecó/Serafin Enoss Bertaso Airport





Airport

ICAO code


  SBCH





IATA Code

XAP




Summary

ICAO Region

CARSAM



ICAO Territory





Brazil






 








Location

Chapeco, Santa Caterina




Serving

Chapeco



Elevation

2146 ft



Coordinates



    27°
    8'
          3"
        S
  
      ,
    
    52°
    39'
          38"
        W
  




KCC

Cfa




Metar
SBCH 071200Z 04006KT CAVOK 23/17 Q1017








Serafin Enoss Bertaso Airport serves the town of Chapecó, Brazil.
Climatology
Humid subtropical climate (Köppen climate classification Cfa)






Runways






Designator
Length
Width
Surface
Rops




11/29          
2063          
45          
ASP          
No/No          













Airport map






Aerial View