OIBJ








Jam Airport





Airport

ICAO code


  OIBJ





IATA Code

KNR




Summary

ICAO Region

MID



ICAO Territory





Iran






 








Location

Jam, Bushehr Province




Serving

Bandar Siraf and Kangan



Elevation

2164 ft



Coordinates



    27°
    48'
          53"
        N
  
      ,
    
    52°
    21'
          30"
        E
  




KCC

BWh




Metar
OIBJ 071400Z 21008KT 6000 FEW040 32/26 Q1007 A2976








Airport serving the communities in Kangan county, Bushehr province, Iran.
Climatology
Warm Desert climate (Köppen climate classification BWh).






Runways






Designator
Length
Width
Surface
Rops




11/29          
2350          
45          
ASP          
No/No          













Airport map






Aerial View