KCMI








University of Illinois-Willard Airport





Airport

ICAO code


  KCMI






Summary

ICAO Region

NAM



ICAO Territory





United States






 








Location

Champaign/Urbana, Illinois,




Coordinates



    40°
    2'
          23"
        N
  
      ,
    
    88°
    16'
          33"
        W
  




KCC

Dfa



Airport LOS

Parallel Runway Operation




Metar
KCMI 071353Z 36012KT 10SM CLR 13/08 A3022 RMK AO2 SLP231 T01330078








Description
University of Illinois Willard Airport is an airport owned and operated by the University of Illinois at Urbana-Champaign located south of Savoy in Tolono Township, Champaign County, Illinois.
Climatology
Humid continental climate (Köppen climate classification Dfa) - characterized by four seasons: cold, windy, snowy winters, mild springs, hot, humid summers, and crisp and relatively short autumns. Precipitation reaches its lowest in January and February and peaks in summer and latter half of spring.














Airport map






Aerial View