EDLW








Dortmund Airport





Airport

ICAO code


  EDLW





IATA Code

DTM




Summary

ICAO Region

EUR



ICAO Territory





Germany






 








Location

Dortmund, Nordrhein-Westfalen




Serving

Dortmund



Elevation

425 ft



Coordinates



    51°
    31'
          6"
        N
  
      ,
    
    7°
    36'
          44"
        E
  





Metar
EDLW 071420Z 07003KT 360V130 CAVOK 28/14 Q1011









Runways






Designator
Length
Width
Surface
Rops




6/24          
2000          
45          
ASP          
Yes/Yes          













Airport map






Aerial View