RJBD








Nanki-Shirahama Airport





Airport

ICAO code


  RJBD





IATA Code

SHM




Summary

ICAO Region

APAC



ICAO Territory





Japan






 








Location

Shirahama, Wakayama




Serving

Shirahama



Elevation

293 ft



Coordinates



    33°
    39'
          44"
        N
  
      ,
    
    135°
    21'
          38"
        E
  




KCC

Cfa




Metar
RJBD 070100Z 33006KT 280V360 9999 FEW025 29/22 Q1015








Airport in Shirahama, Wakayama, Japan.
Climatology
Humid Sub-tropical climate (Köppen climate classification Cfa)






Runways






Designator
Length
Width
Surface
Rops




16/34          
1319          
30          
ASP          
No/No          


15/33          
1999          
45          
ASP          
No/No          













Airport map






Aerial View