OIBS








Sirri Island Airport





Airport

ICAO code


  OIBS





IATA Code

SXI




Summary

ICAO Region

APAC



ICAO Territory





Iran






 








Location

Sirri Island, Hormozgan




Serving

Sirri Island



Elevation

43 ft



Coordinates



    25°
    54'
          9"
        N
  
      ,
    
    54°
    32'
          45"
        E
  





Metar
OIBS 071400Z 19004KT 3000 HZ NSC 34/29 Q1000








Sirri Island Airport is an airport located in Sirri Island, Iran.






Runways






Designator
Length
Width
Surface
Rops




12/30          
2544          
53          
ASP          
No/No          













Airport map






Aerial View