TFFF








Martinique/Aimé Césaire International Airport





Airport

ICAO code


  TFFF





IATA Code

FDF




Summary

ICAO Region

CARSAM



ICAO Territory





French Antilles









Location

Le Lamentin, Fort-de-France,




Serving

Martinique



Coordinates



    14°
    35'
          28"
        N
  
      ,
    
    61°
    0'
          12"
        W
  





Metar
TFFF 071130Z AUTO VRB02KT CAVOK 27/25 Q1011 TEMPO 4000 SHRA FEW013CB SCT018TCU BKN050








Description
Martinique Aimé Césaire International Airport is the international airport of Martinique in the French West Indies. Located in Le Lamentin, a suburb of the capital Fort-de-France.






Runways






Designator
Length
Width
Surface
Rops




9/27          
3300          
45          
ASP          
Yes/Yes          













Airport map






Aerial View