SBEG








Manaus/Eduardo Gomes International Airport





Airport

ICAO code


  SBEG





IATA Code

MAO




Summary

ICAO Region

CARSAM



ICAO Territory





Brazil






 








Location

Manaus, Amazonas




Serving

Manaus



Elevation

264 ft



Coordinates



    3°
    2'
          16"
        S
  
      ,
    
    60°
    2'
          60"
        W
  




KCC

Af




Metar
SBEG 071300Z 14002KT 9000 NSC 30/25 Q1012








Brigadeiro Eduardo Gomes International Airport, is an airport serving Manaus, Brazil, located 14 km north of downtown.
Climatology
Tropical Rainforest climate (Köppen climate classification Af) - almost no distinct seasons, average daily temperature around 27°C throughout the year. Extensive cloud cover and heavy rainfall prevent temperatures from rising much over 33°C. The diurnal temperature change is between 2°C and 5°C which is greater than the annual temperature range of 2°C. Rainfall is heavy and is usually convectional and in the afternoon.






Runways






Designator
Length
Width
Surface
Rops




10/28          
2700          
45          
ASP          
Yes/Yes          













Airport map






Aerial View