OTBH








Al Udeid Air Base





Airport

ICAO code


  OTBH





IATA Code

IUD




Summary

ICAO Region

MID



ICAO Territory





Qatar






 








Location

Al-Udeid, Ad Dawhah




Serving

Al-Udeid Air Base



Elevation

130 ft



Coordinates



    25°
    7'
          1"
        N
  
      ,
    
    51°
    18'
          55"
        E
  




KCC

BWh




Metar
OTBH 071255Z 11012KT 9000 HZ CLR 40/24 A2954 Q1000 RMK AO2A SLP003 T03990237 FZRANO $








Al Udeid Air Base is a military base southwest of Doha, Qatar, also known as Abu Nakhlah Airport. It houses Qatari Air Force, U.S. Air Force, and Royal Air Force personnel and assets.
Climatology
Hot Desert Climate (Köppen climate classification BWh)






Runways






Designator
Length
Width
Surface
Rops




16/34          
3750          
45          
ASP          
Yes/Yes          













Airport map






Aerial View