KRDU








Raleigh-Durham International Airport





Airport

ICAO code


  KRDU






Summary

ICAO Region

NAM



ICAO Territory





United States






 








Location

Raleigh, North Carolina,




Coordinates



    35°
    52'
          36"
        N
  
      ,
    
    78°
    47'
          35"
        W
  




KCC

Cfa



Airport LOS

Parallel Runway Operation




Metar
KRDU 071351Z 00000KT 10SM FEW055 SCT150 BKN250 24/20 A2988 RMK AO2 SLP112 T02390200








Description
Raleigh–Durham International Airport is a public use airport located 7 km northeast of the town of Morrisville in Wake County, North Carolina.
Climatology
Humid “subtropical” climate (Köppen climate classification Cfa) - characterized by hot, humid summers and cool winters. Significant amounts of precipitation occur in all seasons in most areas. Winter rainfall (and sometimes snowfall) is associated with large storms that the westerlies steer from west to east. Most summer rainfall occurs during thunderstorms and occasional tropical storms (hurricanes).






Runways






Designator
Length
Width
Surface
Rops




14/32          
1088          
30          
ASP          
Yes/Yes          


05R/23L          
2286          
46          
ASP          
Yes/Yes          


05L/23R          
3048          
46          
CON          
Yes/Yes          













Airport map






Aerial View