CYUY








Rouyn-Noranda Airport





Airport

ICAO code


  CYUY





IATA Code

YUY




Summary

ICAO Region

NAM



ICAO Territory





Canada






 








Location

Rouyn-Noranda, Quebec,




Serving

Rouyn-Noranda



Elevation

988 ft



Coordinates



    48°
    12'
          30"
        N
  
      ,
    
    78°
    49'
          46"
        W
  




KCC

Dfb




Metar
CYUY 071439Z 01013G20KT 12SM -SHRA OVC011 06/05 A2992 RMK SC8 CVCTV CLD EMBD SLP145








Description
Rouyn-Noranda Airport, is located 7.5 nm east southeast of Rouyn-Noranda, Quebec, Canada.
Climatology
Humid Continental climate (Köppen climate classification Dfb) - Variable weather patterns and a large seasonal temperature variance. Summers are often warm and humid with frequent thunderstorms and winters can be very cold with frequent snowfall and persistent snow cover.






Runways






Designator
Length
Width
Surface
Rops




8/26          
2281          
46          
ASP          
No/No          













Airport map






Aerial View








Airport accidents



DH8A, Rouyn-Noranda QC Canada, 2019