KCBM








Columbus Air Force Base





Airport

ICAO code


  KCBM





IATA Code

CBM




Summary

ICAO Region

NAM



ICAO Territory





United States






 








Location

Columbus, Mississippi




Serving

Columbus



Elevation

218 ft



Coordinates



    33°
    38'
          38"
        N
  
      ,
    
    88°
    26'
          38"
        W
  




KCC

Cfa



Airport LOS

Parallel Runway Operation




Metar
KCBM 071407Z AUTO 03012KT 10SM FEW015 SCT030 BKN075 24/20 A2996 RMK AO2 SLP146








Description
Columbus Air Force Base is a United States Air Force training installation located approximately 8 nm north of the central business district of Columbus, Mississippi, USA.














Airport map






Aerial View