PAMB








Manokotak Airport





Airport

ICAO code


  PAMB






Summary

ICAO Region

NAM



ICAO Territory





Alaska






 








Location

Manokotak,




Coordinates



    58°
    59'
          20"
        N
  
      ,
    
    159°
    2'
          60"
        W
  




KCC

Dfc



Airport BS

Bird Strike
Non Avian Wildlife Hazards to Aircraft



Airport CFIT

Altimeter Temperature Error Correction




Metar
PAMB 071256Z AUTO 15004KT 10SM CLR 09/08 A2994 RMK AO2 SLP142 T00890078








Description
Regional airport serving Manokotak, Alaska.
Climatology
Subarctic climate (Köppen climate classification Dfc) - long, usually very cold winters, and short, cool to mild summers.






Runways






Designator
Length
Width
Surface
Rops




3/21          
1006          
23          
GRVL-G          
No/No          













Airport map






Aerial View