LOWK








Klagenfurt Airport





Airport

ICAO code


  LOWK





IATA Code

KLU




Summary

ICAO Region

EUR



ICAO Territory





Austria






 








Location

Klagenfurt, Carinthia




Serving

Klagenfurt



Elevation

1470 ft



Coordinates



    46°
    38'
          37"
        N
  
      ,
    
    14°
    19'
          43"
        E
  




KCC

Dfb




Metar
LOWK 071220Z AUTO 10005KT 050V160 9999 NCD 25/14 Q1017 NOSIG








Klagenfurt Airport is a primary international airport near Klagenfurt, the sixth-largest city in Austria. It is located in the borough of Annabichl, 1.5 nm north-north-east of the city centre.
Climatology
Humid continental climate (Köppen climate classification Dfb)






Runways






Designator
Length
Width
Surface
Rops




10R/28L          
740          
27          
GRS          
No/No          


10L/28R          
2720          
45          
CON          
Yes/Yes          













Airport map






Aerial View