KBRD








Brainerd Lakes Regional Airport





Airport

ICAO code


  KBRD





IATA Code

BRD




Summary

ICAO Region

NAM



ICAO Territory





United States






 








Location

Brainerd , Minnesota




Serving

Brainerd



Elevation

1226 ft



Coordinates



    46°
    23'
          52"
        N
  
      ,
    
    94°
    8'
          14"
        W
  




KCC

Dfb



Airport CFIT

Altimeter Temperature Error Correction



Airport GND

Aircraft Ground De/Anti Icing



Airport RE

Landing on Contaminated Runways




Metar
KBRD 071353Z AUTO 18008KT 10SM CLR 11/08 A3032 RMK AO2 SLP272 T01110083








Description
Brainerd Lakes Regional Airport is a public use airport located 3 nm northeast of the central business district of Brainerd, Minnesota, USA.














Airport map






Aerial View