KPGA








Page Municipal Airport





Airport

ICAO code


  KPGA






Summary

ICAO Region

NAM



ICAO Territory





United States






 








Location

Page, Arizona, USA,




Coordinates



    36°
    55'
          34"
        N
  
      ,
    
    111°
    26'
          54"
        W
  




KCC

BWk




Metar
KPGA 071353Z AUTO 00000KT 10SM CLR 22/06 A3021 RMK AO2 SLP162 T02170056








Description
General aviation airport serving the city of Page, Arizona.
Climatology
Arid desert climate (Köppen climate classification Bwk) with hot, very dry summers and chilly winters with very little snow.






Runways






Designator
Length
Width
Surface
Rops




7/25          
671          
30          
ASP          
Yes/Yes          


15/33          
1814          
46          
ASP          
Yes/Yes          













Airport map






Aerial View