SBCZ








Cruzeiro do Sul International Airport





Airport

ICAO code


  SBCZ





IATA Code

CZS




Summary

ICAO Region

CARSAM



ICAO Territory





Brazil






 








Location

Cruzeiro do Sul, Acre




Serving

Cruzeiro do Sul



Elevation

637 ft



Coordinates



    7°
    35'
          58"
        S
  
      ,
    
    72°
    46'
          10"
        W
  




KCC

Af




Metar
SBCZ 071200Z 00000KT 0500 FU NSC 23/22 Q1012








Cruzeiro do Sul International Airport is the airport serving Cruzeiro do Sul, Brazil.
Climatology
Tropical rainforest climate (Köppen climate classification Af)






Runways






Designator
Length
Width
Surface
Rops




10/28          
2400          
45          
ASP          
No/No          













Airport map






Aerial View