LFLX








Châteauroux-Déols "Marcel Dassault" Airport





Airport

ICAO code


  LFLX





IATA Code

CHR




Summary

ICAO Region

EUR



ICAO Territory





France






 








Location

, Centre




Serving

Chateauroux



Elevation

529 ft



Coordinates



    46°
    51'
          44"
        N
  
      ,
    
    1°
    43'
          50"
        E
  





Metar
LFLX 071400Z AUTO 16009KT 9999 // FEW017/// BKN110/// BKN160/// ///TCU 19/16 Q1009









Runways






Designator
Length
Width
Surface
Rops




4/22          
3500          
45          
CON          
Yes/Yes          













Airport map






Aerial View