KPAM








Tyndall Air Force Base





Airport

ICAO code


  KPAM






Summary

ICAO Region

NAM



ICAO Territory





United States






 








Location

Panama City, Florida,




Coordinates



    30°
    4'
          21"
        N
  
      ,
    
    85°
    35'
          50"
        W
  




KCC

Cfa



Airport LOS

Parallel Runway Operation




Metar
KPAM 071355Z 04006KT 10SM SCT004 BKN035 24/23 A2986 RMK DZE03 SLP115 P0000 T02400228








Description
Tyndall Air Force Base is a United States Air Force installation located 19 km east of the central business district of Panama City, Florida.
Climatology
Humid “subtropical” climate (Köppen climate classification Cfa) - characterized by hot, humid summers and cool winters. Significant amounts of precipitation occur in all seasons in most areas.






Runways






Designator
Length
Width
Surface
Rops




13R/31L          
2784          
46          
PEM          
No/No          


13L/31R          
3049          
61          
CON          
No/No          













Airport map






Aerial View