EGPB








Sumburgh Airport





Airport

ICAO code


  EGPB





IATA Code

LSI




Summary

ICAO Region

EUR



ICAO Territory





United Kingdom






 








Location

Sumburgh, Shetland, Scotland




Serving

Shetland



Elevation

20 ft



Coordinates



    59°
    52'
          39"
        N
  
      ,
    
    1°
    17'
          31"
        W
  




KCC

Cfb




Metar
EGPB 071320Z 10003KT 060V140 9000 FEW008 16/15 Q1016








Sumburgh Airport is the main airport serving the Shetland Islands in Scotland. It is located on the southern tip of the mainland, 17 nm south of Lerwick.
Climatology
Temperate Marine climate/Oceanic climate (Köppen climate classification Cfb). Moderately cool summer and comparatively warm winter with a temperature range of only 14°C. Prevailing south-westerly winds from the Atlantic Ocean.






Runways






Designator
Length
Width
Surface
Rops




6/24          
550          
45          
ASP          
Yes/Yes          


9/27          
1180          
46          
ASP          
Yes/Yes          


15/33          
1426          
46          
ASP          
Yes/Yes          













Airport map






Aerial View








Airport accidents



AS3B, vicinity Sumburgh Airport Shetland Islands UK, 2013
D328, Sumburgh Shetland Islands UK, 2017
SB20, vicinity Sumburgh, UK 2014
D328, Sumburgh UK, 2006