RJNK








Komatsu Airport





Airport

ICAO code


  RJNK





IATA Code

KMQ




Summary

ICAO Region

APAC



ICAO Territory





Japan






 








Location

Komatsu, Ishikawa Prefecture




Serving

Komatsu



Elevation

22 ft



Coordinates



    36°
    24'
          6"
        N
  
      ,
    
    136°
    24'
          48"
        E
  




KCC

Cfa




Metar
RJNK 071300Z 24003KT 9999 FEW030 SCT100 BKN150 27/26 Q1014








International airport located 4.2 km west southwest of the city of Komatsu, Ishikawa Prefecture, Japan.
Climatology
Humid Sub-tropical climate (Köppen climate classification Cfa)






Runways






Designator
Length
Width
Surface
Rops




6/24          
2701          
46          
PEM          
Yes/Yes          


06T/24T          
2705          
45          
ASP          
No/No          













Airport map






Aerial View