PASN








St Paul Island Airport





Airport

ICAO code


  PASN





IATA Code

SNP




Summary

ICAO Region

NAM



ICAO Territory





Alaska






 








Location

, Alaska




Serving

St. Paul Island



Elevation

63 ft



Coordinates



    57°
    10'
          2"
        N
  
      ,
    
    170°
    13'
          14"
        W
  





Metar
PASN 071224Z AUTO 16018KT 5SM BR SCT006 BKN010 OVC020 08/07 A2986 RMK AO2 RAE1154 PRESFR P0000 T00830072 TSNO









Runways






Designator
Length
Width
Surface
Rops




18/36          
1981          
46          
ASP          
Yes/Yes          













Airport map






Aerial View