VABJ








Bhuj Airport





Airport

ICAO code


  VABJ





IATA Code

BHJ




Summary

ICAO Region

APAC



ICAO Territory





India






 








Location

, Gujarat




Serving

Bhuj



Elevation

268 ft



Coordinates



    23°
    17'
          16"
        N
  
      ,
    
    69°
    40'
          13"
        E
  





Metar
VABJ 070300Z 25003KT 6000 SCT020 28/26 Q1006 NOSIG









Runways






Designator
Length
Width
Surface
Rops




5/23          
2501          
46          
ASP          
Yes/Yes          













Airport map






Aerial View