ZUCK








Chongqing Jiangbei International





Airport

ICAO code


  ZUCK





IATA Code

CKG




Summary

ICAO Region

APAC



ICAO Territory





China






 








Location

Yubei, Chongqing,




Serving

Chongqing



Elevation

1365 ft



Coordinates



    29°
    43'
          9"
        N
  
      ,
    
    106°
    38'
          30"
        E
  




KCC

Cwa



Airport WX

Fog




Metar
ZUCK 071300Z 18002MPS CAVOK 28/24 Q1010 NOSIG








Description
Chongqing Jiangbei International Airport is an airport located in the Yubei District of Chongqing, People's Republic of China. It is located 21 km north of the city-centre of Chongqing and serves as an important aviation hub for south-western China.
Climatology
Within the Köppen Climate Classification System, ((Koppen climate classification Cwa)) this climate type generally has warm and humid summers with mild winters. Its extent is from 30 to 50° of latitude mainly on the eastern and western borders of most continents. During the winter, the main weather feature is the mid-latitude cyclone. Convective thunderstorms provide precipitation in the summer months.














Airport map






Aerial View