PACD








Cold Bay Airport





Airport

ICAO code


  PACD





IATA Code

CDB




Summary

ICAO Region

NAM



ICAO Territory





Alaska






 








Location

, Alaska




Serving

Cold Bay



Elevation

96 ft



Coordinates



    55°
    12'
          22"
        N
  
      ,
    
    162°
    43'
          32"
        W
  





Metar
PACD 071326Z AUTO 31005KT 7SM OVC004 07/07 A3013 RMK AO2 T00720072 TSNO









Runways






Designator
Length
Width
Surface
Rops




8/26          
1291          
46          
ASP          
Yes/Yes          


14/32          
3174          
46          
ASP          
Yes/Yes          













Airport map






Aerial View