LFMV








Avignon-Caumont Airport





Airport

ICAO code


  LFMV





IATA Code

AVN




Summary

ICAO Region

EUR



ICAO Territory





France






 








Location

, Provence-Alpes-Cote d&#039;Azur




Serving

Avignon



Elevation

124 ft



Coordinates



    43°
    54'
          26"
        N
  
      ,
    
    4°
    54'
          7"
        E
  





Metar
LFMV 071400Z AUTO 14019KT 9999 FEW062 SCT072 BKN084 31/19 Q1008 BECMG 14020G30KT









Runways






Designator
Length
Width
Surface
Rops




17/35          
1880          
45          
ASP          
Yes/Yes          













Airport map






Aerial View