LRSM








Satu Mare Airport





Airport

ICAO code


  LRSM





IATA Code

SUJ




Summary

ICAO Region

EUR



ICAO Territory





Romania






 








Location

, Satu Mare




Serving

Satu Mare



Elevation

405 ft



Coordinates



    47°
    42'
          12"
        N
  
      ,
    
    22°
    53'
          9"
        E
  





Metar
LRSM 071200Z 14011KT 100V180 CAVOK 31/09 Q1018









Runways






Designator
Length
Width
Surface
Rops




1/19          
2487          
45          
CON          
No/No          













Airport map






Aerial View