SPYL








Capitan FAP Victor Montes Arias International Airport





Airport

ICAO code


  SPYL





IATA Code

TYL




Summary

ICAO Region

CARSAM



ICAO Territory





Peru






 








Location

Talara, Piura




Serving

Talara



Elevation

282 ft



Coordinates



    4°
    34'
          36"
        S
  
      ,
    
    81°
    15'
          15"
        W
  




KCC

BWh




Metar
SPYL 070100Z 18011KT 9999 BKN015 18/17 Q1011 RMK PP000








airport serving Talara, Peru. It is an important airport in the Piura Region, used both as a relief airport for Cap. FAP Guillermo Concha Iberico International Airport and for faster access to the famous Los Órganos, Máncora and Punta Sal beaches.
Climatology
Warm Desert climate (Köppen climate classification BWh).






Runways






Designator
Length
Width
Surface
Rops




17/35          
2450          
45          
ASP          
No/No          













Airport map






Aerial View