VABO








Vadodara Airport





Airport

ICAO code


  VABO





IATA Code

BDQ




Summary

ICAO Region

APAC



ICAO Territory





India






 








Location

, Gujarat




Serving

Baroda



Elevation

129 ft



Coordinates



    22°
    20'
          10"
        N
  
      ,
    
    73°
    13'
          35"
        E
  





Metar
VABO 071130Z 27008KT 5000 HZ SCT020 SCT080 31/24 Q1003 NOSIG









Runways






Designator
Length
Width
Surface
Rops




4/22          
2469          
46          
ASP          
Yes/Yes          













Airport map






Aerial View