MMTG








Angel Albino Corzo International Airport





Airport

ICAO code


  MMTG





IATA Code

TGZ




Summary

ICAO Region

CARSAM



ICAO Territory





Mexico






 








Location

Chiapa de Corzo, Chiapas




Serving

Tuxtla Gutierrez



Elevation

1499 ft



Coordinates



    16°
    33'
          43"
        N
  
      ,
    
    93°
    1'
          34"
        W
  




KCC

Aw




Metar
MMTG 071249Z 29003KT 6SM FEW007 SCT025 OVC070 23/21 A2985 RMK 8/62/ BR DSIPTG ST LWR ARND








Ángel Albino Corzo International Airport, also known as Tuxtla Gutierrez International Airport, is an international airport serving the Mexican municipality of Chiapa de Corzo, Chiapas.
Climatology
Tropical savannah climate (Köppen climate classification Aw)






Runways






Designator
Length
Width
Surface
Rops




9/27          
0          
0          
UNK          
No/No          


16/34          
0          
0          
UNK          
No/No          


14/32          
2500          
45          
ASP          
No/No          













Airport map






Aerial View