SBUR








Uberaba Airport





Airport

ICAO code


  SBUR





IATA Code

UBA




Summary

ICAO Region

CARSAM



ICAO Territory





Brazil






 








Location

Uberaba, Minas Gerais




Serving

Uberaba



Elevation

2655 ft



Coordinates



    19°
    45'
          53"
        S
  
      ,
    
    47°
    57'
          58"
        W
  




KCC

Cwb




Metar
SBUR 071200Z 03015KT 3500 FU NSC 27/07 Q1021








Uberaba–Mário de Almeida Franco Airport is the airport serving Uberaba, Brazil.
Climatology
Humid subtropical climate (Köppen climate classification Cwb)






Runways






Designator
Length
Width
Surface
Rops




17/35          
1759          
45          
ASP          
No/No          













Airport map






Aerial View