HEAR








El Arish International Airport





Airport

ICAO code


  HEAR





IATA Code

AAC




Summary

ICAO Region

AFI



ICAO Territory





Egypt






 








Location

El Arish, Shamal Sina&#039;




Serving

El Arish



Elevation

121 ft



Coordinates



    31°
    4'
          24"
        N
  
      ,
    
    33°
    50'
          9"
        E
  





Metar
HEAR 071200Z 33007KT CAVOK 33/23 Q1010 NOSIG









Runways






Designator
Length
Width
Surface
Rops




16/34          
3019          
45          
ASP          
No/No          













Airport map






Aerial View