LQBK








Banja Luka International Airport





Airport

ICAO code


  LQBK





IATA Code

BNX




Summary

ICAO Region

EUR



ICAO Territory





Bosnia and Herzegovina






 








Location

Kobatovci, Republika Srpska




Serving

Banja Luka



Elevation

400 ft



Coordinates



    44°
    56'
          34"
        N
  
      ,
    
    17°
    17'
          47"
        E
  




KCC

Cfa




Metar
LQBK 071230Z 32005KT 240V030 CAVOK 29/16 Q1016 NOSIG








Banja Luka International Airport, also known as Mahovljani Airport, is an airport located 11 nm north northeast of the city of Banja Luka.
Climatology
Humid subtropical climate (Köppen climate classification Cfa)






Runways






Designator
Length
Width
Surface
Rops




17/35          
2503          
45          
ASP          
Yes/Yes          













Airport map






Aerial View