PAIK








Bob Baker Memorial Airport





Airport

ICAO code


  PAIK





IATA Code

IAN




Summary

ICAO Region

NAM



ICAO Territory





Alaska






 








Location

, Alaska




Serving

Kiana



Elevation

166 ft



Coordinates



    66°
    58'
          33"
        N
  
      ,
    
    160°
    26'
          12"
        W
  





Metar
PAIK 071256Z AUTO 25010KT 10SM OVC007 03/02 A2987 RMK AO2 SLP117 T00280017









Runways






Designator
Length
Width
Surface
Rops




6/24          
1036          
30          
GVL          
No/No          













Airport map






Aerial View