KMSO








Missoula Montana Airport





Airport

ICAO code


  KMSO





IATA Code

MSO




Summary

ICAO Region

NAM



ICAO Territory





United States






 








Location

Missoula, Montana




Serving

Missoula



Elevation

3206 ft



Coordinates



    46°
    55'
          8"
        N
  
      ,
    
    114°
    5'
          1"
        W
  




KCC

BSk



Airport CFIT

Altimeter Temperature Error Correction



Airport WX

Mountain Waves




Metar
KMSO 071353Z 00000KT 10SM CLR 11/03 A3016 RMK AO2 SLP195 T01060033








Missoula Montana Airport, formerly known as Missoula International Airport, is a public use airport located 4 nm northwest of the central business district of Missoula, a city in Missoula County, Montana, USA.






Runways






Designator
Length
Width
Surface
Rops




7/25          
1406          
23          
ASP          
Yes/Yes          


11/29          
2896          
46          
ASP          
Yes/Yes          













Airport map






Aerial View