ESOW








Stockholm-Vasteras





Airport

ICAO code


  ESOW






Summary

ICAO Region

EUR



ICAO Territory





Sweden






 








Location

Västerås,




Elevation

21 ft



Coordinates



    59°
    35'
          22"
        N
  
      ,
    
    16°
    38'
          1"
        E
  




KCC

Dfb




Metar
ESOW 071220Z AUTO 13005KT 090V170 2200 NCD 24/14 Q1022








Description
Västerås Airport, now known as Stockholm Västerås Airport and originally as Hässlö Flygplats is located about 5 km east of Västerås city centre and about 110 km west of Stockholm, Sweden. Most movements are general aviation but since attracting some low cost operators, it has been renamed by the airport operator as 'Stockholm Västerås'. It was originally a Swedish Air Force base when it was called 'Hässlö Flygplats'.
Climatology
Humid Continental climate (Köppen climate classification Dfb) - Variable weather patterns and a large seasonal temperature variance. Summers are often warm and humid with frequent thunderstorms and winters can be very cold with frequent snowfall and persistent snow cover.






Runways






Designator
Length
Width
Surface
Rops




1/19          
2581          
50          
ASP          
Yes/Yes          













Airport map






Aerial View