VABP








Raja Bhoj Airport





Airport

ICAO code


  VABP






Summary

ICAO Region

APAC



ICAO Territory





India






 








Location

Bhopal, Madhya Pradesh,




Coordinates



    23°
    17'
          28"
        N
  
      ,
    
    77°
    20'
          8"
        E
  




KCC

Cwa



Airport WX

Cumulonimbus




Metar
VABP 071200Z 26009KT 6000 FEW020 SCT025 SCT100 27/26 Q1005 NOSIG








Description
Raja Bhoj Airport is a domestic airport located in Gandhi Nagar which lies 15 km northwest of the central business district of Bhopal, in the state of Madhya Pradesh, India.
Climatology
Humid “subtropical” climate (Köppen climate classification Cwa) - characterized by hot, humid summers and warm winters. Most precipitation occurs during the monsoon season between late June and late September. Most summer rainfall occurs during thunderstorms.






Runways






Designator
Length
Width
Surface
Rops




6/24          
1042          
45          
BIT          
Yes/Yes          


12/30          
2042          
45          
ASP          
Yes/Yes          













Airport map






Aerial View