PATQ








Atqasuk Edward Burnell Sr Memorial Airport





Airport

ICAO code


  PATQ





IATA Code

ATK




Summary

ICAO Region

NAM



ICAO Territory





Alaska






 








Location

Atqasuk, Alaska




Serving

Atqasuk



Elevation

96 ft



Coordinates



    70°
    28'
          2"
        N
  
      ,
    
    157°
    26'
          10"
        W
  





Metar
PATQ 071333Z AUTO 27009KT 3SM BR OVC004 00/M01 A2984 RMK AO2 UPE25RAB08E19 CIG 003V009 P0000 FZRANO TSNO









Runways






Designator
Length
Width
Surface
Rops




6/24          
1332          
27          
GVL          
Yes/Yes          













Airport map






Aerial View