LGHI








Chios Island National Airport





Airport

ICAO code


  LGHI





IATA Code

JKH




Summary

ICAO Region

EUR



ICAO Territory





Greece






 








Location

Kampos, Chios




Serving

Chios



Elevation

15 ft



Coordinates



    38°
    20'
          24"
        N
  
      ,
    
    26°
    8'
          23"
        E
  




KCC

Csa




Metar
LGHI 071350Z 04008KT CAVOK 30/19 Q1011








Chios Island National Airport is an airport on the island of Chios in Greece. It is also known as Chios National Airport, "Omiros" or Chios Airport located south of the city of Chios.
Climatology
Warm mediterranean climate (Köppen climate classification Csa)






Runways






Designator
Length
Width
Surface
Rops




1/19          
1511          
30          
ASP          
No/No          













Airport map






Aerial View