EDHL








Lübeck Airport





Airport

ICAO code


  EDHL





IATA Code

LBC




Summary

ICAO Region

EUR



ICAO Territory





Germany






 








Location

Lübeck, Schleswig-Holstein




Serving

Lübeck



Elevation

85 ft



Coordinates



    53°
    48'
          19"
        N
  
      ,
    
    10°
    42'
          6"
        E
  




KCC

Cfb




Metar
EDHL 071320Z VRB04KT CAVOK 29/14 Q1013








Description
International airport located 8km south of the city of Lübeck, in the north of Germany.
Climatology
Temperate Marine climate/Oceanic climate (Köppen climate classification Cfb) - Moderately cool summer and comparatively warm winter.






Runways






Designator
Length
Width
Surface
Rops




7/25          
2102          
60          
ASP          
Yes/Yes          













Airport map






Aerial View