ESNG








Gällivare Lapland Airport





Airport

ICAO code


  ESNG





IATA Code

GEV




Summary

ICAO Region

EUR



ICAO Territory





Sweden






 








Location

Gällivare, Gällivare




Serving

Gällivare



Elevation

1027 ft



Coordinates



    67°
    8'
          5"
        N
  
      ,
    
    20°
    48'
          46"
        E
  




KCC

Dfc




Metar
ESNG 071050Z AUTO 26011KT 230V290 9999 FEW110/// 20/11 Q1017








Gällivare Lapland Airport is an airport located in Gällivare Municipality, Sweden, about 7 km east from Gällivare and about 10 km from Malmberget.
Climatology
Subarctic climate (Köppen climate classification Dfc)






Runways






Designator
Length
Width
Surface
Rops




12/30          
1714          
45          
ASP          
No/No          













Airport map






Aerial View








Airport accidents



F28, Gällivare Sweden, 2016