LGSK








Skiathos Island National Airport





Airport

ICAO code


  LGSK





IATA Code

JSI




Summary

ICAO Region

EUR



ICAO Territory





Greece






 








Location

Skiathos, Magnisia




Serving

Skiathos



Elevation

54 ft



Coordinates



    39°
    10'
          35"
        N
  
      ,
    
    23°
    30'
          11"
        E
  




KCC

Csa



Airport CFIT

Runway Visual Perspective




Metar
LGSK 071350Z 03005KT 9999 FEW018 28/22 Q1014








International airport serving Skiathos, Greece.
Climatology
Mediterranean climate (Köppen climate classification Csa) - Hot, dry summer and a mild wet winter.






Runways






Designator
Length
Width
Surface
Rops




2/20          
1628          
30          
ASP          
Yes/Yes          













Airport map






Aerial View