EGPK








Glasgow Prestwick Airport





Airport

ICAO code


  EGPK





IATA Code

PIK




Summary

ICAO Region

EUR



ICAO Territory





United Kingdom






 








Location

Prestwick, South Ayrshire, Scotland




Serving

Glasgow



Elevation

65 ft



Coordinates



    55°
    30'
          21"
        N
  
      ,
    
    4°
    35'
          12"
        W
  




KCC

Cfb




Metar
EGPK 071350Z 07008KT 020V110 9999 FEW040 25/17 Q1011








Description
International airport serving south west Scotland and the Glasgow urban area, situated 50 km from Glasgow city centre.
Climatology
Temperate Marine climate/Oceanic climate (Köppen climate classification Cfb). Moderately cool summer and comparatively warm winter with a temperature range of only 14°C. Prevailing south-westerly winds from the Atlantic Ocean.






Runways






Designator
Length
Width
Surface
Rops




3/21          
1829          
45          
ASP          
Yes/Yes          


13/31          
2987          
46          
PEM          
Yes/Yes          













Airport map






Aerial View








Airport accidents



B748, Prestwick UK, 2017
GLEX, Prestwick UK, 2014
B738, Prestwick UK, 2009