GMFM








Bassatine Air Base





Airport

ICAO code


  GMFM






Summary

ICAO Region

AFI



ICAO Territory





Morocco






 








Location

Meknes,




Coordinates



    33°
    53'
          0"
        N
  
      ,
    
    5°
    31'
          9"
        W
  





Metar
GMFM 071300Z 05014KT 020V080 9999 SCT020 35/17 Q1010 NOSIG








Bassatine Air Base (IATA: MEK) is a military air base in Meknes, the capital city of the Meknès-Tafilalet region in Morocco. It is also known as the Second Royal Air Force Base, operated by the Royal Moroccan Air Force.






Runways






Designator
Length
Width
Surface
Rops




8/26          
1957          
50          
ASP          
No/No          


9/27          
2820          
50          
ASP          
No/No          













Airport map






Aerial View