DNSO








Sadiq Abubakar III International Airport





Airport

ICAO code


  DNSO





IATA Code

SKO




Summary

ICAO Region

AFI



ICAO Territory





Nigeria






 








Location

Sire, Sokoto State




Serving

Sokoto



Elevation

1010 ft



Coordinates



    12°
    54'
          58"
        N
  
      ,
    
    5°
    12'
          25"
        E
  




KCC

BSh




Metar
DNSO 071200Z 14010KT 9999 BKN012 31/25 Q1014








Sadiq Abubakar III International Airport or Sultan Saddik Abubakar Airport (IATA: SKO, ICAO: DNSO) is an airport serving Sokoto, the capital of the Sokoto State in Nigeria.
Climatology
Warm Steppe climate (Köppen climate classification BSh)






Runways






Designator
Length
Width
Surface
Rops




8/26          
3000          
60          
ASP          
No/No          













Airport map






Aerial View








Airport accidents



B742, Sokoto Nigeria, 2013