SKPE








Matecaña International Airport





Airport

ICAO code


  SKPE





IATA Code

PEI




Summary

ICAO Region

CARSAM



ICAO Territory





Colombia






 








Location

Pereira, Risaraldo Department




Serving

Pereira



Elevation

4418 ft



Coordinates



    4°
    48'
          55"
        N
  
      ,
    
    75°
    44'
          11"
        W
  




KCC

Af




Metar
SKPE 071200Z 09004KT 010V120 9999 SCT020 OVC070 20/16 Q1017








Matecaña International Airport (Spanish: Aeropuerto Internacional de Matecaña) (IATA: PEI, ICAO: SKPE) serves the city of Pereira, Colombia. It also serves as an alternate airport for the cities of Armenia, Cartago, Manizales, Medellín, Cali and Bogotá.
Climatology
Tropical rainforest climate (Köppen climate classification Af)






Runways






Designator
Length
Width
Surface
Rops




8/26          
2020          
45          
ASP          
Yes/Yes          













Airport map






Aerial View