UAKK








Sary-Arka Airport





Airport

ICAO code


  UAKK





IATA Code

KGF




Summary

ICAO Region

APAC



ICAO Territory





Kazakhstan






 








Location

Karaganda,




Serving

Karaganda



Elevation

1765 ft



Coordinates



    49°
    40'
          15"
        N
  
      ,
    
    73°
    20'
          4"
        E
  





Metar
UAKK 071400Z 24003MPS 9999 BKN049 12/06 Q1020 NOSIG RMK QFE718/0957








Description
Sary-Arka Airport is the airport of Karagandy, Kazakhstan. It is located 24 km southeast of the city.






Runways






Designator
Length
Width
Surface
Rops




5/23          
3301          
60          
CON          
Yes/Yes          













Airport map






Aerial View