SYCJ








Georgetown/Cheddi Jagan International





Airport

ICAO code


  SYCJ





IATA Code

GEO




Summary

ICAO Region

CARSAM



ICAO Territory





Guyana






 








Location

Timehri, Demerara-Mahaica




Serving

Georgetown



Elevation

95 ft



Coordinates



    6°
    29'
          58"
        N
  
      ,
    
    58°
    15'
          17"
        W
  




KCC

Af




Metar
SYCJ 071300Z 19004KT 9999 FEW018 30/26 Q1011 NOSIG








Cheddi Jagan International Airport, formerly Timehri International Airport, is the national airport of Guyana. The airport is located on the right bank of the Demerara River in the city of Timehri, 41 km south of Guyana's capital, Georgetown.
Climatology
Tropical Rainforest climate (Köppen climate classification Af).






Runways






Designator
Length
Width
Surface
Rops




11/29          
1525          
45          
ASP          
Yes/Yes          


6/24          
2270          
45          
ASP          
Yes/Yes          













Airport map






Aerial View








Airport accidents



B738, Georgetown Guyana, 2011