ESGG








Gothenburg/Landvetter





Airport

ICAO code


  ESGG






Summary

ICAO Region

EUR



ICAO Territory





Sweden






 








Location

Gothenburg, Sweden,




Elevation

506 ft



Coordinates



    57°
    39'
          46"
        N
  
      ,
    
    12°
    16'
          47"
        E
  




KCC

Cfb




Metar
ESGG 071120Z 10007KT 070V140 CAVOK 25/15 Q1018








Description
International airport serving Gothenburg in Western Sweden.
Climatology
Temperate Marine climate/Oceanic climate (Köppen climate classification Cfb). Moderately cool summer and comparatively warm winter.






Runways






Designator
Length
Width
Surface
Rops




3/21          
3299          
45          
ASP          
Yes/Yes          













Airport map






Aerial View








Airport accidents



RJ1H, vicinity Gothenburg Sweden, 2016