KCAE








Columbia Metropolitan Airport





Airport

ICAO code


  KCAE





IATA Code

CAE




Summary

ICAO Region

NAM



ICAO Territory





United States






 








Location

West Columbia, South Carolina




Serving

Columbia



Elevation

236 ft



Coordinates



    33°
    56'
          20"
        N
  
      ,
    
    81°
    7'
          10"
        W
  




KCC

Cfa




Metar
KCAE 071256Z 30006KT 10SM FEW007 22/21 A2989 RMK AO2 SLP118 T02170211








Description
Columbia Metropolitan Airport is the main airport serving Columbia, South Carolina, USA. The airport lies 5 nm southwest of Columbia's central business district.














Airport map






Aerial View








Airport accidents



LJ60, Columbia SC USA, 2008