EGHH








Bournemouth Airport





Airport

ICAO code


  EGHH





IATA Code

BOH




Summary

ICAO Region

EUR



ICAO Territory





United Kingdom






 








Location

Hurn, Dorset, England




Serving

Bournemouth



Elevation

38 ft



Coordinates



    50°
    46'
          48"
        N
  
      ,
    
    1°
    50'
          33"
        W
  




KCC

Cfb




Metar
EGHH 071420Z 02003KT 4500 -RA BR SCT015 BKN033 17/17 Q1009








Description
A small international airport serving the area around the city of Bournemouth.
Climatology
Temperate Marine climate/Oceanic climate (Köppen climate classification Cfb). Moderately cool summer and comparatively warm winter with a mean temperature range of only 14°C. Prevailing south-westerly winds.






Runways






Designator
Length
Width
Surface
Rops




8/26          
2271          
46          
ASP          
Yes/Yes          













Airport map






Aerial View








Airport accidents



C525, vicinity Bournemouth UK, 2019
HAWK, vicinity Bournemouth, UK 2011
DH8D, Bournemouth UK, 2010
B733, vicinity Bournemouth UK, 2007
S61, vicinity Bournemouth UK, 2002