SVPR








Manuel Carlos Piar Guayana Airport





Airport

ICAO code


  SVPR





IATA Code

PZO




Summary

ICAO Region

CARSAM



ICAO Territory





Venezuela






 








Location

Puerto Ordaz, Bolivar




Serving

Ciudad Guayana



Elevation

472 ft



Coordinates



    8°
    17'
          19"
        N
  
      ,
    
    62°
    45'
          31"
        W
  




KCC

Aw




Metar
SVPR 071503Z AUTO 28002KT NCD 31/21 Q1013








Manuel Carlos Piar Guayana International Airport is an airport in the city of Ciudad Guayana, Venezuela.
Climatology
Tropical savanna climate (Köppen climate classification Aw)






Runways






Designator
Length
Width
Surface
Rops




7/25          
2050          
45          
ASP          
Yes/Yes          













Airport map






Aerial View