LBGO








Gorna Oryahovitsa Airport





Airport

ICAO code


  LBGO





IATA Code

GOZ




Summary

ICAO Region

EUR



ICAO Territory





Bulgaria






 








Location

Veliko Tarnovo, Veliko Tarnovo Province




Serving

Veliko Tarnovo



Elevation

280 ft



Coordinates



    43°
    9'
          5"
        N
  
      ,
    
    25°
    42'
          46"
        E
  




KCC

Dfb




Metar
LBGO 071230Z AUTO VRB07KT 9999 FEW071/// SCT086/// 29/12 Q1017 NOSIG








Gorna Oryahovitsa Airport is an international airport near Veliko Tarnovo, Bulgaria. It is used predominantly for cargo.
Climatology
Humid continental climate (Köppen climate classification Dfb)






Runways






Designator
Length
Width
Surface
Rops




10/28          
2450          
45          
CON          
No/No          













Airport map






Aerial View