VNKT








Kathmandu/Tribhuvan International Airport





Airport

ICAO code


  VNKT





IATA Code

KTM




Summary

ICAO Region

APAC



ICAO Territory





Nepal






 








Location

Kathmandu,




Serving

Kathmandu



Elevation

4390 ft



Coordinates



    27°
    41'
          50"
        N
  
      ,
    
    85°
    21'
          28"
        E
  




KCC

Cwa




Metar
VNKT 071230Z 26007KT 9999 FEW015 SCT030 26/20 Q1012 NOSIG








International airport serving the capital city of Nepal.
Climatology
Humid “subtropical” climate (Köppen climate classification Cwa) - characterized by hot, humid summers and cool winters. Significant amounts of precipitation occur in all seasons in most areas. Humid subtropical climates in Asia differ from those in other continents, in that they generally have a pronounced dry winter.














Airport map






Aerial View








Airport accidents



B738, Kathmandu Nepal, 2022
B739, Kathmandu Nepal, 2018
D228, vicinity Kathmandu Nepal, 2012
DH8D, Kathmandu Nepal, 2018
A333, Kathmandu Nepal, 2015