LGPZ








Aktion National Airport





Airport

ICAO code


  LGPZ





IATA Code

PVK




Summary

ICAO Region

EUR



ICAO Territory





Greece






 








Location

Preveza, Epirus




Serving

Preveza



Elevation

11 ft



Coordinates



    38°
    55'
          26"
        N
  
      ,
    
    20°
    46'
          6"
        E
  




KCC

Csa




Metar
LGPZ 071350Z 27014KT 9999 FEW020 30/24 Q1014








Aktion National Airport is a civil/military airport serving Preveza and Lefkada in Greece.
Climatology
Warm mediterranean climate (Köppen climate classification Csa)






Runways






Designator
Length
Width
Surface
Rops




07L/25R          
2871          
45          
ASP          
No/No          













Airport map






Aerial View