UBBB








Heydar Aliyev International Airport





Airport

ICAO code


  UBBB





IATA Code

GYD




Summary

ICAO Region

APAC



ICAO Territory





Azerbaijan






 








Location

Bina, Absheron




Serving

Baku



Elevation

10 ft



Coordinates



    40°
    28'
          3"
        N
  
      ,
    
    50°
    2'
          48"
        E
  




KCC

BWk




Metar
UBBB 071530Z 01008KT CAVOK 22/13 Q1020 NOSIG








Baku Heydar Aliyev International Airport is one of the six international airports serving Azerbaijan. Formerly, it was called Bina International Airport by the name of a suburb in Baku.
Climatology
Cold steppe climate(Köppen climate classification BWk)






Runways






Designator
Length
Width
Surface
Rops




16/34          
2700          
60          
ASP          
Yes/Yes          


18/36          
3200          
51          
CON          
Yes/Yes          













Airport map






Aerial View