ZSNJ








Nanjing Lukou International





Airport

ICAO code


  ZSNJ






Summary

ICAO Region

APAC



ICAO Territory





China






 








Location

Nanjing, Jiangsu,




Coordinates



    31°
    44'
          32"
        N
  
      ,
    
    118°
    51'
          43"
        E
  




KCC

Cfa




Metar
ZSNJ 071300Z 05003MPS CAVOK 29/26 Q1012 NOSIG








Description
Nanjing Lukou International Airport is the main airport of Nanjing, the capital of China's Jiangsu province. The airport is located in the suburban Jiangning District, over 35 km to the south from Nanjing's downtown area.
Climatology
Nanjing has a humid subtropical climate (Köppen climate classification Cfa) and is under the influence of the East Asia Monsoon. The four seasons are distinct here, with damp conditions seen throughout the year, very hot and muggy summers, cold, damp winters, and in between, spring and autumn are of reasonable length.














Airport map






Aerial View