RJOS








Tokushima Airport





Airport

ICAO code


  RJOS





IATA Code

TKS




Summary

ICAO Region

APAC



ICAO Territory





Japan






 








Location

Matsushige, Tokushima Prefecture




Serving

Tokushima



Elevation

37 ft



Coordinates



    34°
    8'
          4"
        N
  
      ,
    
    134°
    37'
          5"
        E
  




KCC

Cfa




Metar
RJOS 071300Z 17006KT 9999 FEW030 28/24 Q1014








Tokushima Awaodori Airport is a joint civil-military public airport in Matsushige, Tokushima, Japan, near the city of Tokushima.
Climatology
Humid Sub-tropical climate (Köppen climate classification Cfa)






Runways






Designator
Length
Width
Surface
Rops




11/29          
1999          
46          
ASP          
Yes/Yes          













Airport map






Aerial View