FAUT








K. D. Matanzima Airport





Airport

ICAO code


  FAUT





IATA Code

UTT




Summary

ICAO Region

AFI



ICAO Territory





South Africa






 








Location

, Eastern Cape




Serving

Umtata



Elevation

2400 ft



Coordinates



    31°
    32'
          52"
        S
  
      ,
    
    28°
    40'
          27"
        E
  





Metar
FAUT 071200Z 17003KT 9999 BKN018 16/09 Q1019









Runways






Designator
Length
Width
Surface
Rops




9/27          
1500          
30          
GRE          
No/No          


14/32          
2000          
23          
ASP          
No/No          













Airport map






Aerial View