KCOD








Yellowstone Regional Airport





Airport

ICAO code


  KCOD






Summary

ICAO Region

NAM



ICAO Territory





United States






 








Location

Cody, Wyoming,




Coordinates



    44°
    31'
          12"
        N
  
      ,
    
    109°
    1'
          25"
        W
  




KCC

BSk



Airport CFIT

Altimeter Temperature Error Correction



Airport RE

Hot and High Operations



Airport WX

Mountain Waves




Metar
KCOD 071356Z AUTO 00000KT 10SM CLR 16/03 A3024 RMK AO2 SLP194 T01610028








Description
Yellowstone Regional Airport is a public use airport located 4 km southeast of the central business district of Cody, a city in Park County, Wyoming.
Climatology
Semi-arid climate (Köppen climate classification BSk). - Hot, sometimes extremely hot summers and cold, sometimes very cold winters. Some snowfall during the winter. Areas featuring cold semi-arid climates are sometimes subject to major temperature swings during a 24 hour period.














Airport map






Aerial View