KLUK








Cincinnati Municipal Airport





Airport

ICAO code


  KLUK





IATA Code

LUK




Summary

ICAO Region

NAM



ICAO Territory





United States






 








Location

Cincinnati, Ohio




Serving

Cincinnati



Elevation

483 ft



Coordinates



    39°
    6'
          12"
        N
  
      ,
    
    84°
    25'
          8"
        W
  




KCC

Dfa



Airport LOS

Parallel Runway Operation



Airport WX

Cumulonimbus




Metar
KLUK 071353Z 35008KT 10SM CLR 17/09 A3012 RMK AO2 SLP198 T01670094








Description
Cincinnati Municipal Airport, also know as Lunken Field, is a public use airport located 3 nm southeast of the central business district of Cincinnati, Ohio, USA.






Runways






Designator
Length
Width
Surface
Rops




03L/21R          
1159          
30          
ASP          
Yes/Yes          


7/25          
1563          
30          
ASP          
Yes/Yes          


03R/21L          
1860          
46          
ASP          
Yes/Yes          













Airport map






Aerial View