UAOO








Kyzylorda Airport





Airport

ICAO code


  UAOO





IATA Code

KZO




Summary

ICAO Region

APAC



ICAO Territory





Kazakhstan






 








Location

Kyzylorda,




Serving

Kyzylorda



Elevation

430 ft



Coordinates



    44°
    42'
          44"
        N
  
      ,
    
    65°
    35'
          34"
        E
  




KCC

BSk



Airport BS

Bird Strike



Airport CFIT

Altimeter Temperature Error Correction



Airport WX

Cumulonimbus




Metar
UAOO 071400Z 32003MPS CAVOK 18/02 Q1022 NOSIG RMK QFE755/1007








Description
Regional airport serving the city of Kyzylorda (formerly Kzyl-Orda), the capital city of Kyzylorda province.
Climatology
Cold Semi-arid climate (Köppen climate classification BSk). - Hot, sometimes extremely hot summers and cold, sometimes very cold winters. Some snowfall during the winter. Areas featuring cold semi-arid climates are sometimes subject to major temperature swings during a 24 hour period.














Airport map






Aerial View