PAWM








White Mountain Airport





Airport

ICAO code


  PAWM





IATA Code

WMO




Summary

ICAO Region

NAM



ICAO Territory





Alaska






 








Location

, Alaska




Serving

White Mountain



Elevation

267 ft



Coordinates



    64°
    41'
          21"
        N
  
      ,
    
    163°
    24'
          46"
        W
  





Metar
PAWM 071214Z AUTO 00000KT 9SM OVC015 04/03 A2987 RMK AO2 PNO $









Runways






Designator
Length
Width
Surface
Rops




15/33          
914          
18          
GRVL-G          
No/No          













Airport map






Aerial View