ENAT








Alta Airport





Airport

ICAO code


  ENAT





IATA Code

ALF




Summary

ICAO Region

EUR



ICAO Territory





Norway






 








Location

Elvebakken, Troms og Finnmark




Serving

Alta



Elevation

10 ft



Coordinates



    69°
    58'
          34"
        N
  
      ,
    
    23°
    22'
          18"
        E
  




KCC

Dfc



Airport CFIT

Altimeter Temperature Error Correction



Airport GND

Aircraft Ground De/Anti Icing



Airport RE

Landing on Contaminated Runways




Metar
ENAT 071350Z 07004KT 9999 FEW025 SCT044 14/09 Q1017 RMK WIND 700FT VRB05KT








Alta Airport is an international airport serving Alta, a town and municipality in Troms og Finnmark, Norway. The airport is located at Elvebakken, 2.5 nm east of the city center.






Runways






Designator
Length
Width
Surface
Rops




11/29          
2184          
40          
ASP          
Yes/Yes          













Airport map






Aerial View