KMLB








Melbourne Orlando International Airport





Airport

ICAO code


  KMLB





IATA Code

MLB




Summary

ICAO Region

NAM



ICAO Territory





United States






 








Location

Melbourne, Florida




Serving

Orlando



Elevation

33 ft



Coordinates



    28°
    6'
          8"
        N
  
      ,
    
    80°
    37'
          49"
        W
  




KCC

Cfa



Airport LOS

Parallel Runway Operation




Metar
KMLB 071353Z 21007KT 10SM CLR 30/24 A2988 RMK AO2 SLP117 T03000244








Melbourne International Airport is a public airport located 1.5 nm northwest of the downtown business district of Melbourne, a city in Brevard County, Florida.






Runways






Designator
Length
Width
Surface
Rops




5/23          
915          
23          
ASP          
Yes/Yes          


09L/27R          
1829          
46          
ASP          
Yes/Yes          


09R/27L          
3103          
46          
ASP          
Yes/Yes          













Airport map






Aerial View