NVVV








Bauerfield International Airport





Airport

ICAO code


  NVVV





IATA Code

VLI




Summary

ICAO Region

APAC



ICAO Territory





Vanuatu






 








Location

Port Vila, Efate




Serving

Port Vila



Elevation

68 ft



Coordinates



    17°
    41'
          57"
        S
  
      ,
    
    168°
    19'
          11"
        E
  




KCC

Af




Metar
NVVV 071300Z 11013KT 9999 BKN020 22/17 Q1018








Bauerfield International Airport is an airport located in Port Vila, Vanuatu.
Climatology
Tropical Rainforest climate (Köppen climate classification Af)






Runways






Designator
Length
Width
Surface
Rops




11R/29L          
1009          
32          
GRS          
No/No          


11/29          
2600          
45          
ASP          
Yes/Yes          













Airport map






Aerial View