WADD








Denpasar/Ngurah Rai International Airport





Airport

ICAO code


  WADD





IATA Code

DPS




Summary

ICAO Region

APAC



ICAO Territory





Indonesia






 








Location

Denpasar, Badung, Bali




Serving

Denpasar



Elevation

4 ft



Coordinates



    8°
    44'
          53"
        S
  
      ,
    
    115°
    10'
          3"
        E
  




KCC

Aw




Metar
WADD 071400Z 14012KT 9999 SCT016 27/25 Q1013 NOSIG








International airport serving Bali and Denpasar.
Climatology
Tropical Savanna climate (Köppen climate classification Aw) - monthly mean temperature above 18°C in every month of the year and a pronounced dry season.














Airport map






Aerial View








Airport accidents



B738, vicinity Denpasar Bali Indonesia, 2013