MMCV








General Pedro J. Méndez International Airport





Airport

ICAO code


  MMCV





IATA Code

CVM




Summary

ICAO Region

CARSAM



ICAO Territory





Mexico






 








Location

Cuidad Victoria, Tamaulipas




Serving

Ciudad Victoria



Elevation

761 ft



Coordinates



    23°
    42'
          12"
        N
  
      ,
    
    98°
    57'
          23"
        W
  




KCC

Cwa




Metar
MMCV 071240Z 34010KT 8SM BKN050 25/21 A2991 RMK 8/500 HZY








General Pedro J. Méndez International Airport is an international airport located in Ciudad Victoria, Tamaulipas, Mexico.
Climatology
Humid Subtropical climate (Köppen climate classification Cwa)






Runways






Designator
Length
Width
Surface
Rops




17/35          
1420          
30          
ASP          
No/No          


15/33          
2200          
45          
ASP          
No/No          













Airport map






Aerial View