URWW








Volgograd International Airport





Airport

ICAO code


  URWW





IATA Code

VOG




Summary

ICAO Region

EUR



ICAO Territory





Russian Federation






 








Location

Gumrak, Volgograd Oblast




Serving

Volgograd



Elevation

482 ft



Coordinates



    48°
    46'
          54"
        N
  
      ,
    
    44°
    20'
          48"
        E
  




KCC

Aw




Metar
URWW 071230Z 09006MPS 050V140 CAVOK 24/03 Q1027 R05/010070 NOSIG








Volgograd International Airport is an airport located 15 km northwest of the city of Volgograd, formerly Stalingrad, in Russia.
Climatology
Hot summer humid continental climate (Köppen climate classification Aw)






Runways






Designator
Length
Width
Surface
Rops




8/26          
486          
107          
GRS          
No/No          


11R/29L          
1699          
101          
GRS          
No/No          


11/29          
2469          
49          
ASP          
Yes/Yes          













Airport map






Aerial View