WIHH








Jakarta/Halim Perdanakusuma International Airport





Airport

ICAO code


  WIHH





IATA Code

HLP




Summary

ICAO Region

APAC



ICAO Territory





Indonesia






 








Location

East Jakarta, Jakarta




Serving

Jakarta



Elevation

82 ft



Coordinates



    6°
    16'
          3"
        S
  
      ,
    
    106°
    53'
          24"
        E
  




KCC

Aw




Metar
WIHH 071430Z 10007KT 7000 FEW020 29/22 Q1012 NOSIG METAR WIMM 071430Z 12010KT 9999 SCT018 27/26 Q1011 NOSIG








Airport serving Jakarta.
Climatology
Tropical Savanna climate (Köppen climate classification Aw) - monthly mean temperature above 18°C in every month of the year and a pronounced dry season.














Airport map






Aerial View








Airport accidents



SU95, manoeuvring near Jakarta Indonesia, 2012
B738 / AT46, Jakarta Halim Indonesia, 2016