KSUU








Travis Air Force Base





Airport

ICAO code


  KSUU






Summary

ICAO Region

NAM



ICAO Territory





United States






 








Location

Fairfield, California,




Coordinates



    38°
    15'
          59"
        N
  
      ,
    
    121°
    56'
          30"
        W
  




KCC

Csb




Metar
KSUU 071355Z AUTO 23009KT 10SM CLR 16/11 A2985 RMK AO2 SLP114 T01610110 $








Description
Travis Air Force Base is a United States Air Force installation located 5 km east of the central business district of Fairfield, in Solano County, California.
Climatology
Mediterranean climate (Köppen climate classification Csb) - cool, wet winters and warm, mostly dry summers.






Runways






Designator
Length
Width
Surface
Rops




03R/21L          
3350          
46          
CON          
Yes/Yes          


03L/21R          
3353          
46          
PEM          
Yes/Yes          













Airport map






Aerial View