KGTF








Great Falls International





Airport

ICAO code


  KGTF





IATA Code

GTF




Summary

ICAO Region

NAM



ICAO Territory





United States






 








Location

Great Falls, Montana




Serving

Great Falls



Elevation

3680 ft



Coordinates



    47°
    28'
          40"
        N
  
      ,
    
    111°
    21'
          33"
        W
  




KCC

BSk



Airport CFIT

Altimeter Temperature Error Correction



Airport RE

Hot and High Operations



Airport WX

Mountain Waves




Metar
KGTF 071053Z AUTO 26004KT 10SM CLR 13/04 A3012 RMK AO2 SLP170 T01280044








Great Falls International Airport is a joint civil-military public airport located within city limits, 5 km southwest of central Great Falls in Cascade County, Montana, USA. GTF serves the Great Falls area, as well as other communities throughout central Montana.














Airport map






Aerial View