LSMA








Alpnach Air Base





Airport

ICAO code


  LSMA






Summary

ICAO Region

EUR



ICAO Territory





Switzerland






 








Location

Alpnach, Obwalden




Serving

Alpnach



Elevation

1460 ft



Coordinates



    46°
    56'
          38"
        N
  
      ,
    
    8°
    17'
          3"
        E
  





Metar
LSMA 071420Z AUTO 07005KT 9999NDV NCD 26/18 Q1011 RMK








Military airbase outside Alpnach, Switzerland.
Climatology
Humid continental climate (Köppen climate classification Dfb)






Runways






Designator
Length
Width
Surface
Rops




1/19          
1500          
40          
ASP          
No/No          













Airport map






Aerial View