LFVP








Saint-Pierre Airport





Airport

ICAO code


  LFVP





IATA Code

FSP




Summary

ICAO Region

NAT



ICAO Territory





Saint Pierre et Miquelon






 








Location

Saint-Pierre et Michelon, North Atlantic,




Serving

Saint-Pierre



Elevation

27 ft



Coordinates



    46°
    45'
          45"
        N
  
      ,
    
    56°
    10'
          33"
        W
  




KCC

Dfb




Metar
LFVP 071500Z AUTO 13012KT 9999 SCT015 BKN240 19/15 Q1025 NOSIG








Description
Airport serving the island of St Pierre, part of the French territory St Pierre et Michelon off the eastern coast of Canada near St Johns
Climatology
Humid Continental climate (Köppen climate classification Dfb) - Variable weather patterns and a large seasonal temperature variance. Summers are often warm and humid with frequent thunderstorms and winters can be very cold with frequent snowfall and persistent snow cover.
The separate article climate Newfoundland contains more detail on the climate of Newfoundland and associated weather phenomena.






Runways






Designator
Length
Width
Surface
Rops




8/26          
1798          
46          
ASP          
No/No          













Airport map






Aerial View