KABR








Aberdeen Regional Airport





Airport

ICAO code


  KABR





IATA Code

ABR




Summary

ICAO Region

NAM



ICAO Territory





United States






 








Location

Aberdeen, South Dakota




Serving

Aberdeen



Elevation

1302 ft



Coordinates



    45°
    27'
          11"
        N
  
      ,
    
    98°
    25'
          6"
        W
  




KCC

Dfa



Airport CFIT

Altimeter Temperature Error Correction




Metar
KABR 071353Z AUTO 18005KT 10SM CLR 12/09 A3027 RMK AO2 SLP250 T01220089








Description
Aberdeen Regional Airport is a public use airport located 4 km east of the central business district of Aberdeen, a city in Brown County, South Dakota.
Climatology
Humid continental climate (Köppen climate classification Dfa) - characterized by four seasons: cold, windy, snowy winters, mild springs, hot, humid summers, and crisp and relatively short autumns. Precipitation reaches its lowest in January and February and peaks in summer and latter half of spring.














Airport map






Aerial View