OMAA








Abu Dhabi International Airport





Airport

ICAO code


  OMAA





IATA Code

AUH




Summary

ICAO Region

MID



ICAO Territory





United Arab Emirates






 








Location

Abu Dhabi, Abu Dhabi




Serving

Abu Dhabi



Elevation

88 ft



Coordinates



    24°
    25'
          59"
        N
  
      ,
    
    54°
    39'
          4"
        E
  




KCC

BWh



Airport LOS

Parallel Runway Operation



Airport WX

Fog




Metar
OMAA 071400Z 32012KT CAVOK 36/26 Q1000 NOSIG








International airport to the east of the city of Abu Dhabi.
Climatology
Hot Desert Climate (Köppen climate classification BWh)






Runways






Designator
Length
Width
Surface
Rops




13/31          
4100          
45          
ASP          
Yes/Yes          













Airport map






Aerial View








Airport accidents



B78X, vicinity Abu Dhabi UAE, 2020
A332, Abu Dhabi UAE, 2012
B773, Abu Dhabi UAE, 2016
A320, vicinity Abu Dhabi UAE, 2012
DH8C, vicinity Abu Dhabi UAE, 2012