LFOP








Rouen Airport





Airport

ICAO code


  LFOP





IATA Code

URO




Summary

ICAO Region

EUR



ICAO Territory





France






 








Location

, Haute-Normandie




Serving

Rouen



Elevation

512 ft



Coordinates



    49°
    23'
          3"
        N
  
      ,
    
    1°
    10'
          29"
        E
  





Metar
LFOP 071400Z AUTO 14006KT 9999 SCT017 BKN024 OVC060 20/16 Q1008 TEMPO 3000 SHRA BKN009 BKN020CB









Runways






Designator
Length
Width
Surface
Rops




5/23          
0          
0          
UNK          
No/No          


4/22          
1700          
45          
ASP          
Yes/Yes          













Airport map






Aerial View