LEHC








Huesca/Pirineos Airport





Airport

ICAO code


  LEHC





IATA Code

HSK




Summary

ICAO Region

EUR



ICAO Territory





Spain






 








Location

, Aragon




Serving

Huesca



Elevation

1768 ft



Coordinates



    42°
    4'
          51"
        N
  
      ,
    
    0°
    19'
          24"
        W
  





Metar
LEHC 071400Z 26003KT CAVOK 26/07 Q1011

















Airport map






Aerial View