LGKO








Kos/Ippokratis





Airport

ICAO code


  LGKO





IATA Code

KGS




Summary

ICAO Region

EUR



ICAO Territory





Greece






 








Location

Andimachia, Kos




Serving

Kos



Elevation

409 ft



Coordinates



    36°
    47'
          42"
        N
  
      ,
    
    27°
    5'
          30"
        E
  




KCC

Csa




Metar
LGKO 071350Z 31017KT CAVOK 31/17 Q1011








Description
International airport on the island of Kos, Greece
Climatology
Mediterranean climate (Köppen climate classification Csa) - Hot, dry summer and a mild wet winter.






Runways






Designator
Length
Width
Surface
Rops




14/32          
2390          
45          
ASP          
Yes/Yes          













Airport map






Aerial View