VANP








Dr. Babasaheb Ambedkar International Airport





Airport

ICAO code


  VANP






Summary

ICAO Region

APAC



ICAO Territory





India






 








Location

Nagpur, Maharashtra,




Coordinates



    21°
    5'
          32"
        N
  
      ,
    
    79°
    2'
          49"
        E
  




KCC

Cwa



Airport WX

Cumulonimbus




Metar
VANP 071330Z 08002KT 3000 TS SCT018 FEW030CB BKN080 26/24 Q1006 NOSIG








Description
Dr. Babasaheb Ambedkar International Airport is an international airport located 4 km south of the city of Nagpur, in the state of Maharashtra, India.
Climatology
Humid “subtropical” climate (Köppen climate classification Cwa) - characterized by hot, humid summers and warm winters. Most precipitation occurs during the monsoon season between late June and late September. Most summer rainfall occurs during thunderstorms.






Runways






Designator
Length
Width
Surface
Rops




9/27          
1938          
46          
ASP          
Yes/Yes          


14/32          
3200          
46          
ASP          
Yes/Yes          













Airport map






Aerial View