EHGG








Eelde Airport





Airport

ICAO code


  EHGG





IATA Code

GRQ




Summary

ICAO Region

EUR



ICAO Territory





Netherlands






 








Location

Eelde, Drenthe




Serving

Groningen



Elevation

17 ft



Coordinates



    53°
    7'
          11"
        N
  
      ,
    
    6°
    34'
          46"
        E
  




KCC

Cfb




Metar
EHGG 071325Z AUTO 16004KT 080V230 9999 NSC 24/17 Q1011 NOSIG








Groningen Airport Eelde is a civilian airport near Eelde, a town in the province of Drenthe in the Netherlands. It is located 4.8 nm south of the city of Groningen.
Climatology
Temperate Marine climate/Oceanic climate (Köppen climate classification Cfb). Moderately cool summer and comparatively warm winter with a temperature range of only 14°C. Prevailing south-westerly winds from the Atlantic Ocean.






Runways






Designator
Length
Width
Surface
Rops




1/19          
1500          
45          
ASP          
No/No          


5/23          
1800          
45          
ASP          
No/No          













Airport map






Aerial View








Airport accidents



F50, Groningen Netherlands, 2007
MD88, Groningen Netherlands, 2003