HEPS








Port Said Airport





Airport

ICAO code


  HEPS





IATA Code

PSD




Summary

ICAO Region

AFI



ICAO Territory





Egypt






 








Location

Port Said, Ash Sharqiyah




Serving

Port Said



Elevation

8 ft



Coordinates



    31°
    16'
          46"
        N
  
      ,
    
    32°
    14'
          24"
        E
  





Metar
HEPS 071200Z 35008KT CAVOK 32/24 Q1010 NOSIG









Runways






Designator
Length
Width
Surface
Rops




10/28          
2349          
45          
ASP          
No/No          













Airport map






Aerial View