MKJS








Montego Bay/Sangster International Airport





Airport

ICAO code


  MKJS





IATA Code

MBJ




Summary

ICAO Region

CARSAM



ICAO Territory





Jamaica






 








Location

Montego Bay,




Serving

Montego Bay



Elevation

4 ft



Coordinates



    18°
    30'
          4"
        N
  
      ,
    
    77°
    54'
          48"
        W
  




KCC

Aw



Airport WX

Tropical Revolving Storm




Metar
MKJS 071100Z 16004KT 9999 FEW022CB 27/23 Q1009








Description
International airport serving Montego Bay, Jamaica.
Climatology
Tropical Savanna climate (Köppen climate classification Aw)






Runways






Designator
Length
Width
Surface
Rops




7/25          
2662          
46          
ASP          
Yes/Yes          













Airport map






Aerial View








Airport accidents



A319, Montego Bay Jamaica, 2014
A332, Montego Bay Jamaica, 2008