EDDH








Hamburg Airport





Airport

ICAO code


  EDDH





IATA Code

HAM




Summary

ICAO Region

EUR



ICAO Territory





Germany






 








Location

Fuhlsbuettel,




Serving

Hamburg



Elevation

53 ft



Coordinates



    53°
    37'
          48"
        N
  
      ,
    
    9°
    59'
          18"
        E
  




KCC

Cfb




Metar
EDDH 071420Z AUTO 12004KT 070V170 CAVOK 29/14 Q1012 NOSIG








Description
International airport serving Hamburg, Germany.
Climatology
Temperate Marine climate/Oceanic climate (Köppen climate classification Cfb) - Moderately cool summer and comparatively warm winter.






Runways






Designator
Length
Width
Surface
Rops




5/23          
3250          
46          
ASP          
Yes/Yes          


15/33          
3666          
46          
ASP          
Yes/Yes          













Airport map






Aerial View








Airport accidents



A320, Hamburg Germany, 2008