KJST








John Murtha Johnstown-Cambria County Airport





Airport

ICAO code


  KJST





IATA Code

JST




Summary

ICAO Region

NAM



ICAO Territory





United States






 








Location

Johnstown, Pennsylvania




Serving

Johnstown



Elevation

2284 ft



Coordinates



    40°
    18'
          58"
        N
  
      ,
    
    78°
    50'
          2"
        W
  




KCC

Dfb



Airport WX

Cumulonimbus




Metar
KJST 071423Z AUTO 30014G20KT 10SM BKN018 BKN025 BKN031 13/09 A2996 RMK AO2 T01330094








John Murtha Johnstown–Cambria County Airport is a joint civil-military (ANG) public use airport located 3 nm northeast of the central business district of Johnstown, a city in Cambria County, Pennsylvania, USA.
 














Airport map






Aerial View