KSVC








Grant County Airport





Airport

ICAO code


  KSVC






Summary

ICAO Region

NAM



ICAO Territory





United States






 








Location

Silver City, New Mexico,




Coordinates



    32°
    38'
          19"
        N
  
      ,
    
    108°
    9'
          25"
        W
  




KCC

BSk



Airport RE

Hot and High Operations




Metar
KSVC 071435Z AUTO 00000KT 10SM CLR 20/10 A3037 RMK AO2 T02000100








Description
Grant County Airport is a public use airport located 19 km southeast of the central business district of Silver City, in Grant County, New Mexico.
Climatology
A semi-arid climate (Köppen climate classification BSk), with generally cold, dry winters and hot summers. Late spring and early summer is on average the wettest period of the year.






Runways






Designator
Length
Width
Surface
Rops




3/21          
1413          
24          
GRE          
No/No          


12/30          
1425          
23          
GRE          
No/No          


17/35          
1668          
23          
GRE          
No/No          


8/26          
2073          
30          
ASP          
Yes/Yes          













Airport map






Aerial View