VEPY








Gangtok/Pakyong Airport





Airport

ICAO code


  VEPY





IATA Code

PYG




Summary

ICAO Region

APAC



ICAO Territory





India






 








Location

Pakyong, Sikkim




Serving

Gangtok



Elevation

4590 ft



Coordinates



    27°
    13'
          36"
        N
  
      ,
    
    88°
    35'
          16"
        E
  





Metar
VEPY 070900Z 22005KT 5000 HZ SCT015 28/22 Q1012 NOSIG








Pakyong Airport is a greenfield airport near Gangtok, the state capital of Sikkim, India. The airport, spread over 400 ha (990 acres), is located at Pakyong village about 35 km south of Gangtok. At 4500 ft, Pakyong Airport is one of the five highest airports in India. It is also the first greenfield airport to be constructed in the Northeastern Region of India.






Runways






Designator
Length
Width
Surface
Rops




2/20          
1700          
30          
Grass          
Yes/Yes          













Airport map






Aerial View