LRSB








Sibiu International Airport





Airport

ICAO code


  LRSB





IATA Code

SBZ




Summary

ICAO Region

EUR



ICAO Territory





Romania






 








Location

, Sibiu




Serving

Sibiu



Elevation

1496 ft



Coordinates



    45°
    47'
          8"
        N
  
      ,
    
    24°
    5'
          29"
        E
  





Metar
LRSB 071200Z 13007KT 090V160 CAVOK 27/08 Q1020









Runways






Designator
Length
Width
Surface
Rops




9/27          
2000          
30          
CON          
No/No          













Airport map






Aerial View