CYTH








Thompson Municipal Airport





Airport

ICAO code


  CYTH






Summary

ICAO Region

NAM



ICAO Territory





Canada






 








Location

Thompson, Manitoba,




Coordinates



    55°
    48'
          8"
        N
  
      ,
    
    97°
    51'
          22"
        W
  




KCC

Dfc



Airport BS

Non Avian Wildlife Hazards to Aircraft



Airport CFIT

Altimeter Temperature Error Correction



Airport GND

Aircraft Ground De/Anti Icing




Metar
CYTH 071400Z 22006KT 15SM FEW120 SCT180 12/09 A2985 RMK AC2AC1 SLP118








Description
Regional airport serving Thompson, Manitoba, Canada.
Climatology
Subarctic climate (Köppen climate classification Dfc) - long, usually very cold winters, and short, cool to mild summers.






Runways






Designator
Length
Width
Surface
Rops




14/32          
762          
30          
GVL          
No/No          


5/23          
1768          
46          
ASP          
No/No          













Airport map






Aerial View








Airport accidents



SW4, Thompson MB Canada, 2017