FQQL








Quelimane Airport





Airport

ICAO code


  FQQL





IATA Code

UEL




Summary

ICAO Region

AFI



ICAO Territory





Mozambique






 








Location

Quelimane, Zambezia Province




Serving

Quelimane



Elevation

36 ft



Coordinates



    17°
    51'
          20"
        S
  
      ,
    
    36°
    52'
          7"
        E
  




KCC

Aw




Metar
FQQL 071300Z 09011KT 060V120 9999 FEW020 29/22 Q1019








Description
Airport 2 km north west of Quelimane Mozambique.
Climatology
Tropical Savanna climate (Köppen climate classification Aw) - monthly mean temperature above 18°C in every month of the year and a pronounced dry season.






Runways






Designator
Length
Width
Surface
Rops




9/27          
908          
30          
GVL          
No/No          


18/36          
1800          
45          
ASP          
No/No          













Airport map






Aerial View