LGKP








Karpathos Island National Airport





Airport

ICAO code


  LGKP





IATA Code

AOK




Summary

ICAO Region

EUR



ICAO Territory





Greece






 








Location

Karpathos, Dodecanese




Serving

Karpathos



Elevation

66 ft



Coordinates



    35°
    25'
          16"
        N
  
      ,
    
    27°
    9'
          3"
        E
  




KCC

Csa




Metar
LGKP 071350Z 31026KT CAVOK 30/19 Q1010








Karpathos Island National Airport is an airport in the island of Karpathos, Greece.
Climatology
Warm mediterranean climate (Köppen climate classification Csa)






Runways






Designator
Length
Width
Surface
Rops




12/30          
2399          
30          
ASP          
Yes/Yes          













Airport map






Aerial View