EVVA








Ventspils International Airport





Airport

ICAO code


  EVVA





IATA Code

VNT




Summary

ICAO Region

EUR



ICAO Territory





Latvia






 








Location

Ventspils, Courland




Serving

Ventspils



Elevation

19 ft



Coordinates



    57°
    21'
          28"
        N
  
      ,
    
    21°
    32'
          39"
        E
  





Metar
EVVA 071220Z AUTO 14008KT CAVOK 27/14 Q1023








Ventspils International Airport is an airport Dfb






Runways






Designator
Length
Width
Surface
Rops




3/21          
1298          
32          
PEM          
No/No          













Airport map






Aerial View