GBYD








Banjul/Yundum International Airport





Airport

ICAO code


  GBYD





IATA Code

BJL




Summary

ICAO Region

AFI



ICAO Territory





Gambia






 








Location

Banjul, Gambia




Serving

Banjul



Elevation

95 ft



Coordinates



    13°
    20'
          34"
        N
  
      ,
    
    16°
    39'
          6"
        W
  




KCC

Aw




Metar
GBYD 071100Z 06004KT 9999 BKN011 SCT110 28/24 Q1012








International airport serving the city of Banjul, The Gambia.
Climatology
Tropical Savanna climate (Köppen climate classification Aw)






Runways






Designator
Length
Width
Surface
Rops




14/32          
3600          
45          
ASP          
Yes/Yes          













Airport map






Aerial View