PAFB








Ladd AAF Airfield





Airport

ICAO code


  PAFB





IATA Code

FBK




Summary

ICAO Region

NAM



ICAO Territory





Alaska






 








Location

, Alaska




Serving

Fort Wainwright



Elevation

454 ft



Coordinates



    64°
    50'
          15"
        N
  
      ,
    
    147°
    36'
          52"
        W
  





Metar
PAFB 071226Z AUTO 00000KT 9SM -RA FEW048 OVC070 12/10 A2974 RMK AO2 RAB26 SLP076 $









Runways






Designator
Length
Width
Surface
Rops




7/25          
2614          
46          
ASPH-CONC          
No/No          













Airport map






Aerial View