MZBZ








Philip S W Goldson International Airport





Airport

ICAO code


  MZBZ





IATA Code

BZE




Summary

ICAO Region

CARSAM



ICAO Territory





Belize






 








Location

Ladyville, Belize District




Serving

Belize City



Elevation

16 ft



Coordinates



    17°
    32'
          23"
        N
  
      ,
    
    88°
    18'
          20"
        W
  




KCC

Am



Airport WX

Tropical Revolving Storm




Metar
MZBZ 071400Z VRB02KT 9999 FEW019 28/25 A2976 Q1008 NOSIG








Philip S. W. Goldson International Airport is an airport that serves Belize's largest city, Belize City.
Climatology
Tropical monsoon climate (Köppen climate classification Am)
Belize is vulnerable to Hurricanes from July to October.






Runways






Designator
Length
Width
Surface
Rops




7/25          
2164          
46          
ASP          
Yes/Yes          













Airport map






Aerial View