KMCF








MacDill Air Force Base





Airport

ICAO code


  KMCF





IATA Code

MCF




Summary

ICAO Region

NAM



ICAO Territory





United States






 








Location

Tampa, Florida




Serving

Tampa



Elevation

14 ft



Coordinates



    27°
    50'
          57"
        N
  
      ,
    
    82°
    31'
          17"
        W
  




KCC

Cfa




Metar
KMCF 071355Z AUTO 16004KT 10SM CLR 30/25 A2986 RMK AO2 SLP114 T02960249 FZRANO VISNO RWY23 $








MacDill Air Force Base is a United States Air Force installation located approximately 4nm south-southwest of downtown Tampa, Florida, USA.
 






Runways






Designator
Length
Width
Surface
Rops




4/22          
3481          
46          
ASP          
Yes/Yes          













Airport map






Aerial View