LFGJ








Dole-Tavaux Airport





Airport

ICAO code


  LFGJ





IATA Code

DLE




Summary

ICAO Region

EUR



ICAO Territory





France






 








Location

, Franche-Comte




Serving

Dole



Elevation

645 ft



Coordinates



    47°
    2'
          20"
        N
  
      ,
    
    5°
    25'
          38"
        E
  





Metar
LFGJ 071400Z AUTO 02003KT 330V070 CAVOK 26/19 Q1009 NOSIG









Runways






Designator
Length
Width
Surface
Rops




5/23          
2231          
45          
ASP          
Yes/Yes          













Airport map






Aerial View