KSPI








Abraham Lincoln Capital Airport





Airport

ICAO code


  KSPI





IATA Code

SPI




Summary

ICAO Region

NAM



ICAO Territory





United States






 








Location

Springfield, Illinois




Serving

Springfield



Elevation

598 ft



Coordinates



    39°
    50'
          38"
        N
  
      ,
    
    89°
    40'
          40"
        W
  




KCC

Dfa




Metar
KSPI 071352Z 01009KT 10SM CLR 13/09 A3026 RMK AO2 SLP246 T01330094 $








Description
Abraham Lincoln Capital Airport is a joint use civil and military (ANG) public airport in Sangamon County, Illinois. It is located 6 km northwest of the central business district of Springfield, the capital city of Illinois.






Runways






Designator
Length
Width
Surface
Rops




18/36          
1615          
46          
PEM          
Yes/Yes          


13/31          
2134          
46          
ASP          
Yes/Yes          


4/22          
2438          
46          
CON          
Yes/Yes          













Airport map






Aerial View