FSIA








Seychelles International Airport





Airport

ICAO code


  FSIA





IATA Code

SEZ




Summary

ICAO Region

AFI



ICAO Territory





Seychelles






 








Location

Pointe la rue, Mahé




Serving

Victoria



Elevation

10 ft



Coordinates



    4°
    40'
          18"
        S
  
      ,
    
    55°
    31'
          24"
        E
  




KCC

Aw




Metar
FSIA 071400Z 13010KT 110V170 9999 FEW015CB BKN021 27/25 Q1012 TEMPO 8000 SHRA








International airport serving the islands of the Seychelles.
Climatology
Tropical Savanna climate (Köppen climate classification Aw) - monthly mean temperature above 18°C in every month of the year and a pronounced dry season.






Runways






Designator
Length
Width
Surface
Rops




13/31          
2987          
46          
CON          
Yes/Yes          













Airport map






Aerial View