KDAB








Daytona Beach International Airport





Airport

ICAO code


  KDAB





IATA Code

DAB




Summary

ICAO Region

NAM



ICAO Territory





United States






 








Location

Daytona Beach, Florida




Serving

Daytona Beach



Elevation

34 ft



Coordinates



    29°
    10'
          46"
        N
  
      ,
    
    81°
    3'
          22"
        W
  




KCC

Cfa



Airport LOS

Parallel Runway Operation




Metar
KDAB 071353Z 20007KT 10SM BKN011 BKN040 BKN120 28/26 A2988 RMK SLP117 T02830261








Description
Daytona Beach International Airport is a public county-owned airport located 3 nm southwest of the central business district of Daytona Beach, in Volusia County, Florida.














Airport map






Aerial View