GOTK








Kédougou Airport





Airport

ICAO code


  GOTK





IATA Code

KGG




Summary

ICAO Region

AFI



ICAO Territory





Senegal






 








Location

Kédougou, Tambacounda region




Serving

Kédougou



Elevation

584 ft



Coordinates



    12°
    34'
          20"
        N
  
      ,
    
    12°
    13'
          13"
        W
  




KCC

Aw




Metar
GOTK 071200Z 28010KT 9999 BKN010 30/24 Q1012








Kédougou Airport is an airport serving Kédougou, a town in the Tambacounda Region of Senegal.
Climatology
Tropical Savannah climate (Köppen climate classification Aw)






Runways






Designator
Length
Width
Surface
Rops




11/29          
1800          
45          
ASP          
No/No          













Airport map






Aerial View