MMQT








Querétaro Intercontinental Airport





Airport

ICAO code


  MMQT





IATA Code

QRO




Summary

ICAO Region

CARSAM



ICAO Territory





Mexico






 








Location

Viborillas, Queretaro de Arteaga




Serving

Queretaro



Elevation

6296 ft



Coordinates



    20°
    37'
          2"
        N
  
      ,
    
    100°
    11'
          8"
        W
  




KCC

BSh




Metar
MMQT 071142Z 05011KT 6SM OVC015 16/14 A3025 RMK 8/5// HZY








Querétaro Intercontinental Airport, is an international airport located in the Municipalities of Colón and El Marqués, Querétaro, Mexico.
Climatology
Semi-arid Climate (Köppen climate classification BSh)






Runways






Designator
Length
Width
Surface
Rops




9/27          
3500          
45          
CON          
Yes/Yes          













Airport map






Aerial View