LTAI








Antalya Airport





Airport

ICAO code


  LTAI





IATA Code

AYT




Summary

ICAO Region

EUR



ICAO Territory





Turkey






 








Location

Antayla,




Serving

Antayla



Elevation

177 ft



Coordinates



    36°
    54'
          3"
        N
  
      ,
    
    30°
    48'
          4"
        E
  




KCC

Csa




Metar
LTAI 071220Z 17014KT 9999 FEW030 33/22 Q1007 NOSIG








Description
International airport serving Antalya and surrounding region in Turkey.
Climatology
Dry-summer subtropical ”Mediterranean" climate (Köppen climate classification Csa) - characterized by hot, dry summers and mild winters. During the summer, subtropical high pressure cells dominate, making rainfall unlikely except for the occasional thunderstorm. In the winter, periodic storms bring rain.






Runways






Designator
Length
Width
Surface
Rops




18R/36L          
2990          
45          
concrete          
Yes/Yes          


18C/36C          
3400          
45          
concrete          
Yes/Yes          


18L/36R          
3400          
45          
CON          
Yes/Yes          













Airport map






Aerial View