KMCN








Middle Georgia Regional Airport





Airport

ICAO code


  KMCN





IATA Code

MCN




Summary

ICAO Region

NAM



ICAO Territory





United States






 








Location

Macon, Georgia




Serving

Macon



Elevation

354 ft



Coordinates



    32°
    41'
          46"
        N
  
      ,
    
    83°
    38'
          50"
        W
  




KCC

Cfa




Metar
KMCN 071253Z 32004KT 7SM -RA FEW019 SCT050 BKN100 20/20 A2994 RMK AO2 SLP134 P0001 T02000200 $








Middle Georgia Regional Airport is public use airport located 9 nm south of the central business district of Macon, a city in Bibb County, Georgia, USA.






Runways






Designator
Length
Width
Surface
Rops




13/31          
1524          
46          
ASP          
Yes/Yes          


5/23          
1982          
46          
ASP          
Yes/Yes          













Airport map






Aerial View