KCRW








Yeager Airport





Airport

ICAO code


  KCRW





IATA Code

CRW




Summary

ICAO Region

NAM



ICAO Territory





United States






 








Location

Charleston, West Virginia




Serving

Charleston



Elevation

981 ft



Coordinates



    38°
    22'
          14"
        N
  
      ,
    
    81°
    35'
          46"
        W
  




KCC

Cfa



Airport RE

Engineered Materials Arresting System



Airport WX

Cumulonimbus




Metar
KCRW 071427Z VRB06G15KT 10SM FEW015 BKN025 16/09 A3005 RMK AO2 T01610094 $








Description
West Virginia International Yeager Airport is a joint use civil-military public airport located 3 nm east of the central business district of Charleston, a city in Kanawha County, West Virginia, USA. It is co-located with McLaughlin Air National Guard Base.














Airport map






Aerial View








Airport accidents



CRJ2, Charleston WV USA, 2010