KBTR








Baton Rouge Metropolitan Airport





Airport

ICAO code


  KBTR





IATA Code

BTR




Summary

ICAO Region

NAM



ICAO Territory





United States






 








Location

Baton Rouge, Louisiana




Serving

Baton Rouge



Elevation

70 ft



Coordinates



    30°
    31'
          60"
        N
  
      ,
    
    91°
    8'
          59"
        W
  




KCC

Cfa



Airport RE

Engineered Materials Arresting System




Metar
KBTR 071353Z 04009KT 10SM OVC007 24/21 A2992 RMK AO2 SLP131 T02390211








Description
Also known as Ryan Field, Baton Rouge Metropolitan Airport is located 4 nm north of the city of Baton Rouge, Louisiana, USA.














Airport map






Aerial View