CYEV








Inuvik (Mike Zubko) Airport





Airport

ICAO code


  CYEV






Summary

ICAO Region

NAM



ICAO Territory





Canada






 








Location

Inuvik, Northwest Territories,




Coordinates



    68°
    18'
          15"
        N
  
      ,
    
    133°
    28'
          58"
        W
  




KCC

ET



Airport BS

Bird Strike
Non Avian Wildlife Hazards to Aircraft



Airport CFIT

Altimeter Temperature Error Correction



Airport GND

Aircraft Ground De/Anti Icing



Airport RE

Landing on Contaminated Runways




Metar
CYEV 071500Z 28002KT 1/4SM FG VV003 05/05 A2976 RMK FG8 VIS SE 2 SLP082








Description
Inuvik Mike Zubko Airport is a regional airport serving Inuvik, Northwest Territories.
Climatology
Tundra climate (Köppen climate classification ET) - warmest month has an average temperature of 0 - 10 degrees C.






Runways






Designator
Length
Width
Surface
Rops




6/24          
1829          
46          
ASP          
Yes/Yes          













Airport map






Aerial View