SCBA








Balmaceda Airport





Airport

ICAO code


  SCBA





IATA Code

BBA




Summary

ICAO Region

CARSAM



ICAO Territory





Chile






 








Location

Balmaceda, Coyhaique




Serving

Balmaceda



Elevation

1722 ft



Coordinates



    45°
    54'
          53"
        S
  
      ,
    
    71°
    41'
          31"
        W
  





Metar
SCBA 071300Z 29025KT 9999 SCT040 06/01 Q1005








Balmaceda Airport is an airport in Balmaceda, Chile, serving the Aysén del General Carlos Ibáñez del Campo Region.






Runways






Designator
Length
Width
Surface
Rops




9/27          
2501          
45          
ASP          
No/No          













Airport map






Aerial View