FALA








Lanseria Airport





Airport

ICAO code


  FALA





IATA Code

HLA




Summary

ICAO Region

AFI



ICAO Territory





South Africa






 








Location

, Gauteng




Serving

Johannesburg



Elevation

4517 ft



Coordinates



    25°
    56'
          19"
        S
  
      ,
    
    27°
    55'
          34"
        E
  





Metar
FALA 071200Z 33011KT 290V010 CAVOK 26/02 Q1024 NOSIG









Runways






Designator
Length
Width
Surface
Rops




06R/24L          
1760          
15          
ASP          
Yes/Yes          


06L/24R          
3048          
23          
ASP          
Yes/Yes          













Airport map






Aerial View