KFNL








Northern Colorado Regional Airport Airport





Airport

ICAO code


  KFNL





IATA Code

FNL




Summary

ICAO Region

NAM



ICAO Territory





United States






 








Location

Loveland, Colorado




Serving

Fort Collins



Elevation

5016 ft



Coordinates



    40°
    26'
          51"
        N
  
      ,
    
    105°
    0'
          39"
        W
  




KCC

BSk



Airport RE

Hot and High Operations



Airport WX

Mountain Waves




Metar
KFNL 071356Z AUTO 00000KT 10SM CLR 13/07 A3028 RMK AO2 SLP206 T01330067 PNO $








Northern Colorado Regional Airport, formerly known as Fort Collins–Loveland Municipal Airport, is a public airport located 9 nm southeast of Fort Collins and northeast of Loveland, in Larimer County, Colorado, USA.
 














Airport map






Aerial View