KIMT








Ford Airport





Airport

ICAO code


  KIMT





IATA Code

IMT




Summary

ICAO Region

NAM



ICAO Territory





United States






 








Location

Iron Mountain, Michigan




Serving

Iron Mountain



Elevation

1182 ft



Coordinates



    45°
    48'
          56"
        N
  
      ,
    
    88°
    6'
          53"
        W
  




KCC

Dfb



Airport CFIT

Altimeter Temperature Error Correction



Airport GND

Aircraft Ground De/Anti Icing




Metar
KIMT 071054Z AUTO 32005KT 10SM CLR 06/04 A3023 RMK AO2 SLP246 T00560044








Ford Airport is a public use airport located 3 nm west of the central business district of Iron Mountain, a city in Dickinson County, Michigan.
 














Airport map






Aerial View