EIDW








Dublin Airport





Airport

ICAO code


  EIDW





IATA Code

DUB




Summary

ICAO Region

EUR



ICAO Territory





Ireland






 








Location

Collinstown, Fingal,




Serving

Dublin



Elevation

242 ft



Coordinates



    53°
    25'
          41"
        N
  
      ,
    
    6°
    15'
          20"
        W
  




KCC

Cfb




Metar
EIDW 071430Z 05009KT 020V080 9999 FEW010 21/16 Q1011 NOSIG








Description
International airport serving the city of Dublin.
Climatology
Temperate Marine climate/Oceanic climate (Köppen climate classification Cfb). Moderately cool summer and comparatively warm winter with a temperature range of only 14°C. Prevailing south-westerly winds from the Atlantic Ocean.






Runways






Designator
Length
Width
Surface
Rops




11/29          
1339          
61          
ASP          
Yes/Yes          


16/34          
2072          
61          
ASP          
Yes/Yes          


10/28          
2637          
45          
CON          
Yes/Yes          













Airport map






Aerial View








Airport accidents



AT76, vicinity Dublin Ireland, 2016
A321 / B738, Dublin Ireland, 2011
A320, Dublin Ireland, 2017
AT76, Dublin Ireland, 2015
A320, vicinity Dublin Ireland, 2015
B738 / B738, Dublin Ireland, 2014
B738 / A319, Dublin Ireland, 2010
Vehicle / B752, Dublin Ireland, 2009
MD83, vicinity Dublin Airport, Ireland, 2007
MD11, Dublin Ireland, 2002