GMMB








Ben Slimane Airport





Airport

ICAO code


  GMMB





IATA Code

GMD




Summary

ICAO Region

AFI



ICAO Territory





Morocco






 








Location

Ben Slimane, Casablanca-Settat region




Serving

Ben Slimane



Elevation

627 ft



Coordinates



    33°
    39'
          20"
        N
  
      ,
    
    7°
    13'
          17"
        W
  




KCC

Csa




Metar
GMMB 071300Z 35017KT 6000 NSC 26/17 Q1009 NOSIG








Ben Slimane Airport is an airport serving Ben Slimane, a town in the Casablanca-Settat region in Morocco.
Climatology
Warm mediterranean climate (Köppen climate classification Csa)






Runways






Designator
Length
Width
Surface
Rops




14/32          
3074          
46          
ASP          
No/No          













Airport map






Aerial View