EGBB








Birmingham International Airport





Airport

ICAO code


  EGBB





IATA Code

BHX




Summary

ICAO Region

EUR



ICAO Territory





United Kingdom






 








Location

Elmdon, England




Serving

Birmingham



Elevation

328 ft



Coordinates



    52°
    27'
          13"
        N
  
      ,
    
    1°
    44'
          51"
        W
  




KCC

Cfb




Metar
EGBB 071420Z 03005KT 340V070 9999 OVC009 19/17 Q1010








Description
International airport serving Birmingham and the West Midlands conurbation.
Climatology
Temperate Marine climate/Oceanic climate (Köppen climate classification Cfb). Moderately cool summer and comparatively warm winter with a temperature range of only 14°C. Prevailing south-westerly winds from the Atlantic Ocean.






Runways






Designator
Length
Width
Surface
Rops




6/24          
1315          
30          
ASP          
Yes/Yes          


15/33          
2605          
46          
ASP          
Yes/Yes          













Airport map






Aerial View








Airport accidents



B738, Birmingham UK, 2020
AN26, vicinity Birmingham UK, 2020
B738 / B738 / B752, Birmingham UK, 2020
ATP, Birmingham UK, 2020
A320, vicinity Birmingham UK, 2019
B733, Birmingham UK, 2012
C501, Birmingham UK, 2010
TBM8, Birmingham UK, 2011
B463 / PA38 Birmingham UK, 1999
JS41, Birmingham UK, 2007
B733, Birmingham UK, 2009
CL60, Birmingham UK, 2002
A310, vicinity Birmingham UK, 2006