DAUB








Biskra Airport





Airport

ICAO code


  DAUB





IATA Code

BSK




Summary

ICAO Region

AFI



ICAO Territory





Algeria






 








Location

, Biskra




Serving

Biskra



Elevation

289 ft



Coordinates



    34°
    47'
          36"
        N
  
      ,
    
    5°
    44'
          18"
        E
  





Metar
DAUB 071200Z 25008KT CAVOK 37/15 Q1014









Runways






Designator
Length
Width
Surface
Rops




13/31          
2886          
45          
ASP          
No/No          













Airport map






Aerial View