RPVD








Sibulan Airport





Airport

ICAO code


  RPVD





IATA Code

DGT




Summary

ICAO Region

APAC



ICAO Territory





Philippines






 








Location

Sibulan, Negros Oriental




Serving

Dumaguete



Elevation

15 ft



Coordinates



    9°
    20'
          3"
        N
  
      ,
    
    123°
    18'
          4"
        E
  




KCC

Aw




Metar
RPVD 071200Z 34006KT 9999 FEW015 BKN220 29/24 Q1011 RMK A2985








Sibulan Airport, also known as Dumaguete Airport or Dumaguete–Sibulan Airport, is an airport serving the general area of the city of Dumaguete, located in the province of Negros Oriental in the Philippines.
Climatology
Tropical savannah climate (Köppen climate classification Aw)






Runways






Designator
Length
Width
Surface
Rops




9/27          
1870          
36          
ASP          
Yes/Yes          













Airport map






Aerial View