GVBA








Rabil Airport





Airport

ICAO code


  GVBA





IATA Code

BVC




Summary

ICAO Region

AFI



ICAO Territory





Cape Verde






 








Location

Rabil, Boa Vista Island, Ilhas de Barlavento




Serving

Rabil



Elevation

69 ft



Coordinates



    16°
    8'
          15"
        N
  
      ,
    
    22°
    53'
          22"
        W
  





Metar
GVBA 071500Z 02011KT 9999 SCT014 BKN100 30/21 Q1012 NOSIG









Runways






Designator
Length
Width
Surface
Rops




3/21          
1221          
30          
ASP          
Yes/Yes          













Airport map






Aerial View