LPFL








Flores Airport





Airport

ICAO code


  LPFL





IATA Code

FLW




Summary

ICAO Region

NAT



ICAO Territory





Azores






 








Location

Santa Cruz das Flores, Azores




Serving

Flores



Elevation

105 ft



Coordinates



    39°
    27'
          29"
        N
  
      ,
    
    31°
    7'
          56"
        W
  




KCC

Cfb




Metar
LPFL 071230Z 03005KT 350V100 9999 FEW030 24/13 Q1023








Flores Airport is a regional airport on the island of Flores in the Portuguese archipelago of the Azores.
Climatology
Temperate oceanic climate (Köppen climate classification Cfb)






Runways






Designator
Length
Width
Surface
Rops




18/36          
1400          
30          
ASP          
No/No          













Airport map






Aerial View