KMGW








Morgantown Municipal Airport





Airport

ICAO code


  KMGW





IATA Code

MGW




Summary

ICAO Region

NAM



ICAO Territory





United States






 








Location

Morgantown, , West Virginia




Serving

Morgantown



Elevation

1244 ft



Coordinates



    39°
    38'
          39"
        N
  
      ,
    
    79°
    55'
          12"
        W
  




KCC

Dfa



Airport WX

Cumulonimbus




Metar
KMGW 071353Z VRB04KT 10SM FEW018 SCT031 BKN040 17/12 A3002 RMK AO2 SLP157 T01720117








Morgantown Municipal Airport is a public use airport located 3 nm east of the central business district of Morgantown, a city in Monongalia County, West Virginia, USA.






Runways






Designator
Length
Width
Surface
Rops




5/23          
844          
23          
ASP          
Yes/Yes          


18/36          
1585          
46          
ASP          
Yes/Yes          













Airport map






Aerial View