SAEZ








Ezeiza/Ministro Pistarini International Airport





Airport

ICAO code


  SAEZ





IATA Code

EZE




Summary

ICAO Region

CARSAM



ICAO Territory





Argentina






 








Location

Ezeiza, Buenos Aires




Serving

Buenos Aires



Elevation

67 ft



Coordinates



    34°
    49'
          20"
        S
  
      ,
    
    58°
    31'
          46"
        W
  




KCC

Cfa




Metar
SAEZ 071300Z 00000KT 9000 NSC 17/09 Q1015 NOSIG








International airport serving the city of Buenos Aires.
Climatology
Humid “subtropical” climate (Köppen climate classification Cfa) - characterized by hot, humid summers and cool winters. Significant amounts of precipitation occur in all seasons in most areas. Winter rainfall (and sometimes snowfall) is associated with large storms that the westerlies steer from west to east. Most summer rainfall occurs during thunderstorms.






Runways






Designator
Length
Width
Surface
Rops




17/35          
3105          
45          
ASP          
Yes/Yes          


11/29          
3300          
60          
ASP          
Yes/Yes          













Airport map






Aerial View