EFKT








Kittilä Airport





Airport

ICAO code


  EFKT





IATA Code

KTT




Summary

ICAO Region

EUR



ICAO Territory





Finland






 








Location

Kittilä, Lapland




Serving

Kittilä



Elevation

644 ft



Coordinates



    67°
    41'
          42"
        N
  
      ,
    
    24°
    51'
          3"
        E
  




KCC

Dfc



Airport CFIT

Altimeter Temperature Error Correction



Airport GND

Aircraft Ground De/Anti Icing



Airport RE

Landing on Contaminated Runways




Metar
EFKT 071220Z AUTO 31006KT 280V340 CAVOK 20/10 Q1016








Description
Largely domestic but also international airport located in Kittilä, Finland.
Climatology
Subarctic climate (Köppen climate classification Dfc) - long, usually very cold winters, and short, cool to mild summers.






Runways






Designator
Length
Width
Surface
Rops




16/34          
2500          
45          
ASP          
Yes/Yes          













Airport map






Aerial View








Airport accidents



B738, vicinity Kittilä, Finland 2012