RJCH








Hakodate Airport





Airport

ICAO code


  RJCH





IATA Code

HKD




Summary

ICAO Region

APAC



ICAO Territory





Japan






 








Location

Hakodate, Hokkaidō




Serving

Hakodate



Elevation

112 ft



Coordinates



    41°
    46'
          12"
        N
  
      ,
    
    140°
    49'
          20"
        E
  




KCC

Dfa




Metar
RJCH 071300Z AUTO 29005KT 9999 NSC 21/16 Q1013








Hakodate Airport, is an airport located 7.6 km east of Hakodate, a city in Hokkaidō, Japan.
Climatology
Humid continental climate (Köppen climate classification Dfa).






Runways






Designator
Length
Width
Surface
Rops




12/30          
3000          
46          
ASP          
Yes/Yes          













Airport map






Aerial View








Airport accidents



A321, Hakodate Japan, 2002