KMTN








Martin State Airport





Airport

ICAO code


  KMTN





IATA Code

MTN




Summary

ICAO Region

NAM



ICAO Territory





United States






 








Location

Middle River, Maryland




Serving

Baltimore



Elevation

21 ft



Coordinates



    39°
    19'
          32"
        N
  
      ,
    
    76°
    24'
          50"
        W
  




KCC

Cfa



Airport WX

Cumulonimbus




Metar
KMTN 071436Z 24006KT 10SM BKN016 BKN022 24/20 A2986








Martin State Airport is a joint civil-military (ANG) public use airport located 10 nm east of the central business district of Baltimore, in Baltimore County, Maryland, USA.






Runways






Designator
Length
Width
Surface
Rops




15/33          
2132          
55          
CON          
Yes/Yes          













Airport map






Aerial View