CYXY








Whitehorse/Erik Nielsen International Airport





Airport

ICAO code


  CYXY





IATA Code

YXY




Summary

ICAO Region

NAM



ICAO Territory





Canada






 








Location

Whitehorse, Yukon,




Serving

Whitehorse



Elevation

2317 ft



Coordinates



    60°
    42'
          46"
        N
  
      ,
    
    135°
    4'
          11"
        W
  




KCC

ET




Metar
CYXY 071400Z 15009KT 40SM FEW035 FEW055 BKN220 07/05 A2984 RMK SC1SC2CI5 SC TR SLP128








Description
Erik Nielsen Whitehorse International Airport is located in Whitehorse, Yukon, Canada.
Climatology
Tundra climate (Köppen climate classification ET) - warmest month has an average temperature of 0 - 10 degrees C.






Runways






Designator
Length
Width
Surface
Rops




1/19          
632          
23          
ASP          
Yes/Yes          


13L/31R          
1219          
24          
ASP          
Yes/Yes          


13R/31L          
2895          
46          
ASP          
Yes/Yes          













Airport map






Aerial View








Airport accidents



CRJ9 / Vehicles, Whitehorse YK Canada, 2009