YPPH








Perth International Airport





Airport

ICAO code


  YPPH





IATA Code

PER




Summary

ICAO Region

APAC



ICAO Territory





Australia






 








Location

Redcliffe, Western Australia




Serving

Perth



Elevation

67 ft



Coordinates



    31°
    56'
          37"
        S
  
      ,
    
    115°
    57'
          48"
        E
  




KCC

Csa



Airport WX

Cumulonimbus




Metar
YPPH 071430Z 06003KT 9999 FEW030 09/08 Q1030








Perth Airport is an Australian domestic and international airport located south of Guildford, Western Australia, and is the major commercial airport servicing Western Australia's capital city, Perth.
Climatology
Dry-summer subtropical ”Mediterranean" climate (Köppen climate classification Csa) - characterized by hot, dry summers and mild winters. During the summer, subtropical high pressure cells dominate, making rainfall unlikely except for the occasional thunderstorm. In the winter, periodic storms bring rain.














Airport map






Aerial View








Airport accidents



B738 / B738, Perth Australia, 2018
B738, Perth Australia, 2008
A342, Perth Australia, 2005
Vehicle / PAY4, Perth Western Australia, 2012
B738, Perth Western Australia, 2010
A320, Perth Australia, 2018
A320, vicinity Perth Australia, 2015
A332, Perth WA Australia, 2014
Vehicle / B712, Perth Western Australia, 2014
A332, vicinity Perth Australia, 2014