LFSI








Saint-Dizier-Robinson (BA 113) Air Base





Airport

ICAO code


  LFSI






Summary

ICAO Region

EUR



ICAO Territory





France






 








Location

, Champagne-Ardenne




Serving

St.-dizier



Elevation

458 ft



Coordinates



    48°
    38'
          10"
        N
  
      ,
    
    4°
    53'
          58"
        E
  





Metar
LFSI 071400Z AUTO 10004KT 070V130 CAVOK 23/18 Q1009









Runways






Designator
Length
Width
Surface
Rops




11/29          
2412          
45          
ASP          
No/No          













Airport map






Aerial View