LFKJ








Ajaccio-Napoléon Bonaparte Airport





Airport

ICAO code


  LFKJ





IATA Code

AJA




Summary

ICAO Region

EUR



ICAO Territory





France






 








Location

Ajaccio, Corse




Serving

Ajaccio



Elevation

18 ft



Coordinates



    41°
    55'
          25"
        N
  
      ,
    
    8°
    48'
          11"
        E
  




KCC

Csa




Metar
LFKJ 071230Z AUTO 26011KT CAVOK 34/21 Q1012 TEMPO FEW050CB









Runways






Designator
Length
Width
Surface
Rops




2/20          
2407          
45          
ASP          
Yes/Yes          













Airport map






Aerial View