PAWG








Wrangell Airport





Airport

ICAO code


  PAWG






Summary

ICAO Region

NAM



ICAO Territory





Alaska






 








Location

Wrangell,




Coordinates



    56°
    29'
          1"
        N
  
      ,
    
    132°
    22'
          34"
        W
  




KCC

Cfb



Airport BS

Bird Strike
Non Avian Wildlife Hazards to Aircraft




Metar
PAWG 062356Z 32003KT 10SM FEW032 SCT048 OVC080 15/13 A3005








Description
Regional airport serving the community of Wrangell which is located on Wrangell Island in the Alaska panhandle.
Climatology
Temperate Marine climate/Oceanic climate (Köppen climate classification Cfb). Moderately cool summer and comparatively warm winter with a temperature range of only 14°C.






Runways






Designator
Length
Width
Surface
Rops




10/28          
1828          
46          
ASP          
Yes/Yes          













Airport map






Aerial View