SPST








Cadete FAP Guillermo Del Castillo Paredes Airport





Airport

ICAO code


  SPST





IATA Code

TPP




Summary

ICAO Region

CARSAM



ICAO Territory





Peru






 








Location

Tarapoto, San Martin




Serving

Tarapoto



Elevation

869 ft



Coordinates



    6°
    30'
          31"
        S
  
      ,
    
    76°
    22'
          24"
        W
  




KCC

Af




Metar
SPST 071300Z 00000KT 5000 BR SCT012 BKN070 23/23 Q1014 RMK PP000








Airport serving Tarapoto, Peru.
Climatology
Equatorial climate (Köppen climate classification Af).






Runways






Designator
Length
Width
Surface
Rops




17/35          
2600          
45          
ASP          
No/No          













Airport map






Aerial View