USTR








Roshchino International Airport





Airport

ICAO code


  USTR





IATA Code

TJM




Summary

ICAO Region

APAC



ICAO Territory





Russian Federation






 








Location

Novoroshchino, Tyomen Oblast




Serving

Tyumen



Elevation

371 ft



Coordinates



    57°
    10'
          53"
        N
  
      ,
    
    65°
    20'
          56"
        E
  




KCC

Dfb




Metar
USTR 071230Z 35006MPS CAVOK 16/07 Q1019 R30/090065 R03/090065 NOSIG








Airport in Tyumen Oblast, Russia located 13 km west of the city of Tyumen.
Climatology
Humid continental climate (Köppen climate classification Dfb)






Runways






Designator
Length
Width
Surface
Rops




12/30          
2704          
50          
ASP          
Yes/Yes          


3/21          
3003          
45          
PEM          
Yes/Yes          













Airport map






Aerial View








Airport accidents



AT72, vicinity Tyumen Russian Federation, 2012