HCMF








Bosaso Airport





Airport

ICAO code


  HCMF






Summary

ICAO Region

AFI



ICAO Territory





Somalia






 








Location

Bosaso,




Coordinates



    11°
    16'
          31"
        N
  
      ,
    
    49°
    8'
          21"
        E
  





Metar
HCMF 071400Z 36006KT CAVOK 34/28 Q1002








Description
Bender Qassim International Airport, also known as Bosaso Airport, is an airport in Somalia. It is the third largest airport in the country after the Aden Adde International Airport in Mogadishu and the Hargeisa International Airport in Hargeisa.
Climatology














Airport map






Aerial View