HTZA








Abeid Amani Karume International Airport





Airport

ICAO code


  HTZA





IATA Code

ZNZ




Summary

ICAO Region

AFI



ICAO Territory





Tanzania






 








Location

Zanzibar City, Unguja Airport




Serving

Zanzibar



Elevation

54 ft



Coordinates



    6°
    13'
          20"
        S
  
      ,
    
    39°
    13'
          30"
        E
  




KCC

Af




Metar
HTZA 071200Z 11008KT 9999 FEW024 30/21 Q1016 NOSIG








Abeid Amani Karume International Airport is the main airport in the Zanzibar Archipelago located on Unguja Island. It was previously known as Kisauni Airport and Zanzibar International Airport.
Climatology
Tropical rainforest climate (Köppen climate classification Af)






Runways






Designator
Length
Width
Surface
Rops




18/36          
2462          
45          
ASP          
Yes/Yes          













Airport map






Aerial View