CYHU








Montreal Saint-Hubert Longueuil Airport





Airport

ICAO code


  CYHU





IATA Code

YHU




Summary

ICAO Region

NAM



ICAO Territory





Canada






 








Location

Saint Hubert, Quebec




Serving

Montreal



Elevation

90 ft



Coordinates



    45°
    31'
          5"
        N
  
      ,
    
    73°
    25'
          1"
        W
  




KCC

Dfb




Metar
CYHU 071500Z AUTO 15018G23KT 9SM FEW029 22/15 A2975 RMK SLP077 DENSITY ALT 1200FT








Montréal Saint-Hubert Longueuil Airport, also called Montréal/Saint-Hubert Airport, is located in the Saint-Hubert borough of Longueuil, Quebec.
Climatology
Humid continental climate (Köppen climate classification Dfb)






Runways






Designator
Length
Width
Surface
Rops




10/28          
853          
46          
ASP          
Yes/Yes          


06R/24L          
1195          
30          
ASP          
Yes/Yes          


06L/24R          
2390          
46          
ASP          
Yes/Yes          













Airport map






Aerial View








Airport accidents



GLEX, Montréal St Hubert Canada, 2017