LPST








Sintra Air Base





Airport

ICAO code


  LPST






Summary

ICAO Region

EUR



ICAO Territory





Portugal






 








Location

Sintra, Greater Lisbon




Serving

Portuguese military



Elevation

440 ft



Coordinates



    38°
    49'
          52"
        N
  
      ,
    
    9°
    20'
          22"
        W
  




KCC

Csb




Metar
LPST 071300Z 31008KT 240V350 9999 FEW028 22/13 Q1013








Sintra Air Base, officially designated as Air Base No. 1, is a Portuguese Air Force base located in the Sintra Municipality, Portugal.
Climatology
Temperate mediterranean climate (Köppen climate classification Csb)






Runways






Designator
Length
Width
Surface
Rops




14/32          
1800          
40          
ASP          
No/No          













Airport map






Aerial View