LICT








Trapani–Birgi Airport





Airport

ICAO code


  LICT





IATA Code

TPS




Summary

ICAO Region

EUR



ICAO Territory





Italy






 








Location

Birgi, Sicily




Serving

Trapani



Elevation

25 ft



Coordinates



    37°
    54'
          47"
        N
  
      ,
    
    12°
    29'
          33"
        E
  




KCC

Csa




Metar
LICT 071155Z 35011KT 9999 FEW007 30/25 Q1016








Trapani–Birgi Airport, is a military air base and public airport serving Trapani, in Sicily, Italy.
Climatology
Warm mediterranean climate (Köppen climate classification Csa)






Runways






Designator
Length
Width
Surface
Rops




13/31          
2698          
45          
ASP          
No/No          













Airport map






Aerial View