KSHD








Shenandoah Valley Regional Airport





Airport

ICAO code


  KSHD






Summary

ICAO Region

NAM



ICAO Territory





United States






 








Location

Staunton, Virginia,




Coordinates



    38°
    15'
          47"
        N
  
      ,
    
    78°
    54'
          2"
        W
  




KCC

Cfa



Airport WX

Cumulonimbus




Metar
KSHD 071435Z AUTO 35006KT 10SM -RA OVC036 19/16 A2996 RMK AO2 T01870155








Description
Shenandoah Valley Regional Airport is a public use airport located 19 km northeast of the central business district of Staunton, a city in Augusta County, Virginia.
Climatology
Humid “subtropical” climate (Köppen climate classification Cfa) - characterized by hot, humid summers and cool winters. Significant amounts of precipitation occur in all seasons in most areas. Winter rainfall (and sometimes snowfall) is associated with large storms that the westerlies steer from west to east. Most summer rainfall occurs during thunderstorms and occasional tropical storms (hurricanes).






Runways






Designator
Length
Width
Surface
Rops




5/23          
1829          
46          
ASP          
Yes/Yes          













Airport map






Aerial View