PFEL








Elim Airport





Airport

ICAO code


  PFEL





IATA Code

ELI




Summary

ICAO Region

NAM



ICAO Territory





Alaska






 








Location

, Alaska




Serving

Elim



Elevation

162 ft



Coordinates



    64°
    36'
          54"
        N
  
      ,
    
    162°
    16'
          14"
        W
  





Metar
PFEL 071256Z AUTO 00000KT 10SM OVC020 06/03 A2987 RMK AO2 SLP116 T00610033 PNO $









Runways






Designator
Length
Width
Surface
Rops




1/19          
1037          
18          
GRVL-G          
No/No          













Airport map






Aerial View