FMNA








Arrachart Airport





Airport

ICAO code


  FMNA





IATA Code

DIE




Summary

ICAO Region

AFI



ICAO Territory





Madagascar






 








Location

Arrachart, Diana




Serving

Antsiranana



Elevation

374 ft



Coordinates



    12°
    20'
          57"
        S
  
      ,
    
    49°
    17'
          30"
        E
  




KCC

Aw




Metar
FMNA 071200Z 14016KT 9999 BKN020 28/19 Q1016








Arrachart Airport is an airport located near Antsiranana (formerly Diego-Suárez) in Madagascar.
Climatology
Tropical savanna climate (Köppen climate classification Aw)






Runways






Designator
Length
Width
Surface
Rops




13/31          
1500          
30          
ASP          
Yes/Yes          













Airport map






Aerial View