KMXF








Maxwell Air Force Base





Airport

ICAO code


  KMXF





IATA Code

MXF




Summary

ICAO Region

NAM



ICAO Territory





United States






 








Location

Montgomery, Alabama




Serving

Montgomery



Elevation

171 ft



Coordinates



    32°
    22'
          45"
        N
  
      ,
    
    86°
    21'
          45"
        W
  




KCC

Cfa




Metar
KMXF 071355Z AUTO 00000KT 10SM OVC070 23/19 A2991 RMK AO2 SLP130 T02270194








Maxwell Air Force Base, officially known as Maxwell-Gunter Air Force Base, is a United States Air Force (USAF) installation located in Montgomery, Alabama, USA.






Runways






Designator
Length
Width
Surface
Rops




7/187          
919          
18          
ASPH          
No/No          


15/33          
2442          
46          
ASP          
Yes/Yes          













Airport map






Aerial View