KASE








Aspen - Pitkin County Airport





Airport

ICAO code


  KASE





IATA Code

ASE




Summary

ICAO Region

NAM



ICAO Territory





United States






 








Location

Pitkin County, Colorado




Serving

Aspen



Elevation

7820 ft



Coordinates



    39°
    13'
          11"
        N
  
      ,
    
    106°
    51'
          53"
        W
  




KCC

Dfb



Airport CFIT

Altimeter Temperature Error Correction



Airport RE

Hot and High Operations




Metar
KASE 071406Z 13003KT 10SM CLR 11/04 A3048 RMK AO2 T01060039








Description
Aspen–Pitkin County Airport, also known as Sardy Field, is a county-owned public-use airport located 3 nm northwest of the central business district of Aspen, in Pitkin County, Colorado.














Airport map






Aerial View