EPKT








Katowice International Airport





Airport

ICAO code


  EPKT





IATA Code

KTW




Summary

ICAO Region

EUR



ICAO Territory





Poland






 








Location

Pyrzowice, Silesia




Serving

Katowice



Elevation

997 ft



Coordinates



    50°
    28'
          22"
        N
  
      ,
    
    19°
    4'
          33"
        E
  





Metar
EPKT 071100Z VRB03KT CAVOK 30/11 Q1018









Runways






Designator
Length
Width
Surface
Rops




9/27          
2799          
59          
CON          
Yes/Yes          













Airport map






Aerial View








Airport accidents



B738, Katowice Poland, 2007