KBLM








Monmouth Executive Airport





Airport

ICAO code


  KBLM





IATA Code

BLM




Summary

ICAO Region

NAM



ICAO Territory





United States






 








Location

Belmar, New Jersey




Serving

Belmar/Farmingdale



Elevation

159 ft



Coordinates



    40°
    11'
          8"
        N
  
      ,
    
    74°
    7'
          22"
        W
  




KCC

Cfa



Airport WX

Tropical Revolving Storm




Metar
KBLM 071435Z AUTO 20003KT 5SM RA BR SCT009 BKN013 OVC020 21/20 A2987 RMK AO2 RAB28 P0001








Monmouth Executive Airport is a public use airport located 6 nm west of the central business district of Belmar and east of Farmingdale, in Monmouth County, New Jersey, USA.














Airport map






Aerial View