ZMCK








Chinggis Khaan International Airport





Airport

ICAO code


  ZMCK





IATA Code

UBN




Summary

ICAO Region

APAC



ICAO Territory





Mongolia






 








Location

Sergelen, Ulaanbaatar




Serving

Ulaanbaatar



Elevation

4482 ft



Coordinates



    47°
    39'
          6"
        N
  
      ,
    
    106°
    49'
          18"
        E
  




KCC

BSk



Airport RE

Hot and High Operations




Metar
ZMCK 071430Z VRB01MPS CAVOK 17/03 Q1013 NOSIG








Chinggis Khaan International Airport, also known as New Ulaanbaatar International Airport is the primary airport serving Ulaanbaatar, capital of Mongolia. The airport is located in the Khoshig valley, 28 nm south of Ulaanbaatar.














Airport map






Aerial View