EDSB








Baden Airpark





Airport

ICAO code


  EDSB





IATA Code

FKB




Summary

ICAO Region

EUR



ICAO Territory





Germany






 








Location

Rheinmünster, Baden-Wurttemberg




Serving

Baden Baden and Karlsruhe



Elevation

408 ft



Coordinates



    48°
    46'
          41"
        N
  
      ,
    
    8°
    5'
          16"
        E
  




KCC

Cfb




Metar
EDSB 071420Z 36007KT 330V030 CAVOK 28/19 Q1009








Description
International airport serving Baden-Baden and Karlsruhe, Germany.
Climatology
Temperate Marine climate/Oceanic climate (Köppen climate classification Cfb) - Moderately cool summer and comparatively warm winter.






Runways






Designator
Length
Width
Surface
Rops




3/21          
2983          
45          
ASP          
Yes/Yes          













Airport map






Aerial View