KDDC








Dodge City Regional Airport





Airport

ICAO code


  KDDC





IATA Code

DDC




Summary

ICAO Region

NAM



ICAO Territory





United States






 








Location

Dodge City, Kansas




Serving

Dodge City



Elevation

2594 ft



Coordinates



    37°
    45'
          42"
        N
  
      ,
    
    99°
    57'
          50"
        W
  




KCC

Cfa



Airport CFIT

Altimeter Temperature Error Correction




Metar
KDDC 071352Z AUTO 14011KT 8SM CLR 15/11 A3029 RMK AO2 SLP239 T01500111








Description
Dodge City Regional Airport is a public-use airport located 3 nm east of the central business district of Dodge City, in Ford County, Kansas.














Airport map






Aerial View