SBBG








Comandante Gustavo Kraemer Airport





Airport

ICAO code


  SBBG





IATA Code

BGX




Summary

ICAO Region

CARSAM



ICAO Territory





Brazil






 








Location

Bage, Rio Grande do Sul




Serving

Bage



Elevation

600 ft



Coordinates



    31°
    23'
          22"
        S
  
      ,
    
    54°
    6'
          39"
        W
  




KCC

Cfa




Metar
SBBG 071100Z AUTO 03005KT CAVOK 11/11 Q1014








Comandante Gustavo Kraemer International Airport is the airport serving Bagé, Brazil.
Climatology
Humid subtropical climate (Köppen climate classification Cfa)






Runways






Designator
Length
Width
Surface
Rops




14/32          
1149          
45          
GRS          
No/No          


6/24          
1500          
30          
CON          
No/No          













Airport map






Aerial View