EKKA








Karup/Midtjyllands Airport





Airport

ICAO code


  EKKA





IATA Code

KRP




Summary

ICAO Region

EUR



ICAO Territory





Denmark






 








Location

Viborg, Jutland




Serving

Karup



Elevation

170 ft



Coordinates



    56°
    17'
          54"
        N
  
      ,
    
    9°
    6'
          29"
        E
  




KCC

Cfb




Metar
EKKA 071220Z AUTO 08008KT 9999 SCT200/// 24/16 Q1015








Midtjyllands Airport, formerly known as Karup Airport, is an airport in Denmark.
Climatology
Oceanic climate (Köppen climate classification Cfb)






Runways






Designator
Length
Width
Surface
Rops




14/32          
700          
18          
PEM          
Yes/Yes          


9/27          
850          
60          
GRS          
No/No          


4/22          
895          
15          
PEM          
Yes/Yes          


09R/27L          
2928          
46          
PEM          
Yes/Yes          


09L/27R          
2992          
23          
ASP          
Yes/Yes          













Airport map






Aerial View








Airport accidents



AT72, Karup Denmark, 2016