KPWA








Wiley Post Airport





Airport

ICAO code


  KPWA






Summary

ICAO Region

NAM



ICAO Territory





United States






 








Location

Oklahoma City, Oklahoma,




Coordinates



    35°
    31'
          50"
        N
  
      ,
    
    97°
    38'
          34"
        W
  




KCC

Cfa



Airport LOS

Parallel Runway Operation




Metar
KPWA 071353Z 08010KT 10SM CLR 19/10 A3023 RMK AO2 SLP223 T01940100








Description
Wiley Post Airport is a public use airport located 13 km northwest of the central business district of Oklahoma City, in Oklahoma County, Oklahoma.
Climatology
Humid “subtropical” climate (Köppen climate classification Cfa) - characterized by hot, humid summers and cool winters. Significant amounts of precipitation occur in all seasons in most areas. Winter rainfall (and sometimes snowfall) is associated with large storms that the westerlies steer from west to east. Most summer rainfall occurs during thunderstorms.






Runways






Designator
Length
Width
Surface
Rops




13/31          
1284          
30          
CON          
Yes/Yes          


17R/35L          
1524          
23          
ASP          
Yes/Yes          


17L/35R          
2194          
46          
CON          
Yes/Yes          













Airport map






Aerial View