MDPP








Puerto Plata/Gregorio Luperon International Airport





Airport

ICAO code


  MDPP





IATA Code

POP




Summary

ICAO Region

CARSAM



ICAO Territory





Dominican Republic






 








Location

Puerto Plata, Dominican Republic




Serving

Puerto Plata



Elevation

16 ft



Coordinates



    19°
    45'
          19"
        N
  
      ,
    
    70°
    33'
          50"
        W
  




KCC

Am



Airport WX

Tropical Revolving Storm




Metar
MDPP 071300Z 00000KT 9999 SCT018 SCT300 25/24 Q1012








Gregorio Luperón International Airport, also known as Puerto Plata Airport, is located in Puerto Plata, Dominican Republic.
Climatology
Tropical Monsoon climate (Köppen climate classification Am) - monthly mean temperatures above 18°C in every month of the year and features wet and dry seasons. A tropical monsoon climate typically features less pronounced dry seasons than a tropical savanna climate and see less variance in temperatures during the course of the year. The driest month nearly always occurs at or soon after the "winter" solstice.






Runways






Designator
Length
Width
Surface
Rops




8/26          
3081          
46          
ASP          
Yes/Yes          













Airport map






Aerial View








Airport accidents



B752, vicinity Puerto Plata Dominican Republic, 1996
B752, Puerto Plata Dominican Republic, 1998