KNPA








Naval Air Station Pensacola





Airport

ICAO code


  KNPA






Summary

ICAO Region

NAM



ICAO Territory





United States






 








Location

Pensacola, Florida,




Coordinates



    30°
    20'
          49"
        N
  
      ,
    
    87°
    19'
          44"
        W
  




KCC

Cfa



Airport LOS

Parallel Runway Operation




Metar
KNPA 071431Z 03008KT 10SM OVC005 23/22 A2989 RMK RAB08E19 P0001 T02280222








Description
Naval Air Station Pensacola, or NAS Pensacola, is a military airport located near Warrington, a community 10 km southwest of the central business district of Pensacola, Florida.
Climatology
Humid “subtropical” climate (Köppen climate classification Cfa) - characterized by hot, humid summers and cool winters. Significant amounts of precipitation occur in all seasons in most areas. Winter rainfall (and sometimes snowfall) is associated with large storms that the westerlies steer from west to east. Most summer rainfall occurs during thunderstorms and occasional tropical storms (hurricanes).






Runways






Designator
Length
Width
Surface
Rops




1/19          
2175          
61          
ASP          
Yes/Yes          


07L/25R          
2439          
61          
ASP          
Yes/Yes          


07R/25L          
2439          
61          
ASP          
Yes/Yes          













Airport map






Aerial View