KCDW








Essex County Airport





Airport

ICAO code


  KCDW





IATA Code

CDW




Summary

ICAO Region

NAM



ICAO Territory





United States






 








Location

Fairfield, New Jersey




Serving

Caldwell



Elevation

173 ft



Coordinates



    40°
    52'
          29"
        N
  
      ,
    
    74°
    16'
          52"
        W
  




KCC

Cfa



Airport WX

Tropical Revolving Storm




Metar
KCDW 071353Z 17007KT 10SM BKN015 BKN028 23/18 A2985 RMK AO2 SLP113 T02280178 $








Essex County Airport is a public use airport located 2 nm north of the central business district of Caldwell, in Essex County, New Jersey, USA.
 














Airport map






Aerial View