EFET








Enontekio





Airport

ICAO code


  EFET






Summary

ICAO Region

EUR



ICAO Territory





Finland






 








Location

Enontekio, Finland,




Elevation

1005 ft



Coordinates



    68°
    21'
          45"
        N
  
      ,
    
    23°
    25'
          27"
        E
  




KCC

Dfc




Metar
EFET 071350Z AUTO 28013KT CAVOK 17/04 Q1017








Description
International airport serving the Lapland communities in northern Finland.
Climatology
Borderline Subpolar Oceanic/Continental subarctic climate (because of winter temperatures) (Köppen climate classification Cfc/Dfc) - uniform precipitation distribution, temperatures are moderated by the proximity of the ocean and warm currents - cool summers and comparatively mild winters. Heavy snowfalls in winter.






Runways






Designator
Length
Width
Surface
Rops




3/21          
2001          
45          
ASP          
Yes/Yes          













Airport map






Aerial View