KCHA








Chattanooga Metropolitan Airport





Airport

ICAO code


  KCHA





IATA Code

CHA




Summary

ICAO Region

NAM



ICAO Territory





United States






 








Location

Chattanooga, Tennessee




Serving

Chattanooga



Elevation

683 ft



Coordinates



    35°
    2'
          7"
        N
  
      ,
    
    85°
    12'
          14"
        W
  




KCC

Cfa




Metar
KCHA 071353Z 01016G21KT 10SM SCT024 BKN035 OVC045 22/14 A3000 RMK AO2 SLP150 T02220139








Description
Airport serving Chattanooga, Tennessee, USA.














Airport map






Aerial View