SBHT








Altamira Airport





Airport

ICAO code


  SBHT





IATA Code

ATM




Summary

ICAO Region

CARSAM



ICAO Territory





Brazil






 








Location

Altamira, Para




Serving

Altamira



Elevation

368 ft



Coordinates



    3°
    15'
          3"
        S
  
      ,
    
    52°
    15'
          8"
        W
  




KCC

Af




Metar
SBHT 071200Z 06008KT 9999 BKN013 BKN080 26/24 Q1013








Altamira Airport is the airport serving Altamira, Brazil.
Climatology
Tropical rainforest climate (Köppen climate classification Af)






Runways






Designator
Length
Width
Surface
Rops




7/25          
2003          
38          
ASP          
No/No          













Airport map






Aerial View