KCLT








Charlotte Douglas International Airport





Airport

ICAO code


  KCLT





IATA Code

CLT




Summary

ICAO Region

NAM



ICAO Territory





United States






 








Location

Charlotte, North Carolina




Serving

Charlotte



Elevation

748 ft



Coordinates



    35°
    12'
          50"
        N
  
      ,
    
    80°
    56'
          35"
        W
  




KCC

Cfa



Airport LOS

Parallel Runway Operation



Airport RE

Engineered Materials Arresting System



Airport WX

Cumulonimbus




Metar
KCLT 071252Z 25003KT 10SM FEW075 FEW160 SCT220 BKN250 22/18 A2990 RMK AO2 SLP131 T02170183








Description
International airport serving Charlotte, North Carolina, USA.














Airport map






Aerial View








Airport accidents



A321, Charlotte NC USA, 2015
PC12 / CRJ2, Charlotte NC USA, 2009
B190, vicinity Charlotte NC USA, 2003
CRJ7 / CRJ2, Charlotte NC USA, 2008
DC93, vicinity Charlotte NC USA, 1994