KMCW








Mason City Municipal Airport





Airport

ICAO code


  KMCW





IATA Code

MCW




Summary

ICAO Region

NAM



ICAO Territory





United States






 








Location

Clear Lake, Iowa




Serving

Mason City



Elevation

1214 ft



Coordinates



    43°
    8'
          60"
        N
  
      ,
    
    93°
    20'
          17"
        W
  




KCC

Dfa



Airport CFIT

Altimeter Temperature Error Correction




Metar
KMCW 071353Z AUTO 13005KT 10SM CLR 11/07 A3036 RMK AO2 SLP280 T01110072








Mason City Municipal Airport is a public use airport located 6 nm west of the central business district of Mason City, in Cerro Gordo County, Iowa, USA.






Runways






Designator
Length
Width
Surface
Rops




12/30          
1677          
46          
ASP          
Yes/Yes          


18/36          
1982          
46          
ASP          
Yes/Yes          













Airport map






Aerial View