KGSB








Seymour Johnson Air Force Base





Airport

ICAO code


  KGSB






Summary

ICAO Region

NAM



ICAO Territory





United States






 








Location

Goldsboro, North Carolina,




Elevation

109 ft



Coordinates



    35°
    20'
          24"
        N
  
      ,
    
    77°
    57'
          42"
        W
  




KCC

Cfa




Metar
KGSB 071432Z AUTO 00000KT 10SM -RA OVC007 23/21 A2984 RMK AO2 RAB08E28RAB32 SLP107 $








Description
Seymour Johnson Air Force Base is a United States Air Force installation located 10 km southeast of the central business district of Goldsboro, North Carolina.
Climatology
Humid “subtropical” climate (Köppen climate classification Cfa) - characterized by hot, humid summers and cool winters. Significant amounts of precipitation occur in all seasons in most areas. Winter rainfall (and sometimes snowfall) is associated with large storms that the westerlies steer from west to east. Most summer rainfall occurs during thunderstorms and occasional tropical storms (hurricanes).














Airport map






Aerial View