TDPD








Melville Hall Airport





Airport

ICAO code


  TDPD





IATA Code

DOM




Summary

ICAO Region

CARSAM



ICAO Territory





Dominica






 








Location

Marigot, Dominica,




Serving

Roseau



Elevation

73 ft



Coordinates



    15°
    32'
          48"
        N
  
      ,
    
    61°
    18'
          3"
        W
  





Metar
TDPD 071500Z 12008KT 9999 SCT022 32/26 Q1012








Melville Hall Airport is an airport located on the northeast coast of Dominica, 2 mi (3.2 km) northwest of Marigot, it is about one hour away from the second largest city Portsmouth.






Runways






Designator
Length
Width
Surface
Rops




9/27          
1456          
45          
ASP          
No/No          













Airport map






Aerial View