NFNA








Nausori International Airport





Airport

ICAO code


  NFNA





IATA Code

SUV




Summary

ICAO Region

APAC



ICAO Territory





Fiji






 








Location

, Central




Serving

Nausori



Elevation

17 ft



Coordinates



    18°
    2'
          36"
        S
  
      ,
    
    178°
    33'
          33"
        E
  





Metar
NFNA 071200Z 14008KT 090V180 9999 SCT020 22/18 Q1016









Runways






Designator
Length
Width
Surface
Rops




10/28          
1868          
30          
ASP          
No/No          













Airport map






Aerial View