CYYC








Calgary International Airport





Airport

ICAO code


  CYYC





IATA Code

YYC




Summary

ICAO Region

NAM



ICAO Territory





Canada






 








Location

Calgary, Alberta




Serving

Calgary



Elevation

3557 ft



Coordinates



    51°
    7'
          7"
        N
  
      ,
    
    114°
    1'
          14"
        W
  




KCC

Dfb



Airport LOS

Parallel Runway Operation




Metar
CYYC 071400Z VRB02KT 40SM FEW250 13/05 A3006 RMK CI2 CONTRAILS SLP174 DENSITY ALT 4100FT








Description
International airport serving Calgary, Alberta.
Climatology
Humid Continental climate (Köppen climate classification Dfb) - Variable weather patterns and a large seasonal temperature variance. Summers are often warm and humid with frequent thunderstorms and winters can be very cold with frequent snowfall and persistent snow cover.






Runways






Designator
Length
Width
Surface
Rops




7/25          
1890          
46          
ASP          
Yes/Yes          


10/28          
2438          
61          
ASP          
Yes/Yes          


16/34          
3863          
61          
ASP          
Yes/Yes          













Airport map






Aerial View








Airport accidents



CL60, Calgary Canada, 2020
A320 / SW4, Calgary AB Canada, 2016
B190 / B737, Calgary Canada, 2014