KHVN








Tweed-New Haven Regional Airport





Airport

ICAO code


  KHVN






Summary

ICAO Region

NAM



ICAO Territory





United States






 








Location

New Haven, Connecticut,




Elevation

12 ft



Coordinates



    41°
    16'
          8"
        N
  
      ,
    
    72°
    53'
          28"
        W
  




KCC

Dfa



Airport WX

Cumulonimbus




Metar
KHVN 071353Z 13004KT 10SM OVC017 21/17 A2989 RMK AO2 SLP122 T02110167








Description
Tweed New Haven Regional Airport, formerly known as Tweed-New Haven Airport, is a public airport located 5 km southeast of the central business district of New Haven, Connecticut.
Climatology
New Haven lies in the transition between a humid continental climate (Köppen climate classification Dfa) and humid subtropical climate (Köppen climate classification Cfa/), but has more characteristics of the former, characterized by hot, humid summers and cool/cold winters. Significant amounts of precipitation occur in all seasons in most areas. Winter rainfall (and snowfall) is associated with large storms that the westerlies steer from west to east. Most summer rainfall occurs during thunderstorms.














Airport map






Aerial View