HEBL








Abu Simbel Airport





Airport

ICAO code


  HEBL





IATA Code

ABS




Summary

ICAO Region

AFI



ICAO Territory





Egypt






 








Location

Abu Simbel, Aswan




Serving

Abu Simbel



Elevation

616 ft



Coordinates



    22°
    22'
          33"
        N
  
      ,
    
    31°
    36'
          42"
        E
  





Metar
HEBL 071200Z 10009KT CAVOK 37/12 Q1010 NOSIG









Runways






Designator
Length
Width
Surface
Rops




15/33          
3000          
45          
ASP          
Yes/Yes          













Airport map






Aerial View