ULMM








Murmansk Airport





Airport

ICAO code


  ULMM






Summary

ICAO Region

EUR



ICAO Territory





Russian Federation






 








Location

Murmashi, Murmansk,




Coordinates



    68°
    47'
          11"
        N
  
      ,
    
    32°
    44'
          35"
        E
  





Metar
ULMM 071230Z 26004MPS 230V300 CAVOK 19/12 Q1014 R31/090070 NOSIG RMK QFE753








Description
Murmansk Airport is the international airport of Murmansk, Russia. It is located near the town of Murmashi in Murmansk's southern suburbs, 24 km outside the city centre.
Climatology
Subarctic climate (Köppen climate classification Dfc) - long, usually very cold winters, and short, cool to mild summers.






Runways






Designator
Length
Width
Surface
Rops




14/32          
2500          
45          
CON          
Yes/Yes          













Airport map






Aerial View








Airport accidents



SU95, Moscow Sheremetyevo Russia, 2019