RJCB








Tokachi-Obihiro Airport





Airport

ICAO code


  RJCB





IATA Code

OBO




Summary

ICAO Region

APAC



ICAO Territory





Japan






 








Location

Obihiro, Hokkaidō




Serving

Obihiro



Elevation

490 ft



Coordinates



    42°
    43'
          56"
        N
  
      ,
    
    143°
    12'
          46"
        E
  




KCC

Dfb




Metar
RJCB 070100Z 04003KT 340V090 9999 FEW040 BKN/// 22/09 Q1013








Tokachi–Obihiro Airport, or sometimes simply Obihiro Airport, is an airport located 13.5 nm south Obihiro, Hokkaidō, Japan.
Climatology
Humid continental climate (Köppen climate classification Dfb)






Runways






Designator
Length
Width
Surface
Rops




17/35          
2500          
46          
ASP          
Yes/Yes          













Airport map






Aerial View