KPAE








Paine Field





Airport

ICAO code


  KPAE





IATA Code

PAE




Summary

ICAO Region

NAM



ICAO Territory





United States






 








Location

Everett, Snohomish County, Washington




Serving

Everett, Snohomish County



Elevation

606 ft



Coordinates



    47°
    54'
          25"
        N
  
      ,
    
    122°
    16'
          54"
        W
  





Metar
KPAE 071353Z 35005KT 10SM CLR 18/14 A2994 RMK AO2 SLP136 T01780139









Runways






Designator
Length
Width
Surface
Rops




16L/34R          
914          
23          
ASP          
Yes/Yes          


11/29          
1376          
23          
ASP          
Yes/Yes          


16R/34L          
2746          
46          
ASP          
Yes/Yes          













Airport map






Aerial View