LTFM








Istanbul Airport





Airport

ICAO code


  LTFM





IATA Code

IST




Summary

ICAO Region

EUR



ICAO Territory





Turkey






 








Location

Arnavutkoy, Istanbul




Serving

Istanbul



Elevation

325 ft



Coordinates



    41°
    15'
          41"
        N
  
      ,
    
    28°
    44'
          34"
        E
  




KCC

Csa




Metar
LTFM 071220Z 02011KT 350V050 9999 FEW018TCU BKN022 25/19 Q1015 NOSIG








Istanbul Airport is the main international airport serving Istanbul, Turkey. It is located in the Arnavutköy district on the European side of the city.
Climatology
Dry-summer subtropical ”Mediterranean" climate (Köppen climate classification Csa)














Airport map






Aerial View