FAWK








Waterkloof Air Force Base Airport





Airport

ICAO code


  FAWK






Summary

ICAO Region

AFI



ICAO Territory





South Africa






 








Location

, Gauteng




Serving

Waterkloof



Elevation

4940 ft



Coordinates



    25°
    49'
          48"
        S
  
      ,
    
    28°
    13'
          21"
        E
  





Metar
FAWK 071200Z AUTO 36009KT //// // ////// 25/02 Q1024









Runways






Designator
Length
Width
Surface
Rops




6/24          
1920          
45          
ASP          
No/No          


1/19          
3353          
45          
ASP          
No/No          













Airport map






Aerial View