KWRI








Joint Base McGuire-Dix-Lakehurst





Airport

ICAO code


  KWRI





IATA Code

WRI




Summary

ICAO Region

NAM



ICAO Territory





United States






 








Location

Wrightstown, New Jersey




Serving

Trenton



Elevation

131 ft



Coordinates



    40°
    1'
          36"
        N
  
      ,
    
    74°
    35'
          21"
        W
  




KCC

Cfa




Metar
KWRI 071355Z 19007KT 10SM SCT010 BKN035 23/19 A2984 RMK SLP104 T02320191 $








Joint Base McGuire-Dix-Lakehurst, more commonly referred to as McGuire Air Force Base, is a United States Air Force installation located in Burlington County, New Jersey, USA approximately 14 nm south-southeast of Trenton.






Runways






Designator
Length
Width
Surface
Rops




18/36          
2176          
46          
ASP          
Yes/Yes          


6/24          
3048          
61          
ASP          
Yes/Yes          













Airport map






Aerial View