KLBE








Arnold Palmer Regional Airport





Airport

ICAO code


  KLBE





IATA Code

LBE




Summary

ICAO Region

NAM



ICAO Territory





United States






 








Location

Latrobe, Pennsylvania




Serving

Westmoreland County



Elevation

1199 ft



Coordinates



    40°
    16'
          22"
        N
  
      ,
    
    79°
    24'
          21"
        W
  




KCC

Dfa



Airport WX

Cumulonimbus




Metar
KLBE 071350Z 30008KT 10SM FEW017 SCT046 15/12 A2999








Description
Arnold Palmer Regional Airport is a public use airport located 2 nm southwest of the central business district of Latrobe, in Westmoreland County, Pennsylvania.






Runways






Designator
Length
Width
Surface
Rops




3/21          
1096          
23          
ASP          
Yes/Yes          


5/23          
2134          
30          
ASP          
Yes/Yes          













Airport map






Aerial View