LPAZ








Santa Maria Aiport





Airport

ICAO code


  LPAZ





IATA Code

SMA




Summary

ICAO Region

NAT



ICAO Territory





Azores






 








Location

Santa Maria, Região Autónoma dos Açores




Serving

Santa Maria



Elevation

308 ft



Coordinates



    36°
    58'
          17"
        N
  
      ,
    
    25°
    10'
          14"
        W
  




KCC

Csa




Metar
LPAZ 071230Z 35011KT 320V020 9999 FEW023 BKN049 24/18 Q1019








International airport serving the island of Santa Maria in the Azores.
Climatology
Dry-summer subtropical ”Mediterranean" climate (Köppen climate classification Csa) -






Runways






Designator
Length
Width
Surface
Rops




4/22          
1324          
45          
ASP          
No/No          


15/33          
1830          
45          
ASP          
No/No          


18/36          
3048          
60          
CON          
Yes/Yes          













Airport map






Aerial View