EGSH








Norwich International





Airport

ICAO code


  EGSH






Summary

ICAO Region

EUR



ICAO Territory





United Kingdom






 








Location

Norwich, Norfolk, England,




Elevation

117 ft



Coordinates



    52°
    40'
          33"
        N
  
      ,
    
    1°
    16'
          58"
        E
  




KCC

Cfb




Metar
EGSH 071220Z 09005KT 040V130 9999 FEW019 BKN036 22/16 Q1010








Description
Norwich International Airport (IATA: NWI), also known as Norwich Airport, is an airport in the City of Norwich within Norfolk, England 2.8 nm north of the city centre and on the edge of the city's suburbs.
Climatology
Temperate Marine climate/Oceanic climate (Köppen climate classification Cfb) - Moderately cool summer and comparatively warm winter.






Runways






Designator
Length
Width
Surface
Rops




4/22          
1266          
45          
ASP          
Yes/Yes          


9/27          
1841          
45          
ASP          
Yes/Yes          













Airport map






Aerial View








Airport accidents



D328, Norwich UK, 2012