KBNA








Nashville International Airport





Airport

ICAO code


  KBNA






Summary

ICAO Region

NAM



ICAO Territory





United States






 








Location

Nashville, Tennessee,




Coordinates



    36°
    7'
          53"
        N
  
      ,
    
    86°
    40'
          10"
        W
  




KCC

Cfa



Airport GND

Jet Blast



Airport LOS

Parallel Runway Operation



Airport WX

Cumulonimbus




Metar
KBNA 071353Z 02010G19KT 10SM FEW060 FEW250 19/09 A3010 RMK AO2 SLP186 T01940094








Description
Nashville International Airport is a public and military (ANG) use airport in the southeastern section of Nashville, Tennessee.
Climatology
Humid “subtropical” climate (Köppen climate classification Cfa) - characterized by hot, humid summers and cool winters. Significant amounts of precipitation occur in all seasons in most areas. Winter rainfall (and sometimes snowfall) is associated with large storms that the westerlies steer from west to east. Most summer rainfall occurs during thunderstorms and occasional tropical storms (hurricanes).














Airport map






Aerial View








Airport accidents



B733, Nashville TN USA, 2015