MMTM








General Francisco Javier Mina International Airport





Airport

ICAO code


  MMTM





IATA Code

TAM




Summary

ICAO Region

CARSAM



ICAO Territory





Mexico






 








Location

Tampico, Mexico, Tamaulipas




Serving

Tampico



Elevation

80 ft



Coordinates



    22°
    17'
          47"
        N
  
      ,
    
    97°
    51'
          57"
        W
  




KCC

Aw



Airport BS

Bird Strike




Metar
MMTM 071252Z 34012KT 8SM SCT070 BKN200 27/23 A2983 RMK 8/078 CU








Description
Tampico International Airport is located in the city of Tampico, Mexico.
Climatology
Tropical Savanna climate (Köppen climate classification Aw) - monthly mean temperature above 18°C in every month of the year and a pronounced dry season.
The dry season is in Feb/Mar. The Hurricane season lasts from May to December with the rainy season extending into January.






Runways






Designator
Length
Width
Surface
Rops




9/27          
1200          
30          
ASP          
Yes/Yes          


18/36          
1300          
30          
ASP          
Yes/Yes          


13/31          
2550          
45          
ASP          
Yes/Yes          













Airport map






Aerial View