MMDO








General Guadalupe Victoria International Airport





Airport

ICAO code


  MMDO





IATA Code

DGO




Summary

ICAO Region

CARSAM



ICAO Territory





Mexico






 








Location

Durango, Mexico, Durango




Serving

Durango



Elevation

6104 ft



Coordinates



    24°
    7'
          27"
        N
  
      ,
    
    104°
    31'
          41"
        W
  




KCC

BSh




Metar
MMDO 071246Z 36003KT 10SM FEW025 BKN070 BKN200 16/12 A3029 RMK 8/538








Description
General Guadalupe Victoria International Airport serves Durango, Mexico.
Climatology
Hot, semi-arid/Steppe climate (Köppen climate classification BSh) - hot, sometimes extremely hot summers and mild to warm winters, with low annual precipitation






Runways






Designator
Length
Width
Surface
Rops




3/21          
2900          
45          
ASP          
No/No          













Airport map






Aerial View