SKMZ








La Nubia Airport





Airport

ICAO code


  SKMZ





IATA Code

MZL




Summary

ICAO Region

CARSAM



ICAO Territory





Colombia






 








Location

La Enea, Caldas Department




Serving

Manizales



Elevation

6768 ft



Coordinates



    5°
    1'
          49"
        N
  
      ,
    
    75°
    28'
          15"
        W
  




KCC

Cfb




Metar
SKMZ 071200Z 12004KT 100V170 9000 VCFG SCT007 BKN015 16/12 Q1025








La Nubia Airport is an airport serving Manizales, Colombia, 8km southeast of the city's downtown.
Climatology
Subtropical highland climate (Köppen climate classification Cfb)






Runways






Designator
Length
Width
Surface
Rops




9/27          
0          
0          
UNK          
No/No          


10/28          
1474          
20          
ASP          
No/No          













Airport map






Aerial View