KTUL








Tulsa International Airport





Airport

ICAO code


  KTUL






Summary

ICAO Region

NAM



ICAO Territory





United States






 








Location

Tulsa, Oklahoma,




Coordinates



    36°
    11'
          26"
        N
  
      ,
    
    95°
    53'
          22"
        W
  




KCC

Cfa



Airport LOS

Parallel Runway Operation




Metar
KTUL 071253Z 31004KT 10SM FEW150 15/11 A3022 RMK AO2 SLP229 T01500111








Description
Tulsa International Airport is a civil-military airport (ANG) located 8 km northeast of the central business district of Tulsa, a city in Tulsa County, Oklahoma.
Climatology
Humid “subtropical” climate (Köppen climate classification Cfa) - characterized by hot, humid summers and cool winters. Significant amounts of precipitation occur in all seasons in most areas. Winter rainfall (and sometimes snowfall) is associated with large storms that the westerlies steer from west to east. Most summer rainfall occurs during thunderstorms.






Runways






Designator
Length
Width
Surface
Rops




18R/36L          
1860          
46          
ASP          
Yes/Yes          


8/26          
2247          
46          
CON          
Yes/Yes          


18L/36R          
3048          
61          
CON          
Yes/Yes          













Airport map






Aerial View








Airport accidents



B752, Tulsa USA, 2022