NVVW








Whitegrass Airport





Airport

ICAO code


  NVVW





IATA Code

TAH




Summary

ICAO Region

APAC



ICAO Territory





Vanuatu






 








Location

Whitegrass, Tafea province




Serving

Tanna



Elevation

27 ft



Coordinates



    19°
    27'
          18"
        S
  
      ,
    
    169°
    13'
          26"
        E
  




KCC

Af




Metar
NVVW 070000Z 13011KT 9999 SCT020 27/17 Q1020








Whitegrass Airport, also known as White Grass Airport or Tanna Airport, is an airport on the island Tanna, in the Taféa province in Vanuatu.
Climatology
Tropical Rainforest climate (Köppen climate classification Af)






Runways






Designator
Length
Width
Surface
Rops




15/33          
1230          
30          
ASP          
No/No          













Airport map






Aerial View