LZZI








Žilina Airport





Airport

ICAO code


  LZZI





IATA Code

ILZ




Summary

ICAO Region

EUR



ICAO Territory





Slovakia






 








Location

Dolný Hričov, Žilina Region




Serving

Žilina



Elevation

1020 ft



Coordinates



    49°
    13'
          53"
        N
  
      ,
    
    18°
    36'
          48"
        E
  




KCC

Dfb




Metar
LZZI 071300Z 16008KT 120V220 9999 FEW058 29/13 Q1017








Žilina Airport is an international public airport located in Žilina, Slovakia.
Climatology
Humid continental climate (Köppen climate classification Dfb)






Runways






Designator
Length
Width
Surface
Rops




6/24          
1150          
30          
CON          
No/No          













Airport map






Aerial View