KPSP








Palm Springs International Airport





Airport

ICAO code


  KPSP






Summary

ICAO Region

NAM



ICAO Territory





United States






 








Location

Palm Springs, California,




Coordinates



    33°
    49'
          46"
        N
  
      ,
    
    116°
    30'
          27"
        W
  




Airport LOS

Parallel Runway Operation




Metar
KPSP 071353Z 00000KT 10SM CLR 33/12 A2981 RMK AO2 SLP089 T03330117 $








Description
Palm Springs International Airport is a public airport located two miles (3 km) east of the central business district of Palm Springs, California, serving the Inland Empire Metropolitan Area of Southern California.
Climatology
Desert climate (Köppen climate classification Bwh) with extremely hot summers and warm winters






Runways






Designator
Length
Width
Surface
Rops




13L/31R          
1509          
23          
ASP          
Yes/Yes          


13R/31L          
3048          
46          
ASP          
Yes/Yes          













Airport map






Aerial View