SPJL








Inca Manco Capac International Airport





Airport

ICAO code


  SPJL





IATA Code

JUL




Summary

ICAO Region

CARSAM



ICAO Territory





Peru






 








Location

Viyupata, Puno




Serving

Juliaca



Elevation

12552 ft



Coordinates



    15°
    28'
          15"
        S
  
      ,
    
    70°
    9'
          43"
        W
  




KCC

Cwb




Metar
SPJL 071300Z VRB02KT 8000 NSC 08/M02 Q1037 RMK HZ BIRD HAZARD RWY 12/30 PP000








High-elevation airport serving the city of Juliaca, thirty minutes from the city of Puno at Titicaca Lake.
Climatology
Subtropical Highland climate (Köppen climate classification Cwb).






Runways






Designator
Length
Width
Surface
Rops




12/30          
4200          
46          
ASP          
No/No          













Airport map






Aerial View