CYQB








Quebec





Airport

ICAO code


  CYQB






Summary

ICAO Region

NAM



ICAO Territory





Canada






 








Location

Quebec City, Quebec,




Coordinates



    46°
    47'
          28"
        N
  
      ,
    
    71°
    23'
          36"
        W
  




KCC

Dfb




Metar
CYQB 071400Z 10011KT 25SM FEW024 SCT240 19/14 A2990 RMK SC2CI2 SLP127 DENSITY ALT 800FT








Description
Québec City Jean Lesage International Airport, also known as Jean Lesage International Airport is located 6 nm west southwest of Quebec City, Quebec, Canada.
Climatology
Humid Continental climate (Köppen climate classification Dfb) - Variable weather patterns and a large seasonal temperature variance. Summers are often warm and humid with frequent thunderstorms and winters can be very cold with frequent snowfall and persistent snow cover.






Runways






Designator
Length
Width
Surface
Rops




12/30          
1737          
46          
ASP          
Yes/Yes          


6/24          
2743          
46          
ASP          
Yes/Yes          













Airport map






Aerial View








Airport accidents



A310, vicinity Quebec Canada, 2008