OINE








Kalaleh Airport





Airport

ICAO code


  OINE





IATA Code

KLM




Summary

ICAO Region

MID



ICAO Territory





Iran






 








Location

Barbar Qaleh, Golestan Province




Serving

Kalaleh



Elevation

425 ft



Coordinates



    37°
    22'
          60"
        N
  
      ,
    
    55°
    27'
          5"
        E
  




KCC

BWk




Metar
OINE 071400Z 22008KT 9999 FEW030TCU SCT035 30/18 Q1015








Airport 4km west of the city of Kalaleh, Iran.
Climatology
Cold desert climate (Köppen climate classification Bwk).






Runways






Designator
Length
Width
Surface
Rops




10/28          
2218          
28          
ASP          
No/No          













Airport map






Aerial View