KLNK








Lincoln Airport





Airport

ICAO code


  KLNK





IATA Code

LNK




Summary

ICAO Region

NAM



ICAO Territory





United States






 








Location

Lincoln, Nebraska




Serving

Lincoln



Elevation

1219 ft



Coordinates



    40°
    50'
          49"
        N
  
      ,
    
    96°
    45'
          19"
        W
  




KCC

Dfa



Airport LOS

Parallel Runway Operation




Metar
KLNK 071354Z 00000KT 7SM CLR 13/08 A3033 RMK AO2 SLP270 T01280083








Lincoln Airport, formerly known as Lincoln Municipal Airport, is a joint public/military (ANG) use airport located 5 nm northwest of the central business district of Lincoln, which is located in Lancaster County, Nebraska, USA.






Runways






Designator
Length
Width
Surface
Rops




17/35          
1646          
30          
PEM          
Yes/Yes          


14/32          
2636          
46          
PEM          
Yes/Yes          


18/36          
3932          
61          
PEM          
Yes/Yes          













Airport map






Aerial View