KALB








Albany International Airport





Airport

ICAO code


  KALB





IATA Code

ALB




Summary

ICAO Region

NAM



ICAO Territory





United States






 








Location

Colonie, New York




Serving

Albany



Elevation

285 ft



Coordinates



    42°
    44'
          43"
        N
  
      ,
    
    73°
    48'
          34"
        W
  




KCC

Dfb



Airport WX

Cumulonimbus




Metar
KALB 071351Z 12010G19KT 10SM BKN019 OVC250 20/15 A2982 RMK AO2 SLP097 T02000150








Description
Albany International Airport is a public use airport located 6 nm northwest of the central business district of Albany, in Albany County, New York.














Airport map






Aerial View