WMSA








Sultan Abdul Aziz Shah Airport





Airport

ICAO code


  WMSA





IATA Code

SZB




Summary

ICAO Region

APAC



ICAO Territory





Malaysia






 








Location

Subang, Selangor




Serving

Kuala Lumpur



Elevation

90 ft



Coordinates



    3°
    7'
          50"
        N
  
      ,
    
    101°
    33'
          2"
        E
  




KCC

Af




Metar
WMSA 071100Z VRB02KT 9999 FEW017CB 30/25 Q1009








Sultan Abdul Aziz Shah Airport (formerly Subang International Airport), often called Subang Airport and known as Skypark Subang, is an airport located in Subang, Malaysia, and primarily serves general aviation and some turboprop domestic flights. 














Airport map






Aerial View








Airport accidents



CL30, Subang Malaysia, 2019