BGJN








Ilulissat Airport





Airport

ICAO code


  BGJN





IATA Code

JAV




Summary

ICAO Region

NAT



ICAO Territory





Greenland






 








Location

,




Serving

Ilulissat



Elevation

95 ft



Coordinates



    69°
    14'
          4"
        N
  
      ,
    
    51°
    3'
          4"
        W
  





Metar
BGJN 071150Z 22013KT 9999 BKN017 BKN110 03/01 Q1021









Runways






Designator
Length
Width
Surface
Rops




8/26          
845          
0          
UNK          
No/No          













Airport map






Aerial View