SLRY








Reyes Airport





Airport

ICAO code


  SLRY





IATA Code

REY




Summary

ICAO Region

CARSAM



ICAO Territory





Bolivia






 








Location

Reyes, El Beni




Serving

Reyes



Elevation

935 ft



Coordinates



    14°
    18'
          16"
        S
  
      ,
    
    67°
    21'
          12"
        W
  




KCC

Af




Metar
SLRY 062200Z 00000KT 5000 FU NSC 24/21 Q1009








Airport serving Reyes, the capital of the José Ballivián Province in Bolivia's Beni Department. The runway is 2 km west of the town.
Climatology
Equatorial climate (Köppen climate classification Af).






Runways






Designator
Length
Width
Surface
Rops




18/36          
1500          
0          
UNK          
No/No          













Airport map






Aerial View