LTCS








Şanlıurfa GAP Airport





Airport

ICAO code


  LTCS





IATA Code

GNY




Summary

ICAO Region

EUR



ICAO Territory





Turkey






 








Location

Gölgen,




Serving

Sanliurfa



Coordinates



    37°
    26'
          42"
        N
  
      ,
    
    38°
    54'
          27"
        E
  





Metar
LTCS 071220Z 16011KT 120V190 9999 FEW040TCU SCT040 32/12 Q1010

















Airport map






Aerial View