BITN








Thorshofn Airport





Airport

ICAO code


  BITN





IATA Code

THO




Summary

ICAO Region

NAT



ICAO Territory





Iceland






 








Location

, Norourland Eystra




Serving

Thorshofn



Elevation

65 ft



Coordinates



    66°
    13'
          7"
        N
  
      ,
    
    15°
    20'
          8"
        W
  





Metar
BITN 061700Z 14015KT 9999 FEW040 12/05 Q1013









Runways






Designator
Length
Width
Surface
Rops




2/20          
1199          
30          
BIT          
No/No          













Airport map






Aerial View