SBCP








Bartolomeu Lysandro Airport





Airport

ICAO code


  SBCP





IATA Code

CAW




Summary

ICAO Region

CARSAM



ICAO Territory





Brazil






 








Location

Campos dos Goytacazes, Rio de Janeiro




Serving

Campos dos Goytacazes



Elevation

54 ft



Coordinates



    21°
    42'
          4"
        S
  
      ,
    
    41°
    18'
          28"
        W
  




KCC

Aw




Metar
SBCP 071300Z 02013KT CAVOK 28/17 Q1020








Campos–Bartolomeu Lysandro Airport is the airport serving Campos dos Goytacazes, Brazil.
Climatology
Tropical savannah climate (Köppen climate classification Aw)






Runways






Designator
Length
Width
Surface
Rops




7/25          
1544          
45          
ASP          
No/No          













Airport map






Aerial View