OICS








Sanandaj Airport





Airport

ICAO code


  OICS





IATA Code

SDG




Summary

ICAO Region

MID



ICAO Territory





Iran






 








Location

Sanandaj, Kurdistan Province




Serving

Sanandaj



Elevation

4522 ft



Coordinates



    35°
    15'
          6"
        N
  
      ,
    
    47°
    0'
          49"
        E
  




KCC

BSh




Metar
OICS 071400Z VRB02KT CAVOK 33/M02 Q1014 A2996








Airport south of the city of Sanandaj, Iran.
Climatology
Warm Semi-arid climate (Köppen climate classification Bsh).






Runways






Designator
Length
Width
Surface
Rops




1/19          
2640          
45          
ASP          
No/No          













Airport map






Aerial View