UMII








Vitebsk Vostochny Airport





Airport

ICAO code


  UMII





IATA Code

VTB




Summary

ICAO Region

EUR



ICAO Territory





Russian Federation






 








Location

Vostochny, Vitebsk Region




Serving

Vitebsk



Elevation

682 ft



Coordinates



    55°
    7'
          36"
        N
  
      ,
    
    30°
    21'
          6"
        E
  




KCC

Dfb




Metar
UMII 071200Z 15003G06MPS CAVOK 23/04 Q1029 NOSIG








Vitebsk Vostochny Airport (also known as Vitebsk Southeast Airport) is an airport serving Vitebsk in Belarus.
Climatology
Humid continental climate (Köppen climate classification Dfb)






Runways






Designator
Length
Width
Surface
Rops




6/24          
2606          
42          
ASP          
No/No          













Airport map






Aerial View