ETNN








Nörvenich Air Base





Airport

ICAO code


  ETNN






Summary

ICAO Region

EUR



ICAO Territory





Germany






 








Location

Nörvenich, North Rhine-Westphalia




Serving

Nörvenich



Elevation

384 ft



Coordinates



    50°
    49'
          54"
        N
  
      ,
    
    6°
    39'
          30"
        E
  





Metar
ETNN 071420Z 10006KT 9999 BKN280 27/18 Q1010 BLU+








Nörvenich Air Base (Fliegerhorst Nörvenich) is a German Air Force air base in Germany.






Runways






Designator
Length
Width
Surface
Rops




7/25          
2439          
45          
ASP          
No/No          













Airport map






Aerial View