KVBG








Vandenberg Air Force Base





Airport

ICAO code


  KVBG





IATA Code

VBG




Summary

ICAO Region

NAM



ICAO Territory





United States






 








Location

, California




Serving

Lompoc



Elevation

369 ft



Coordinates



    34°
    44'
          14"
        N
  
      ,
    
    120°
    35'
          4"
        W
  





Metar
KVBG 071355Z AUTO 02003KT 10SM FEW000 12/12 A2988 RMK AO2 VIS 1/8 RWY12 VIS 1/4 RWY12/30 SLP120 T01230117 TSNO $









Runways






Designator
Length
Width
Surface
Rops




12/30          
4572          
61          
CON          
Yes/Yes          













Airport map






Aerial View