OPIS








Islamabad International Airport





Airport

ICAO code


  OPIS





IATA Code

ISB




Summary

ICAO Region

APAC



ICAO Territory





Pakistan






 








Location

Thalian, Punjab




Serving

Islamabad and Rawalpindi



Elevation

1761 ft



Coordinates



    33°
    33'
          30"
        N
  
      ,
    
    73°
    3'
          24"
        E
  




KCC

Cwa




Metar
OPIS 071230Z 00000KT 6000 FEW040 31/22 Q1005 NOSIG








Islamabad International Airport is the main international airport serving the Islamabad-Rawalpindi metropolitan area and its suburbs.
Climatology
Humid subtropical climate (Köppen climate classification Cwa)














Airport map






Aerial View