MUCU








Antonio Maceo Airport





Airport

ICAO code


  MUCU





IATA Code

SCU




Summary

ICAO Region

CARSAM



ICAO Territory





Cuba






 








Location

Santiago de Cuba, Santiago de Cuba




Serving

Santiago de Cuba



Elevation

249 ft



Coordinates



    19°
    58'
          12"
        N
  
      ,
    
    75°
    50'
          8"
        W
  




KCC

Aw



Airport BS

Bird Strike




Metar
MUCU 071250Z 35006KT 9000 FEW020 SCT080 27/23 Q1011








International airport serving Santiago de Cuba, Cuba.
Climatology
Tropical Savanna climate (Köppen climate classification Aw) - monthly mean temperature above 18°C in every month of the year and a pronounced dry season.
The dry season is in Feb/Mar. The Hurricane season lasts from May to December with the rainy season extending into January.






Runways






Designator
Length
Width
Surface
Rops




18/36          
1296          
45          
ASP          
No/No          


9/27          
4000          
45          
ASP          
No/No          













Airport map






Aerial View