VVDN








Da Nang International Airport





Airport

ICAO code


  VVDN





IATA Code

DAD




Summary

ICAO Region

APAC



ICAO Territory





Vietnam






 








Location

Da Nang, Da Nang




Serving

Da Nang



Elevation

33 ft



Coordinates



    16°
    2'
          38"
        N
  
      ,
    
    108°
    11'
          58"
        E
  




KCC

Am



Airport LOS

Parallel Runway Operation



Airport WX

Cumulonimbus




Metar
VVDN 071300Z 19004KT 9999 FEW017 32/23 Q1003 NOSIG








Da Nang International Airport is located in Da Nang, the largest city in central Vietnam.
Climatology
Tropical monsoon climate (Köppen climate classification Am)














Airport map






Aerial View