CYPQ








Peterborough Municipal Airport





Airport

ICAO code


  CYPQ





IATA Code

YPQ




Summary

ICAO Region

NAM



ICAO Territory





Canada






 








Location

Peterborough, Ontario,




Serving

Peterborough



Elevation

628 ft



Coordinates



    44°
    13'
          48"
        N
  
      ,
    
    78°
    21'
          48"
        W
  




KCC

Dfa




Metar
CYPQ 071407Z AUTO 31008G18KT 6SM BR BKN013 12/10 A2980 RMK SLP097








Description
International airport serving Peterborough, located 3 nm south-southwest of the city of Peterborough, Ontario, Canada.
Climatology
Humid continental climate (Köppen climate classification Dfa) - characterized by four seasons: cold, windy, snowy winters, mild springs, hot, humid summers, and crisp and relatively short autumns. Precipitation reaches its lowest in January and February and peaks in summer and latter half of spring.






Runways






Designator
Length
Width
Surface
Rops




14/32          
543          
30          
GRS          
No/No          


9/27          
2134          
30          
ASP          
Yes/Yes          













Airport map






Aerial View