TQPF








Clayton J Lloyd International Airport





Airport

ICAO code


  TQPF





IATA Code

AXA




Summary

ICAO Region

CARSAM



ICAO Territory





Anguilla






 








Location

The Valley, Anguilla




Serving

The Valley



Elevation

127 ft



Coordinates



    18°
    12'
          24"
        N
  
      ,
    
    63°
    3'
          9"
        W
  




KCC

Aw



Airport WX

Tropical Revolving Storm




Metar
TQPF 071400Z 12008KT 9999 VCSH FEW014CB FEW015TCU 29/26 Q1011 RMK CB NW-N;TCU NW+NE








The Clayton J. Lloyd International Airport (formerly known as the Anguilla Wallblake Airport) is a small international airport located on the island of Anguilla, a British Overseas Territory in the Caribbean.
Climatology
Tropical savannah climate (Köppen climate classification Aw)






Runways






Designator
Length
Width
Surface
Rops




10/28          
1665          
30          
ASP          
No/No          













Airport map






Aerial View