KHMN








Holloman Air Force Base





Airport

ICAO code


  KHMN





IATA Code

HMN




Summary

ICAO Region

NAM



ICAO Territory





United States






 








Location

Alamogordo, New Mexico




Serving

Alamogordo



Elevation

4093 ft



Coordinates



    32°
    51'
          4"
        N
  
      ,
    
    106°
    6'
          22"
        W
  




KCC

BSk



Airport RE

Hot and High Operations



Airport WX

Mountain Waves




Metar
KHMN 071355Z AUTO 00000KT 10SM CLR 19/09 A3033 RMK AO2 VIS 2 1/4 RWY04 VIS 2 1/4 RWY07 SLP205 T01940093 $








Holloman Air Force Base is a United States Air Force installation located 6 nm southwest of the central business district of Alamogordo, a city in Otero County, New Mexico, USA.
 














Airport map






Aerial View