LGAL








Alexandroupoli Airport





Airport

ICAO code


  LGAL





IATA Code

AXD




Summary

ICAO Region

EUR



ICAO Territory





Greece






 








Location

Apalos, Eastern Macedonia and Thrace




Serving

Alexandroupolis



Elevation

24 ft



Coordinates



    40°
    51'
          23"
        N
  
      ,
    
    25°
    57'
          19"
        E
  




KCC

Csa




Metar
LGAL 071350Z 36013KT 9999 FEW030 32/16 Q1014








Alexandroupoli Airport "Dimokritos" or "Democritus" is an airport 5 nm east of Alexandroupolis in northeastern Greece.
Climatology
Warm mediterranean climate (Köppen climate classification Csa)






Runways






Designator
Length
Width
Surface
Rops




7/25          
2582          
45          
ASP          
No/No          













Airport map






Aerial View