HRYR








Kigali





Airport

ICAO code


  HRYR






Summary

ICAO Region

AFI



ICAO Territory





Rwanda






 








Location

Kigali,




Coordinates



    1°
    57'
          59"
        S
  
      ,
    
    30°
    7'
          59"
        E
  





Metar
HRYR 071230Z 09013KT 9999 FEW023CB SCT025 26/13 Q1019 NOSIG








Kigali International Airport (IATA: KGL, ICAO: HRYR), formerly known as Gregoire Kayibanda International Airport, but sometimes referred to as Kanombe International Airport, is the primary airport serving Kigali, the capital of Rwanda.






Runways






Designator
Length
Width
Surface
Rops




10/28          
3500          
45          
ASP          
Yes/Yes          













Airport map






Aerial View








Airport accidents



B721, Kigali Rwanda, 2020