CYHZ








Halifax Stanfield International Airport





Airport

ICAO code


  CYHZ





IATA Code

YHZ




Summary

ICAO Region

NAM



ICAO Territory





Canada






 








Location

Halifax, Nova Scotia,




Serving

Halifax



Elevation

477 ft



Coordinates



    44°
    52'
          50"
        N
  
      ,
    
    63°
    30'
          50"
        W
  




KCC

Dfb




Metar
CYHZ 071503Z 11021G31KT 4SM -RA BR BKN006 OVC015 18/18 A2979 RMK SF7NS1 CIG RAG SLP091 DENSITY ALT 1200FT








Description
Officially named Halifax International Airport, serves Halifax and environs, Nova Scotia.
Climatology
Humid Continental climate (Köppen climate classification Dfb) - Variable weather patterns and a large seasonal temperature variance. Summers are often warm and humid with frequent thunderstorms and winters can be very cold with frequent snowfall and persistent snow cover.






Runways






Designator
Length
Width
Surface
Rops




14/32          
2347          
61          
ASP          
Yes/Yes          


5/23          
2682          
61          
PEM          
Yes/Yes          













Airport map






Aerial View








Airport accidents



B744, Halifax NS Canada, 2018
B738, Halifax Canada, 2020
B763, Halifax NS Canada, 2019
A320, Halifax NS Canada, 2015
B742, Halifax Canada, 2004