EYSA








Šiauliai International Airport





Airport

ICAO code


  EYSA





IATA Code

SQQ




Summary

ICAO Region

EUR



ICAO Territory





Lithuania






 








Location

Šiauliai, Šiauliai County




Serving

Šiauliai



Elevation

443 ft



Coordinates



    55°
    53'
          38"
        N
  
      ,
    
    23°
    23'
          42"
        E
  




KCC

Dfb




Metar
EYSA 071250Z 13010KT 100V170 CAVOK 26/11 Q1024 NOSIG








Šiauliai International Airport is located 7 kilometres southeast of the city of Šiauliai, in northern Lithuania.
Climatology
Humid continental climate (Köppen climate classification Dfb)






Runways






Designator
Length
Width
Surface
Rops




14R/32L          
3280          
32          
CON          
No/No          


14L/32R          
3500          
45          
CON          
No/No          













Airport map






Aerial View