MMUN








Cancún International Airport





Airport

ICAO code


  MMUN





IATA Code

CUN




Summary

ICAO Region

CARSAM



ICAO Territory





Mexico






 








Location

Cancun, Quintana Roo




Serving

Cancun



Elevation

22 ft



Coordinates



    21°
    2'
          12"
        N
  
      ,
    
    86°
    52'
          37"
        W
  




KCC

Aw



Airport WX

Tropical Revolving Storm




Metar
MMUN 071245Z 11007KT 7SM SCT015TCU BKN250 29/26 A2978 RMK 8/208 HZ








International airport 6 nm south of Cancun, Mexico.
Climatology
Tropical savannah climate (Köppen climate classification Aw)






Runways






Designator
Length
Width
Surface
Rops




12L/30R          
2800          
45          
ASP          
Yes/Yes          


12R/30L          
3500          
60          
ASP          
Yes/Yes          













Airport map






Aerial View