SBCY








Marechal Rondon International Airport





Airport

ICAO code


  SBCY





IATA Code

CGB




Summary

ICAO Region

CARSAM



ICAO Territory





Brazil






 








Location

Cuiabá, Mato Grosso




Serving

Cuiabá



Elevation

617 ft



Coordinates



    15°
    39'
          0"
        S
  
      ,
    
    56°
    7'
          3"
        W
  




KCC

Aw




Metar
SBCY 071300Z 30008KT 5000 FU NSC 31/13 Q1013








Marechal Rondon International Airport is the airport serving Cuiabá, Brazil, located in the adjoining municipality of Várzea Grande.
Climatology
Tropical savanna climate (Köppen climate classification Aw)






Runways






Designator
Length
Width
Surface
Rops




17/35          
2300          
45          
ASP          
Yes/Yes          













Airport map






Aerial View