KDAL








Dallas Love Field





Airport

ICAO code


  KDAL





IATA Code

DAL




Summary

ICAO Region

NAM



ICAO Territory





United States






 








Location

Dallas , Texas




Serving

Dallas



Elevation

487 ft



Coordinates



    32°
    50'
          37"
        N
  
      ,
    
    96°
    51'
          10"
        W
  




KCC

Cfa



Airport LOS

Parallel Runway Operation




Metar
KDAL 071353Z 06008G17KT 10SM CLR 23/11 A3013 RMK AO2 SLP195 T02280111








Description
Dallas Love Field is a city-owned public-use airport located 10 km northwest of the central business district of Dallas, a city in Dallas County, Texas, United States.














Airport map






Aerial View