UADD








Taraz Airport





Airport

ICAO code


  UADD





IATA Code

DMB




Summary

ICAO Region

APAC



ICAO Territory





Kazakhstan






 








Location

Taraz, Jambyl Province,




Serving

Taraz



Elevation

2184 ft



Coordinates



    42°
    51'
          13"
        N
  
      ,
    
    71°
    18'
          13"
        E
  





Metar
UADD 071400Z 01003MPS 9999 NSC 17/M01 Q1022 NOSIG RMK QFE709/0946








Description
Taraz Airport, also known as Jambyl Airport is an airport serving Taraz (formerly Jambyl and Aulie-Ata), a city in the Jambyl Province of Kazakhstan.






Runways






Designator
Length
Width
Surface
Rops




13/31          
2900          
45          
ASP          
No/No          













Airport map






Aerial View