LRAR








Arad International Airport





Airport

ICAO code


  LRAR





IATA Code

ARW




Summary

ICAO Region

EUR



ICAO Territory





Romania






 








Location

, Arad




Serving

Arad



Elevation

352 ft



Coordinates



    46°
    10'
          36"
        N
  
      ,
    
    21°
    15'
          43"
        E
  





Metar
LRAR 071530Z 28003KT 230V320 9999 FEW044 31/14 Q1016









Runways






Designator
Length
Width
Surface
Rops




9/27          
2000          
45          
CON          
No/No          













Airport map






Aerial View