LIEO








Olbia  Costa Smeralda Airport





Airport

ICAO code


  LIEO





IATA Code

OLB




Summary

ICAO Region

EUR



ICAO Territory





Italy






 








Location

Olbia, Sardinia




Serving

Olbia



Elevation

37 ft



Coordinates



    40°
    54'
          9"
        N
  
      ,
    
    9°
    30'
          53"
        E
  




KCC

Csa




Metar
LIEO 071350Z 09014KT 070V130 9999 FEW050 33/24 Q1013








Olbia Costa Smeralda Airport is an airport in Olbia, Sardinia.
Climatology
Warm mediterranean climate (Köppen climate classification Csa)






Runways






Designator
Length
Width
Surface
Rops




5/23          
2446          
45          
ASP          
Yes/Yes          













Airport map






Aerial View