UIII








Irkutsk Airport





Airport

ICAO code


  UIII





IATA Code

IKT




Summary

ICAO Region

APAC



ICAO Territory





Russian Federation






 








Location

Irkutsk, Russia,




Serving

Irkutsk



Elevation

1675 ft



Coordinates



    52°
    16'
          5"
        N
  
      ,
    
    104°
    23'
          20"
        E
  




KCC

Dwc




Metar
UIII 071230Z 25003MPS 9999 SCT050CB 16/11 Q1008 R30/CLRD60 NOSIG RMK QFE711/0949








Description
International and domestic airport serving the Russian city of Irkutsk.
Climatology
Cool continental climate/Subarctic climate (Köppen climate classification Dwc)






Runways






Designator
Length
Width
Surface
Rops




12/30          
3165          
45          
CON          
Yes/Yes          













Airport map






Aerial View








Airport accidents



A310, Irkutsk Russia, 2006