KPQI








Northern Maine Regional Airport at Presque Isle





Airport

ICAO code


  KPQI






Summary

ICAO Region

NAM



ICAO Territory





United States






 








Location

Presque Isle, Maine,




Coordinates



    46°
    41'
          30"
        N
  
      ,
    
    68°
    2'
          34"
        W
  




KCC

Dfb



Airport CFIT

Altimeter Temperature Error Correction



Airport WX

Cumulonimbus




Metar
KPQI 071413Z AUTO 07008KT 10SM CLR 18/14 A2996 RMK AO2








Description
Northern Maine Regional Airport at Presque Isle is a public use airport located 2 km northwest of the central business district of Presque Isle, a city in Aroostook County, Maine.
Climatology
Humid Continental climate (Köppen climate classification Dfb) - Variable weather patterns and a large seasonal temperature variance. Summers are often warm and humid with frequent thunderstorms and winters can be very cold with frequent snowfall and persistent snow cover.






Runways






Designator
Length
Width
Surface
Rops




10/28          
1827          
46          
ASP          
Yes/Yes          


1/19          
2268          
46          
ASP          
Yes/Yes          













Airport map






Aerial View








Airport accidents



E145, Presque Isle ME USA, 2019