KBRO








Brownsville/South Padre Island International Airport





Airport

ICAO code


  KBRO





IATA Code

BRO




Summary

ICAO Region

NAM



ICAO Territory





United States






 








Location

Brownsville, Texas




Serving

Brownsville



Elevation

22 ft



Coordinates



    25°
    54'
          23"
        N
  
      ,
    
    97°
    25'
          55"
        W
  




KCC

Cfa



Airport LOS

Parallel Runway Operation




Metar
KBRO 071353Z 34010G21KT 10SM OVC041 24/21 A2988 RMK AO2 SLP116 T02440211








Description
Brownsville/South Padre Island International Airport is a public use airport located 4 nm east of Brownsville, Texas, USA.














Airport map






Aerial View