UMKK








Khrabrovo Airport





Airport

ICAO code


  UMKK





IATA Code

KGD




Summary

ICAO Region

EUR



ICAO Territory





Russian Federation






 








Location

Khrabrovo, Kaliningrad




Serving

Kaliningrad



Elevation

42 ft



Coordinates



    54°
    53'
          24"
        N
  
      ,
    
    20°
    35'
          33"
        E
  




KCC

Dfb




Metar
UMKK 071230Z 12005MPS 090V170 CAVOK 29/13 Q1021 R24/CLRD95 NOSIG RMK QFE764/1019








Airport serving Kaliningrad, previously known as Powunden Airfield, located 15 nm north of Kaliningrad, Russian Federation.






Runways






Designator
Length
Width
Surface
Rops




6/24          
2500          
45          
CON          
Yes/Yes          













Airport map






Aerial View