WBKL








Labuan Airport





Airport

ICAO code


  WBKL





IATA Code

LBU




Summary

ICAO Region

APAC



ICAO Territory





Malaysia






 








Location

Victoria, Labuan




Serving

Labuan



Elevation

101 ft



Coordinates



    5°
    18'
          2"
        N
  
      ,
    
    115°
    15'
          1"
        E
  




KCC

Af




Metar
WBKL 071200Z VRB05KT 9999 FEW013 29/26 Q1011








Airport serving the island of Labuan, Malaysia. The airport is located 3 nm north of Victoria.














Airport map






Aerial View