NZWN








Wellington International Airport





Airport

ICAO code


  NZWN





IATA Code

WLG




Summary

ICAO Region

APAC



ICAO Territory





New Zealand






 








Location

Rongotai, Wellington,




Serving

Wellington



Elevation

42 ft



Coordinates



    41°
    19'
          40"
        S
  
      ,
    
    174°
    48'
          38"
        E
  




KCC

Cfb




Metar
NZWN 071300Z AUTO 15013KT 9999 BKN035/// 10/08 Q1005








Description
Wellington International Airport (formerly known as Rongotai Airport) is located in the suburb of Rongotai in Wellington, New Zealand.
Climatology
Temperate Marine climate/Oceanic climate (Köppen climate classification Cfb). Moderately cool summer and comparatively warm winter with a temperature range of only 14°C.






Runways






Designator
Length
Width
Surface
Rops




16/34          
1936          
45          
ASP          
Yes/Yes          













Airport map






Aerial View








Airport accidents



DH8C / DH8C, vicinity Wellington New Zealand, 2019
C185, Wellington New Zealand, 1997