MMVA








Carlos Rovirosa Pérez International Airport





Airport

ICAO code


  MMVA





IATA Code

VSA




Summary

ICAO Region

CARSAM



ICAO Territory





Mexico






 








Location

Dos Montes, Tabasco




Serving

Villahermosa



Elevation

46 ft



Coordinates



    17°
    59'
          49"
        N
  
      ,
    
    92°
    49'
          2"
        W
  




KCC

Am




Metar
MMVA 071241Z 00000KT 3SM DZ BKN014 OVC060 24/24 A2972 RMK 8/72/ VRB CONDS








Carlos Rovirosa Pérez International Airport or Villahermosa International Airport is an international airport serving Villahermosa, the capital of the Mexican state of Tabasco.
Climatology
Tropical monsoon climate (Köppen climate classification Am)






Runways






Designator
Length
Width
Surface
Rops




8/26          
2200          
45          
ASP          
No/No          













Airport map






Aerial View