LSZC








Buochs Airport





Airport

ICAO code


  LSZC





IATA Code

BXO




Summary

ICAO Region

EUR



ICAO Territory





Switzerland






 








Location

Buochs, Nidwalden




Serving

Buochs



Elevation

1475 ft



Coordinates



    46°
    58'
          21"
        N
  
      ,
    
    8°
    23'
          55"
        E
  




KCC

Dfb




Metar
LSZC 071420Z AUTO VRB02KT CAVOK 26/17 Q1011








Civil/military Regional airport in the town of Buochs, central Switzerland. The southern parking area is listed as Runway 07R/25L on some databases. Check current NOTAMs.
Climatology
Oceanic or Humid Continental climate (Köppen Climate Classification Cfb/Dfb), with four distinct seasons.






Runways






Designator
Length
Width
Surface
Rops




07R/25L          
1500          
40          
ASP          
No/No          


07L/25R          
2000          
40          
ASP          
No/No          













Airport map






Aerial View