LFOK








Châlons-Vatry Air Base





Airport

ICAO code


  LFOK





IATA Code

XCR




Summary

ICAO Region

EUR



ICAO Territory





France






 








Location

, Champagne-Ardenne




Serving

Chalons



Elevation

587 ft



Coordinates



    48°
    46'
          34"
        N
  
      ,
    
    4°
    11'
          4"
        E
  





Metar
LFOK 071400Z AUTO 11012KT CAVOK 23/17 Q1008 TEMPO 3000 SHRA BKN012 BKN040CB BECMG 20005KT









Runways






Designator
Length
Width
Surface
Rops




10/28          
3860          
45          
CON          
Yes/Yes          













Airport map






Aerial View