LFAQ








Albert-Bray Airport





Airport

ICAO code


  LFAQ






Summary

ICAO Region

EUR



ICAO Territory





France






 








Location

, Picardie




Serving

Albert



Elevation

364 ft



Coordinates



    49°
    58'
          18"
        N
  
      ,
    
    2°
    41'
          52"
        E
  





Metar
LFAQ 071400Z AUTO 16004KT 130V190 CAVOK 21/17 Q1009 NOSIG









Runways






Designator
Length
Width
Surface
Rops




9/27          
1170          
25          
ASP          
No/No          













Airport map






Aerial View