VOPB








Veer Savarkar International Airport





Airport

ICAO code


  VOPB






Summary

ICAO Region

APAC



ICAO Territory





India






 








Location

Port Blair, Andaman and Nicobar Islands,




Coordinates



    11°
    38'
          26"
        N
  
      ,
    
    92°
    43'
          48"
        E
  




KCC

Am



Airport BS

Bird Strike



Airport WX

Tropical Revolving Storm




Metar
VOPB 071200Z 22014KT 5000 BR SCT010 BKN080 29/26 Q1006 NOSIG








Description
Veer Savarkar International Airport, commonly known as Port Blair Airport, is an international airport located 2 km south of Port Blair and is the main airport of the Andaman and Nicobar Islands of India.
Climatology
Tropical Monsoon climate (Köppen climate classification Am) - monthly mean temperatures above 18°C in every month of the year and features wet and dry seasons. A tropical monsoon climate typically features less pronounced dry seasons than a tropical savanna climate and sees less variance in temperatures during the course of the year. The driest month nearly always occurs at or soon after the "winter" solstice.














Airport map






Aerial View