LGRX








Patras Araxos Airport





Airport

ICAO code


  LGRX





IATA Code

GPA




Summary

ICAO Region

EUR



ICAO Territory





Greece






 








Location

Araxos, Peloponnese




Serving

Patras



Elevation

46 ft



Coordinates



    38°
    9'
          5"
        N
  
      ,
    
    21°
    25'
          32"
        E
  




KCC

Csa




Metar
LGRX 071350Z 25004KT 9999 FEW020TCU 31/23 Q1013








Araxos Airport is the airport of Patras, the third-largest city in Greece.
Climatology
Warm mediterranean climate (Köppen climate classification Csa)






Runways






Designator
Length
Width
Surface
Rops




18L/36R          
3352          
21          
ASP          
Yes/Yes          


18R/36L          
3352          
45          
PEM          
Yes/Yes          













Airport map






Aerial View