ROYN








Yonaguni





Airport

ICAO code


  ROYN





IATA Code

OGN




Summary

ICAO Region

APAC



ICAO Territory





Japan






 








Location

Yonaguni, Okinawa Prefecture




Serving

Yonaguni



Elevation

49 ft



Coordinates



    24°
    27'
          55"
        N
  
      ,
    
    122°
    58'
          48"
        E
  




KCC

Cfa




Metar
ROYN 071300Z AUTO 20006KT 160V230 9999 FEW044 SCT100 //////CB 26/25 Q1012








Yonaguni Airport is a third-class airport located in Yonaguni, Yaeyama District, Okinawa Prefecture, Japan.
Climatology
Humid Sub-tropical climate (Köppen climate classification Cfa)






Runways






Designator
Length
Width
Surface
Rops




8/26          
1500          
46          
ASP          
Yes/Yes          













Airport map






Aerial View