PAED








Elmendorf Field





Airport

ICAO code


  PAED






Summary

ICAO Region

NAM



ICAO Territory





Alaska






 








Location

Anchorage, Alaska,




Coordinates



    61°
    15'
          2"
        N
  
      ,
    
    149°
    47'
          56"
        W
  




KCC

Dfc



Airport BS

Bird Strike



Airport CFIT

Altimeter Temperature Error Correction




Metar
PAED 071255Z 21004KT 10SM FEW060 BKN120 10/07 A2988 RMK AO2A SLP114 T00980074








Description
Elmendorf Field, formerly known as Elmendorf Air Force Base, is part of Joint Base Elmendorf-Richardson, a United States military facility located 10 km north of the central business district of Anchorage, Alaska.
Climatology
Cool continental climate/Subarctic climate (Köppen climate classification Dfc)






Runways






Designator
Length
Width
Surface
Rops




16/34          
2286          
46          
ASP          
Yes/Yes          


6/24          
3048          
61          
PEM          
Yes/Yes          













Airport map






Aerial View