RJKN








Tokunoshima Airport





Airport

ICAO code


  RJKN





IATA Code

TKN




Summary

ICAO Region

APAC



ICAO Territory





Japan






 








Location

Amagi, Kagoshima Prefectureima




Serving

Tokunoshima



Elevation

8 ft



Coordinates



    27°
    49'
          56"
        N
  
      ,
    
    128°
    52'
          60"
        E
  




KCC

Cfa




Metar
RJKN 070943Z AUTO 06007KT 3400 -RA BR FEW023 SCT050 28/26 Q1012 RMK A2989








Tokunoshima Airport is an airport on the island of Tokunoshima, located in the town of Amagi, Ōshima District, Kagoshima Prefecture of Japan.
Climatology
Humid Sub-tropical climate (Köppen climate classification Cfa)






Runways






Designator
Length
Width
Surface
Rops




1/19          
2000          
46          
ASP          
No/No          













Airport map






Aerial View