SKMD








Enrique Olaya Herrera Airport





Airport

ICAO code


  SKMD





IATA Code

EOH




Summary

ICAO Region

CARSAM



ICAO Territory





Colombia






 








Location

Medellín, Antioquia Department




Serving

Medellín



Elevation

4940 ft



Coordinates



    6°
    13'
          9"
        N
  
      ,
    
    75°
    35'
          16"
        W
  




KCC

Af




Metar
SKMD 071200Z 19003KT 9999 VCSH FEW033 OVC080 19/19 Q1020 RERA RMK VCSH/SW/W








Enrique Olaya Herrera Airport is an airport located in Medellín, Antioquia, Colombia, south-west of the city of Medellín, which serves regional and domestic flights in the country.
Climatology
Tropical rainforest climate (Köppen climate classification Af)






Runways






Designator
Length
Width
Surface
Rops




2/20          
2500          
38          
ASP          
No/No          













Airport map






Aerial View