KACT








Waco Regional Airport





Airport

ICAO code


  KACT






Summary

ICAO Region

NAM



ICAO Territory





United States






 








Location

Waco, Texas,




Coordinates



    31°
    36'
          33"
        N
  
      ,
    
    97°
    13'
          24"
        W
  




KCC

Cfa




Metar
KACT 071351Z 04013KT 10SM CLR 23/16 A3009 RMK AO2 SLP181 T02280156 $








Description
Waco Regional Airport is a public use airport located 8 km northwest of the central business district of Waco, a city in McLennan County, Texas.
Climatology
Humid “subtropical” climate (Köppen climate classification Cfa) - characterized by hot, humid summers and cool winters. Significant amounts of precipitation occur in all seasons in most areas. Winter rainfall (and sometimes snowfall) is associated with large storms that the westerlies steer from west to east. Most summer rainfall occurs during thunderstorms and occasional tropical storms (hurricanes).














Airport map






Aerial View