VCBI








Bandaranaike International Airport





Airport

ICAO code


  VCBI





IATA Code

CMB




Summary

ICAO Region

APAC



ICAO Territory





Sri Lanka






 








Location

Negombo, Western Province




Serving

Colombo



Elevation

26 ft



Coordinates



    7°
    10'
          52"
        N
  
      ,
    
    79°
    53'
          2"
        E
  




KCC

Am




Metar
VCBI 071210Z 24008KT 9999 FEW012 BKN016 29/26 Q1009 NOSIG








Colombo International Airport (commonly known as Bandaranaike International Airport, Colombo-Bandaranaike and locally as Katunayake Airport) is the main international airport serving Sri Lanka.
Climatology
Tropical monsoon climate (Köppen climate classification Am)






Runways






Designator
Length
Width
Surface
Rops




4/22          
3350          
45          
ASP          
Yes/Yes          













Airport map






Aerial View