GMMD








Beni Mellal Airport





Airport

ICAO code


  GMMD





IATA Code

BEM




Summary

ICAO Region

AFI



ICAO Territory





Morocco






 








Location

Oulad Yaich, Béni Mellal-Khénifra region




Serving

Beni Mellal



Elevation

1700 ft



Coordinates



    32°
    23'
          60"
        N
  
      ,
    
    6°
    19'
          0"
        W
  




KCC

BSh




Metar
GMMD 071300Z VRB02KT CAVOK 39/09 Q1009 NOSIG








Beni Mellal Airport is an airport serving Beni Mellal, Morocco. The airport is located near the township of Oulad Yaich.
Climatology
Warm semi-arid climate (Köppen climate classification BSh)






Runways






Designator
Length
Width
Surface
Rops




5/23          
1200          
0          
UNK          
No/No          













Airport map






Aerial View