SANT








Teniente General Benjamin Matienzo International Airport





Airport

ICAO code


  SANT





IATA Code

TUC




Summary

ICAO Region

CARSAM



ICAO Territory





Argentina






 








Location

San Miguel de Tucuman, Tucuman




Serving

Tucuman



Elevation

1493 ft



Coordinates



    26°
    50'
          27"
        S
  
      ,
    
    65°
    6'
          18"
        W
  




KCC

Cwa




Metar
SANT 071300Z 21005KT 7000 NSC 18/05 Q1013








Airport serving Tucuman, Tucuman Province, Argentina.
Climatology
Humid Sub-tropical climate (Köppen climate classification Cwa).






Runways






Designator
Length
Width
Surface
Rops




1/19          
2900          
45          
CON          
Yes/Yes          













Airport map






Aerial View