KNKX








Marine Corps Air Station Miramar





Airport

ICAO code


  KNKX





IATA Code

NKX




Summary

ICAO Region

NAM



ICAO Territory





United States






 








Location

Miramar, California




Serving

San Diego



Elevation

477 ft



Coordinates



    32°
    52'
          13"
        N
  
      ,
    
    117°
    8'
          39"
        W
  




KCC

Csa



Airport WX

Fog




Metar
KNKX 071355Z 00000KT 10SM CLR 22/18 A2981 RMK AO2 SLP086 T02220183








Marine Corps Air Station Miramar (MCAS Miramar), formerly Naval Air Station (NAS) Miramar, is a United States Marine Corps installation that is located in Miramar, California, approximately 13 nm north of the central business district of San Diego, USA.






Runways






Designator
Length
Width
Surface
Rops




10/28          
853          
61          
CON          
Yes/Yes          


06R/24L          
2438          
61          
PEM          
Yes/Yes          


06L/24R          
3658          
61          
CON          
Yes/Yes          













Airport map






Aerial View