KELP








El Paso International Airport





Airport

ICAO code


  KELP





IATA Code

ELP




Summary

ICAO Region

NAM



ICAO Territory





United States






 








Location

El Paso, Texas




Serving

El Paso



Elevation

3959 ft



Coordinates



    31°
    47'
          56"
        N
  
      ,
    
    106°
    23'
          42"
        W
  




KCC

BWh



Airport RE

Hot and High Operations




Metar
KELP 071351Z 05006KT 10SM FEW060 FEW120 22/13 A3028 RMK AO2 SLP183 T02170128








El Paso International Airport is a public use airport located 6 km northeast of the central business district of El Paso, in El Paso County, Texas.
 














Airport map






Aerial View