LPMR








Monte Real Air Base





Airport

ICAO code


  LPMR





IATA Code

QLR




Summary

ICAO Region

EUR



ICAO Territory





Portugal






 








Location

Monte Real, Leiria




Serving

Portuguese military



Elevation

187 ft



Coordinates



    39°
    49'
          42"
        N
  
      ,
    
    8°
    53'
          15"
        W
  




KCC

Csb




Metar
LPMR 071300Z 26009KT 220V310 9999 SCT026 SCT040 22/15 Q1013








Monte Real Air Base, officially designated as Air Force Base No. 5, is a Portuguese Air Force Military airbase located in Monte Real, Leiria, Portugal.
Climatology
Temperate mediterranean climate (Köppen climate classification Csb)






Runways






Designator
Length
Width
Surface
Rops




1/19          
2992          
45          
CON          
No/No          













Airport map






Aerial View