LFLH








Chalon-Champforgeuil Airport





Airport

ICAO code


  LFLH





IATA Code

XCD




Summary

ICAO Region

EUR



ICAO Territory





France






 








Location

, Bourgogne




Serving

Chalon



Elevation

623 ft



Coordinates



    46°
    49'
          34"
        N
  
      ,
    
    4°
    49'
          3"
        E
  





Metar
LFLH 071400Z AUTO 08007KT 050V110 9999 FEW009 SCT110 25/19 Q1008









Runways






Designator
Length
Width
Surface
Rops




17/35          
1440          
30          
ASP          
No/No          













Airport map






Aerial View