KAST








Astoria Regional Airport





Airport

ICAO code


  KAST





IATA Code

AST




Summary

ICAO Region

NAM



ICAO Territory





United States






 








Location

Warrenton, Oregon




Serving

Astoria



Elevation

15 ft



Coordinates



    46°
    9'
          21"
        N
  
      ,
    
    123°
    52'
          55"
        W
  




KCC

Cfb



Airport BS

Bird Strike




Metar
KAST 071355Z AUTO 20003KT 8SM OVC005 17/16 A2991 RMK AO2 SLP126 T01720156








Description
Astoria Regional Airport is a public use airport located 3 nm southwest of the central business district of Astoria, a city in Clatsop County, Oregon.














Airport map






Aerial View