KNKT








Marine Corps Air Station Cherry Point





Airport

ICAO code


  KNKT





IATA Code

NKT




Summary

ICAO Region

NAM



ICAO Territory





United States






 








Location

Havelock, North Carolina




Serving

Havelock



Elevation

29 ft



Coordinates



    34°
    54'
          12"
        N
  
      ,
    
    76°
    53'
          48"
        W
  




KCC

Cfa




Metar
KNKT 071356Z AUTO 04009KT 10SM BKN006 BKN031 OVC060 22/21 A2986 RMK AO2 RAE29 SLP108 P0002 T02170206








Marine Corps Air Station Cherry Point or MCAS Cherry Point is a United States Marine Corps airfield located in Havelock, North Carolina, USA.






Runways






Designator
Length
Width
Surface
Rops




05L/23R          
2302          
61          
ASP          
Yes/Yes          


05R/23L          
2496          
60          
ASP          
Yes/Yes          


14R/32L          
2560          
61          
ASP          
Yes/Yes          


14L/32R          
2738          
61          
ASP          
Yes/Yes          













Airport map






Aerial View