KRUT








Rutland-Southern Vermont Regional Airport





Airport

ICAO code


  KRUT






Summary

ICAO Region

NAM



ICAO Territory





United States






 








Location

Rutland. Vermont,




Coordinates



    43°
    31'
          40"
        N
  
      ,
    
    72°
    56'
          43"
        W
  




KCC

Dfb



Airport WX

Cumulonimbus




Metar
KRUT 071410Z AUTO 12015G19KT 10SM FEW025 SCT050 18/14 A2986 RMK AO2 $








Description
Rutland–Southern Vermont Regional Airport is a public use airport located 9 km south of the central business district of Rutland, a city in Rutland County, Vermont.
Climatology
Humid Continental climate (Köppen climate classification Dfb) - Variable weather patterns and a large seasonal temperature variance. Summers are often warm and humid with frequent thunderstorms and winters can be very cold with frequent snowfall and persistent snow cover.






Runways






Designator
Length
Width
Surface
Rops




13/31          
966          
23          
ASP          
Yes/Yes          


1/19          
1524          
30          
ASP          
Yes/Yes          













Airport map






Aerial View