PAHX








Shageluk Airport





Airport

ICAO code


  PAHX





IATA Code

SHX




Summary

ICAO Region

NAM



ICAO Territory





Alaska






 








Location

, Alaska




Serving

Shageluk



Elevation

79 ft



Coordinates



    62°
    41'
          32"
        N
  
      ,
    
    159°
    34'
          9"
        W
  





Metar
PAHX 071102Z AUTO 00000KT 10SM CLR 07/06 A2990 RMK AO2 SLP124 T00670061









Runways






Designator
Length
Width
Surface
Rops




16/34          
1036          
15          
GRVL-F          
No/No          


18W/36W          
1524          
305          
WATER          
No/No          













Airport map






Aerial View