LBPD








Plovdiv Airport





Airport

ICAO code


  LBPD





IATA Code

PDV




Summary

ICAO Region

EUR



ICAO Territory





Bulgaria






 








Location

Krumovo, Thrace




Serving

Plovdiv



Elevation

597 ft



Coordinates



    42°
    4'
          9"
        N
  
      ,
    
    24°
    51'
          2"
        E
  




KCC

Cfa




Metar
LBPD 071230Z AUTO 05008KT 010V090 9999 FEW061/// 30/14 Q1017 NOSIG








International airport serving Plovdiv, Bulgaria.
Climatology
Humid “subtropical” climate (Köppen climate classification Cfa)






Runways






Designator
Length
Width
Surface
Rops




12/30          
2500          
45          
CON          
Yes/Yes          













Airport map






Aerial View