VTST








Trang Airport





Airport

ICAO code


  VTST






Summary

ICAO Region

APAC



ICAO Territory





Thailand






 








Location

Trang Airport,




Coordinates



    7°
    30'
          47"
        N
  
      ,
    
    99°
    37'
          46"
        E
  




KCC

Am



Airport WX

Cumulonimbus




Metar
VTST 071200Z 21003KT 9999 FEW030 27/25 Q1009 NOSIG








Description
International airport serving Trang, Thailand.
Climatology
Tropical Monsoon climate (Köppen climate classification Am) - monthly mean temperatures above 18°C in every month of the year and features wet and dry seasons. A tropical monsoon climate typically features less pronounced dry seasons than a tropical savanna climate and see less variance in temperatures during the course of the year. The driest month nearly always occurs at or soon after the "winter" solstice.














Airport map






Aerial View