KRDM








Redmond Municipal Airport





Airport

ICAO code


  KRDM






Summary

ICAO Region

NAM



ICAO Territory





United States






 








Location

Redmond, Oregon,




Coordinates



    44°
    15'
          14"
        N
  
      ,
    
    121°
    9'
          3"
        W
  




KCC

BWk



Airport CFIT

Altimeter Temperature Error Correction



Airport WX

Mountain Waves




Metar
KRDM 071356Z AUTO 18004KT 6SM HZ CLR 17/05 A3003 RMK AO2 SLP137 T01720050 $








Description
Redmond Municipal Airport, also known as Roberts Field, is a public use airport located 2 km southeast of the central business district of Redmond, a city in Deschutes County, Oregon.
Climatology
Arid desert climate (Köppen climate classification Bwk) with hot, very dry summers and chilly winters with very little snow.






Runways






Designator
Length
Width
Surface
Rops




10/28          
2133          
30          
ASP          
Yes/Yes          


4/22          
2146          
46          
ASP          
Yes/Yes          













Airport map






Aerial View