LSZR








St Gallen Altenrhein Airport





Airport

ICAO code


  LSZR





IATA Code

ACH




Summary

ICAO Region

EUR



ICAO Territory





Switzerland






 








Location

Altenrhein, Sankt Gallen




Serving

Rorschach



Elevation

1306 ft



Coordinates



    47°
    29'
          6"
        N
  
      ,
    
    9°
    33'
          39"
        E
  




KCC

Cfa




Metar
LSZR 071420Z 28004KT CAVOK 26/18 Q1011 RMK J








A small airport in Altenrhein in the Canton of St. Gallen, Switzerland near Lake Constance.
Climatology
Humid “subtropical” climate (Köppen climate classification Cfa)






Runways






Designator
Length
Width
Surface
Rops




10/28          
0          
0          
UNK          
Yes/Yes          


10L/28R          
600          
23          
GRS          
No/No          


10R/28L          
1500          
30          
ASPHALT          
No/No          













Airport map






Aerial View








Airport accidents



F2TH / GLID, vicinity St Gallen-Altenrhein Switzerland, 2017
E55P, St Gallen-Altenrhein Switzerland, 2012