OIBP








Persian Gulf International Airport





Airport

ICAO code


  OIBP





IATA Code

PGU




Summary

ICAO Region

MID



ICAO Territory





Iran






 








Location

Khyaroo, Bushehr




Serving

Assaluyeh



Elevation

27 ft



Coordinates



    27°
    23'
          13"
        N
  
      ,
    
    52°
    44'
          2"
        E
  




KCC

BWh




Metar
OIBP 071400Z 24008KT 5000 HZ NSC 36/28 Q1001 A2956








Airport serving Assalouyeh (Asaluyeh) in southern Iran.
Climatology
Hot Desert climate (Köppen climate classification BWh).






Runways






Designator
Length
Width
Surface
Rops




13/31          
3997          
45          
ASP          
No/No          













Airport map






Aerial View