KOAJ








Albert J. Ellis Airport





Airport

ICAO code


  KOAJ





IATA Code

OAJ




Summary

ICAO Region

NAM



ICAO Territory





United States






 








Location

Richlands, North Carolina




Serving

Jacksonville



Elevation

94 ft



Coordinates



    34°
    49'
          59"
        N
  
      ,
    
    77°
    36'
          11"
        W
  




KCC

Cfa




Metar
KOAJ 071356Z 05008KT 10SM -RA BKN006 OVC038 22/21 A2986 RMK AO2 RAE11B45 SLP112 P0001 T02170211








Description
Albert J. Ellis Airport is a public use airport located in Richlands, Onslow County, North Carolina, 10 nm northwest of the central business district of Jacksonville.






Runways






Designator
Length
Width
Surface
Rops




5/23          
2164          
46          
ASP          
Yes/Yes          













Airport map






Aerial View