GMTN








Sania Ramel Airport





Airport

ICAO code


  GMTN





IATA Code

TTU




Summary

ICAO Region

AFI



ICAO Territory





Morocco






 








Location

Souani, Tanger-Tetouan-Al Hoceima region




Serving

Tetouan



Elevation

10 ft



Coordinates



    35°
    35'
          40"
        N
  
      ,
    
    5°
    19'
          12"
        W
  




KCC

Csa




Metar
GMTN 071300Z 08008KT 040V120 9999 FEW030CB BKN130 26/18 Q1009 NOSIG








Sania Ramel Airport is an airport serving Tétouan, a city in the Tanger-Tetouan-Al Hoceima region in Morocco. It is also the closest airport to the Spanish city of Ceuta (which only has a heliport).
Climatology
Warm mediterranean climate (Köppen climate classification Csa)






Runways






Designator
Length
Width
Surface
Rops




6/24          
2300          
45          
CON          
No/No          













Airport map






Aerial View