VDPP








Phnom Penh International Airport





Airport

ICAO code


  VDPP





IATA Code

PNH




Summary

ICAO Region

APAC



ICAO Territory





Cambodia






 








Location

Phnom Penh, Phnom Penh




Serving

Phnom Penh



Elevation

40 ft



Coordinates



    11°
    32'
          46"
        N
  
      ,
    
    104°
    50'
          52"
        E
  




KCC

Aw




Metar
VDPP 071430Z 22014KT 9999 SCT015 SCT040 30/26 Q1008








International airport serving Phnom Penh, Cambodia. It is located 7 km west of Phnom Penh, the nation's capital.
Climatology
Tropical Savanna climate (Köppen climate classification Aw)














Airport map






Aerial View