OICK








Khorramabad Airport





Airport

ICAO code


  OICK





IATA Code

KHD




Summary

ICAO Region

MID



ICAO Territory





Iran






 








Location

Khorramabad, Lorstan Province




Serving

Khorramabad



Elevation

3782 ft



Coordinates



    33°
    26'
          18"
        N
  
      ,
    
    48°
    17'
          9"
        E
  




KCC

BSh




Metar
OICK 071400Z 30008KT CAVOK 35/M01 Q1011 A2987








Airport serving the city of Khorramabad, Iran.
Climatology
Semi-arid climate (Köppen climate classification BSh).






Runways






Designator
Length
Width
Surface
Rops




11/29          
3200          
45          
ASP          
No/No          













Airport map






Aerial View