RJCW








Wakkanai Airport





Airport

ICAO code


  RJCW





IATA Code

WKJ




Summary

ICAO Region

APAC



ICAO Territory





Japan






 








Location

Wakkanai, Hokkaidō




Serving

Wakkanai



Elevation

27 ft



Coordinates



    45°
    23'
          58"
        N
  
      ,
    
    141°
    47'
          51"
        E
  




KCC

Dfb




Metar
RJCW 070100Z 24017KT 9999 FEW035 24/14 Q1009








Wakkanai Airport is an airport located 10 km east southeast of Wakkanai, Hokkaidō, Japan.
Climatology
Humid continental climate (Köppen climate classification Dfb)






Runways






Designator
Length
Width
Surface
Rops




8/26          
1999          
46          
ASP          
Yes/Yes          













Airport map






Aerial View