MUSC








Abel Santa Maria Airport





Airport

ICAO code


  MUSC





IATA Code

SNU




Summary

ICAO Region

CARSAM



ICAO Territory





Cuba






 








Location

Santa Clara, Villa Clara




Serving

Santa Clara



Elevation

338 ft



Coordinates



    22°
    29'
          26"
        N
  
      ,
    
    79°
    56'
          40"
        W
  




KCC

Aw



Airport BS

Bird Strike




Metar
MUSC 071250Z 12007KT 9000 FEW015 27/25 Q1012








International airport serving Santa Clara, Cuba.
Climatology
Tropical Savanna climate (Köppen climate classification Aw)






Runways






Designator
Length
Width
Surface
Rops




8/26          
3017          
45          
ASP          
Yes/Yes          













Airport map






Aerial View