UARR








Oral Ak Zhol Airport





Airport

ICAO code


  UARR





IATA Code

URA




Summary

ICAO Region

APAC



ICAO Territory





Kazakhstan






 








Location

Uralsk, West Kazakhstan,




Serving

Uralsk



Elevation

125 ft



Coordinates



    51°
    9'
          3"
        N
  
      ,
    
    51°
    32'
          35"
        E
  





Metar
UARR 071400Z 04002MPS 360V090 CAVOK 23/07 Q1026 NOSIG RMK QFE766/1021








Description
Oral Ak Zhol Airport (formerly known as Uralsk Ak Zhol and Podstepnyy during the Soviet era) is an airport in Kazakhstan located 12 km southeast of Oral (Uralsk). It is a small airport servicing medium-sized airliners.






Runways






Designator
Length
Width
Surface
Rops




4/22          
2400          
42          
CON          
Yes/Yes          













Airport map






Aerial View