KPUW








Pullman-Moscow Regional Airport





Airport

ICAO code


  KPUW






Summary

ICAO Region

NAM



ICAO Territory





United States






 








Location

Pullman, Washington,




Coordinates



    46°
    44'
          37"
        N
  
      ,
    
    117°
    6'
          34"
        W
  




KCC

BSk



Airport CFIT

Altimeter Temperature Error Correction



Airport WX

Mountain Waves




Metar
KPUW 071353Z AUTO 06005KT 6SM HZ CLR 18/06 A3005 RMK AO2 SLP156 T01830056








Description
Pullman-Moscow Regional Airport is a public airport located in Whitman County 3 km east of Pullman, Washington and 6 km west of Moscow, Idaho.
Climatology
Semi-arid climate (Köppen climate classification BSk) - Little precipitation, hot summers and cold winters, sometimes with large changes in temperature in a 24 hour period.






Runways






Designator
Length
Width
Surface
Rops




5/23          
2051          
30          
ASP          
Yes/Yes          













Airport map






Aerial View