SECU








Mariscal Lamar Airport





Airport

ICAO code


  SECU





IATA Code

CUE




Summary

ICAO Region

CARSAM



ICAO Territory





Ecuador






 








Location

, Azuay




Serving

Cuenca



Elevation

8306 ft



Coordinates



    2°
    53'
          22"
        S
  
      ,
    
    78°
    59'
          4"
        W
  





Metar
SECU 071300Z 08002KT 4000 BCFG FEW030 11/07 Q1028









Runways






Designator
Length
Width
Surface
Rops




5/23          
1900          
36          
ASP          
No/No          













Airport map






Aerial View