RJOH








Miho-Yonago Airport





Airport

ICAO code


  RJOH





IATA Code

YGJ




Summary

ICAO Region

APAC



ICAO Territory





Japan






 








Location

Yonago, Tottori Prefecture




Serving

Yonago



Elevation

13 ft



Coordinates



    35°
    30'
          2"
        N
  
      ,
    
    133°
    14'
          42"
        E
  




KCC

Cfa




Metar
RJOH 071300Z 18004KT 9999 FEW010 26/26 Q1014








Miho Airbase, also known as Yonago Airport is a Japan Air Defense Force (JASDF) base located 11km northwest of Yonago in Tottori Prefecture. It is owned and operated by JASDF and shares the runway with civil activities.
Climatology
Humid Sub-tropical climate (Köppen climate classification Cfa)






Runways






Designator
Length
Width
Surface
Rops




7/25          
1999          
45          
ASP          
Yes/Yes          













Airport map






Aerial View