KEND








Vance Air Force Base





Airport

ICAO code


  KEND






Summary

ICAO Region

NAM



ICAO Territory





United States






 








Location

Enid, Oklahoma,




Elevation

1307 ft



Coordinates



    36°
    20'
          23"
        N
  
      ,
    
    97°
    54'
          58"
        W
  




KCC

Cfa



Airport LOS

Parallel Runway Operation




Metar
KEND 071355Z AUTO 08010KT 10SM CLR 19/09 A3022 RMK AO2 SLP225 T01910093 $








Description
Vance Air Force Base is a United States Air Force installation located 6 km south of the central business district of Enid, Oklahoma.
Climatology
Humid “subtropical” climate (Köppen climate classification Cfa) - characterized by hot, humid summers and cool winters. Significant amounts of precipitation occur in all seasons in most areas. Winter rainfall (and sometimes snowfall) is associated with large storms that the westerlies steer from west to east. Most summer rainfall occurs during thunderstorms and occasional tropical storms (hurricanes).














Airport map






Aerial View