PFKT








Brevig Mission Airport





Airport

ICAO code


  PFKT





IATA Code

KTS




Summary

ICAO Region

NAM



ICAO Territory





Alaska






 








Location

, Alaska




Serving

Brevig Mission



Elevation

38 ft



Coordinates



    65°
    19'
          53"
        N
  
      ,
    
    166°
    27'
          57"
        W
  





Metar
PFKT 071256Z AUTO 09009KT 10SM SCT031 03/02 A2985 RMK AO2 SLP106 T00330017









Runways






Designator
Length
Width
Surface
Rops




4/22          
643          
23          
GRVL-G          
No/No          


11/29          
911          
30          
GRVL-E          
No/No          













Airport map






Aerial View