LRCV








Craiova Airport





Airport

ICAO code


  LRCV





IATA Code

CRA




Summary

ICAO Region

EUR



ICAO Territory





Romania






 








Location

, Dolj




Serving

Craiova



Elevation

626 ft



Coordinates



    44°
    19'
          5"
        N
  
      ,
    
    23°
    53'
          19"
        E
  





Metar
LRCV 071200Z 09009KT CAVOK 29/07 Q1019









Runways






Designator
Length
Width
Surface
Rops




9/27          
2500          
45          
CON          
No/No          













Airport map






Aerial View