MMAA








General Juan N Alvarez International Airport





Airport

ICAO code


  MMAA





IATA Code

ACA




Summary

ICAO Region

CARSAM



ICAO Territory





Mexico






 








Location

Acapulco, Guerrero




Serving

Acapulco



Elevation

16 ft



Coordinates



    16°
    45'
          25"
        N
  
      ,
    
    99°
    45'
          14"
        W
  




KCC

Aw



Airport WX

Cumulonimbus




Metar
MMAA 071244Z 00000KT 6SM FEW020 SCT100 BKN300 26/25 A2971 RMK 8/162 HZY TCU E SE








International airport serving Acapulco, Mexico.
Climatology
Tropical Savanna climate (Köppen climate classification Aw)






Runways






Designator
Length
Width
Surface
Rops




6/24          
1700          
35          
CON          
Yes/Yes          


10/28          
3302          
45          
CON          
Yes/Yes          













Airport map






Aerial View