MYSM








San Salvador





Airport

ICAO code


  MYSM






Summary

ICAO Region

CARSAM



ICAO Territory





Bahamas






 








Location

Cockburn Town, San Salvador Island,




Coordinates



    24°
    3'
          48"
        N
  
      ,
    
    74°
    31'
          26"
        W
  




KCC

Am



Airport WX

Tropical Revolving Storm




Metar
MYSM 071200Z AUTO 16008KT 130V200 9999 -SHRA SCT022/// BKN060/// 28/25 A2992








Description
San Salvador Airport, also known as Cockburn Town Airport, is an airport in San Salvador, Bahamas.
Climatology
Tropical Monsoon climate (Köppen climate classification Am) - monthly mean temperatures above 18°C in every month of the year and features wet and dry seasons. A tropical monsoon climate typically features less pronounced dry seasons than a tropical savanna climate and see less variance in temperatures during the course of the year. The driest month nearly always occurs at or soon after the "winter" solstice.






Runways






Designator
Length
Width
Surface
Rops




10/28          
2438          
46          
ASP          
No/No          













Airport map






Aerial View