LGPA








New Paros Airport





Airport

ICAO code


  LGPA





IATA Code

PAS




Summary

ICAO Region

EUR



ICAO Territory





Greece






 








Location

Parikia, Paros




Serving

Paros



Elevation

125 ft



Coordinates



    37°
    1'
          15"
        N
  
      ,
    
    25°
    6'
          47"
        E
  




KCC

Csa




Metar
LGPA 071350Z 33009KT CAVOK 30/18 Q1013








Paros National Airport is the airport serving the island of Paros, Greece, in the Cyclades islands region. The airport is located in the southwestern part of the island, about 6 nm from the port of Parikia. It replaced the Old Paros National Airport on 25 July 2016.
Climatology
Warm mediterranean climate (Köppen climate classification Csa)














Airport map






Aerial View