OIZB








Zabol Airport





Airport

ICAO code


  OIZB





IATA Code

ACZ




Summary

ICAO Region

MID



ICAO Territory





Iran






 








Location

Zabol, Sistan and Baluchistan Province




Serving

Zabol



Elevation

1628 ft



Coordinates



    31°
    5'
          16"
        N
  
      ,
    
    61°
    32'
          34"
        E
  




KCC

BWh




Metar
OIZB 071400Z 35023KT 5000 SA NSC 35/01 Q1006








Airport 9km northeast of the Iranian city of Zabol, close to the Afghan border.
Climatology
Hot Desert climate (Köppen climate classification BWh).






Runways






Designator
Length
Width
Surface
Rops




16/34          
3002          
45          
ASP          
No/No          













Airport map






Aerial View