ZLXY








Xi'an Xianyang International





Airport

ICAO code


  ZLXY






Summary

ICAO Region

APAC



ICAO Territory





China






 








Location

Xi&#039;an, Shaanxi,




Coordinates



    34°
    26'
          49"
        N
  
      ,
    
    108°
    45'
          5"
        E
  





Metar
ZLXY 071300Z 07005MPS CAVOK 29/21 Q1010 NOSIG








Xi'an Xianyang International Airport (IATA: XIY) serves Xi'an, Shaanxi, People's Republic of China.














Airport map






Aerial View