VAKP








Kolhapur Airport





Airport

ICAO code


  VAKP





IATA Code

KLH




Summary

ICAO Region

APAC



ICAO Territory





India






 








Location

, Maharashtra




Serving

Kolhapur



Elevation

1996 ft



Coordinates



    16°
    39'
          53"
        N
  
      ,
    
    74°
    17'
          22"
        E
  





Metar
VAKP 071000Z 19010KT 7000 FEW012 SCT020 FEW030CB 26/22 Q1010









Runways






Designator
Length
Width
Surface
Rops




7/25          
1370          
46          
ASP          
No/No          













Airport map






Aerial View