SBRF








Recife/Guararapes–Gilberto Freyre International Airport





Airport

ICAO code


  SBRF





IATA Code

REC




Summary

ICAO Region

CARSAM



ICAO Territory





Brazil






 








Location

Recife, Pernambuco




Serving

Recife



Elevation

33 ft



Coordinates



    8°
    7'
          35"
        S
  
      ,
    
    34°
    55'
          22"
        W
  




KCC

Cfc




Metar
SBRF 071100Z 14013KT 9999 SCT021 BKN070 28/22 Q1027








Recife International Airport (IATA: REC, ICAO: SBRF) is the airport of Recife, Pernambuco.
Climatology
Tropical monsoon climate (Köppen climate classification Cfc)






Runways






Designator
Length
Width
Surface
Rops




18/36          
3007          
45          
ASP          
Yes/Yes          













Airport map






Aerial View