LFRC








Cherbourg-Maupertus Airport





Airport

ICAO code


  LFRC





IATA Code

CER




Summary

ICAO Region

EUR



ICAO Territory





France






 








Location

, Basse-Normandie




Serving

Cherbourg



Elevation

459 ft



Coordinates



    49°
    39'
          0"
        N
  
      ,
    
    1°
    28'
          13"
        W
  





Metar
LFRC 071400Z AUTO 11005KT CAVOK 18/17 Q1008 TEMPO 2000 TSRA BKN004 BKN020CB









Runways






Designator
Length
Width
Surface
Rops




10/28          
2440          
45          
ASP          
No/No          













Airport map






Aerial View