DAAD








Bou Saada Airport





Airport

ICAO code


  DAAD






Summary

ICAO Region

AFI



ICAO Territory





Algeria






 








Location

, M&#039;sila




Serving

Bou Saada



Elevation

1506 ft



Coordinates



    35°
    19'
          57"
        N
  
      ,
    
    4°
    12'
          23"
        E
  





Metar
DAAD 071200Z 35005KT 6000 FEW030 35/16 Q1017









Runways






Designator
Length
Width
Surface
Rops




4/22          
2200          
30          
ASP          
No/No          













Airport map






Aerial View