SAAR








Rosario International Airport





Airport

ICAO code


  SAAR





IATA Code

ROS




Summary

ICAO Region

CARSAM



ICAO Territory





Argentina






 








Location

Rosario, Santa Fe




Serving

Rosario



Elevation

85 ft



Coordinates



    32°
    54'
          13"
        S
  
      ,
    
    60°
    47'
          6"
        W
  




KCC

Cfa




Metar
SAAR 071300Z 10008KT CAVOK 20/10 Q1014








Airport 13km west-northwest from the centre of Rosario, a city in Santa Fe province, Argentina.
Climatology
Warm oceanic climate (Köppen climate classification Cfa).






Runways






Designator
Length
Width
Surface
Rops




2/20          
3000          
45          
CON          
Yes/Yes          













Airport map






Aerial View