LSZA








Lugano Airport





Airport

ICAO code


  LSZA





IATA Code

LUG




Summary

ICAO Region

EUR



ICAO Territory





Switzerland






 








Location

Agno, Ticino




Serving

Lugano



Elevation

915 ft



Coordinates



    46°
    0'
          15"
        N
  
      ,
    
    8°
    54'
          38"
        E
  




KCC

Cfa



Airport CFIT

Altimeter Temperature Error Correction




Metar
LSZA 071420Z 19005KT 9999 FEW040 SCT075 25/18 Q1017








Lugano Airport is a regional airport located 4 km west of the Swiss city of Lugano, in the municipalities of Agno, Bioggio and Muzzano. It lies closer to the village of Agno than to Lugano itself, and is sometimes known as Lugano-Agno.
Climatology
Humid “subtropical” climate (Köppen climate classification Cfa)






Runways






Designator
Length
Width
Surface
Rops




1/19          
1350          
30          
ASP          
Yes/Yes          













Airport map






Aerial View








Airport accidents



SB20 / C510, vicinity Lugano Switzerland, 2011