ROKJ








Kumejima Airport





Airport

ICAO code


  ROKJ





IATA Code

UEO




Summary

ICAO Region

APAC



ICAO Territory





Japan






 








Location

Kumejima, Okinawa Prefecture




Serving

Kumejima



Elevation

23 ft



Coordinates



    26°
    21'
          54"
        N
  
      ,
    
    126°
    43'
          3"
        E
  




KCC

Cfa




Metar
ROKJ 070805Z AUTO 20009KT 170V240 9999 -RA FEW020 BKN023 OVC036 28/24 Q1010 RMK A2985








Airport in Kumejima, a city and island in the Okinawa Prefecture of Japan.
Climatology
Humid Sub-tropical climate (Köppen climate classification Cfa)






Runways






Designator
Length
Width
Surface
Rops




3/21          
2000          
45          
ASP          
Yes/Yes          













Airport map






Aerial View