DNAA








Nnamdi Azikiwe International Airport





Airport

ICAO code


  DNAA





IATA Code

ABV




Summary

ICAO Region

AFI



ICAO Territory





Nigeria






 








Location

Gwaska, Federal Capital Territory




Serving

Abuja



Elevation

1123 ft



Coordinates



    9°
    0'
          24"
        N
  
      ,
    
    7°
    15'
          48"
        E
  




KCC

Aw




Metar
DNAA 071200Z 28004KT 9999 BKN010 27/23 Q1015








Nnamdi Azikiwe International Airport is located in Abuja, Federal Capital Territory, Nigeria, and is the main airport serving the Nigerian capital city.
Climatology
Tropical Savanna climate (Köppen climate classification Aw)






Runways






Designator
Length
Width
Surface
Rops




4/22          
3609          
60          
ASP          
Yes/Yes          













Airport map






Aerial View








Airport accidents



GLF4, Abuja Nigeria, 2018
B732, vicinity Abuja Nigeria, 2006