KMWA








Williamson County Regional Airport





Airport

ICAO code


  KMWA






Summary

ICAO Region

NAM



ICAO Territory





United States






 








Location

Marion, Illinois,




Coordinates



    37°
    45'
          26"
        N
  
      ,
    
    89°
    0'
          48"
        W
  




KCC

Dfa




Metar
KMWA 071347Z 01008KT 20SM CLR 17/09 A3020








Description
Williamson County Regional Airport is a public use airport located 7 km west of the central business district of Marion, in Williamson County, Illinois.
Climatology
Humid continental climate (Köppen climate classification Dfa) - characterized by four seasons: cold, windy, snowy winters, mild springs, hot, humid summers, and crisp and relatively short autumns. Precipitation reaches its lowest in January and February and peaks in summer and latter half of spring.






Runways






Designator
Length
Width
Surface
Rops




11/29          
1524          
30          
ASP          
Yes/Yes          


2/20          
2442          
46          
ASP          
Yes/Yes          













Airport map






Aerial View