SBCA








Cascavel Airport





Airport

ICAO code


  SBCA





IATA Code

CAC




Summary

ICAO Region

CARSAM



ICAO Territory





Brazil






 








Location

Cascavel, Parana




Serving

Cascavel



Elevation

2473 ft



Coordinates



    25°
    0'
          8"
        S
  
      ,
    
    53°
    30'
          7"
        W
  




KCC

Cfa




Metar
SBCA 071200Z 04014KT 7000 NSC 24/13 Q1018








Adalberto Mendes da Silva Airport is the airport serving Cascavel, Brazil.
Climatology
Humid subtropical climate (Köppen climate classification Cfa)






Runways






Designator
Length
Width
Surface
Rops




15/33          
1615          
30          
ASP          
No/No          













Airport map






Aerial View