ETNG








Geilenkirchen NATO Air Base





Airport

ICAO code


  ETNG






Summary

ICAO Region

EUR



ICAO Territory





Germany






 








Location

Geilenkirchen, North Rhine-Westphalia,




Coordinates



    50°
    57'
          38"
        N
  
      ,
    
    6°
    2'
          33"
        E
  





Metar
ETNG 071350Z AUTO 09008KT 060V120 9999 // SCT300/// SCT380/// 27/19 Q1010








Description
NATO Air Base Geilenkirchen is located near Geilenkirchen, North Rhine-Westphalia, Germany.






Runways






Designator
Length
Width
Surface
Rops




9/27          
3051          
45          
CON          
Yes/Yes          













Airport map






Aerial View