MPDA








Enrique Malek International Airport





Airport

ICAO code


  MPDA





IATA Code

DAV




Summary

ICAO Region

CARSAM



ICAO Territory





Panama






 








Location

David, Chiriqui Province




Serving

David



Elevation

89 ft



Coordinates



    8°
    23'
          28"
        N
  
      ,
    
    82°
    25'
          55"
        W
  




KCC

Am




Metar
MPDA 071300Z 34003KT 9999 SCT006 FEW018CB SCT080 25/24 Q1008








International airport located in the city of David, Chiriquí in the Republic of Panama.
Climatology
Tropical monsoon climate (Köppen climate classification Am)






Runways






Designator
Length
Width
Surface
Rops




4/22          
2100          
45          
ASP          
No/No          













Airport map






Aerial View