LTFC








Süleyman Demirel International Airport





Airport

ICAO code


  LTFC





IATA Code

ISE




Summary

ICAO Region

EUR



ICAO Territory





Turkey






 








Location

, Isparta




Serving

Isparta



Elevation

2835 ft



Coordinates



    37°
    51'
          19"
        N
  
      ,
    
    30°
    22'
          6"
        E
  





Metar
LTFC 071220Z 33011KT 260V350 9999 FEW035 30/05 Q1015









Runways






Designator
Length
Width
Surface
Rops




5/23          
3000          
45          
CON          
No/No          













Airport map






Aerial View