PHOG








Kahului Airport





Airport

ICAO code


  PHOG





IATA Code

OGG




Summary

ICAO Region

NAM



ICAO Territory





Hawaii






 








Location

Kahului, Hawaii




Serving

Kahului



Elevation

54 ft



Coordinates



    20°
    53'
          47"
        N
  
      ,
    
    156°
    26'
          3"
        W
  




KCC

As



Airport BS

Bird Strike




Metar
PHOG 071154Z AUTO 03012KT 10SM CLR 24/21 A2999 RMK AO2 SLP161 T02390206 10250 20233 58014 TSNO








Description
Kahului Airport is a regional airport in the state of Hawaii, located east of the Kahului CDP in Maui County on the island of Maui near Haleakala.
Climatology
Tropical Savanna climate (Köppen climate classification As) - monthly mean temperature above 18°C in every month of the year and a pronounced dry season.






Runways






Designator
Length
Width
Surface
Rops




5/23          
1521          
46          
ASP          
Yes/Yes          


2/20          
2132          
46          
ASP          
Yes/Yes          













Airport map






Aerial View








Airport accidents



B772, vicinity Kahului Hawaii USA, 2022