LYBE








Belgrade/Nikola Tesla Airport





Airport

ICAO code


  LYBE





IATA Code

BEG




Summary

ICAO Region

EUR



ICAO Territory





Serbia






 








Location

Surčin, Belgrade




Serving

Belgrade



Elevation

336 ft



Coordinates



    44°
    49'
          6"
        N
  
      ,
    
    20°
    18'
          33"
        E
  




KCC

Dfa




Metar
LYBE 071430Z 10011KT CAVOK 30/14 Q1016 NOSIG








Description
International airport serving capital of Serbia. The airport is situated 12 km west of central Belgrade, in the municipality of Surčin.
Climatology
Humid continental climate (Köppen climate classification Dfa) - characterized by four seasons: cold, windy, snowy winters, mild springs, hot, humid summers, and crisp and relatively short autumns. Precipitation reaches its lowest in January and February and peaks in summer and latter half of spring.






Runways






Designator
Length
Width
Surface
Rops




12/30          
3400          
45          
ASP          
Yes/Yes          













Airport map






Aerial View