LIPZ








Venezia / Tessera -  Marco Polo Airport





Airport

ICAO code


  LIPZ





IATA Code

VCE




Summary

ICAO Region

EUR



ICAO Territory





Italy






 








Location

Tessera, Veneto




Serving

Venice



Elevation

7 ft



Coordinates



    45°
    30'
          19"
        N
  
      ,
    
    12°
    21'
          7"
        E
  





Metar
LIPZ 071120Z 15004KT 120V180 9999 FEW030 27/20 Q1016 NOSIG








Venice Marco Polo Airport is the international airport of Venice, Italy. It is located on the mainland 4.3 nautical miles north of the city in Tessera.






Runways






Designator
Length
Width
Surface
Rops




04L/22R          
2780          
45          
ASP          
Yes/Yes          


04R/22L          
3300          
45          
ASP          
Yes/Yes          













Airport map






Aerial View








Airport accidents



B738 / A321, Venice Italy, 2022