PAEG








Eagle Airport





Airport

ICAO code


  PAEG





IATA Code

EAA




Summary

ICAO Region

NAM



ICAO Territory





Alaska






 








Location

, Alaska




Serving

Eagle



Elevation

908 ft



Coordinates



    64°
    46'
          41"
        N
  
      ,
    
    141°
    8'
          59"
        W
  





Metar
PAEG 071253Z AUTO 00000KT 10SM OVC080 06/03 A2970 RMK AO2 SLP059 T00610033 TSNO $









Runways






Designator
Length
Width
Surface
Rops




6/24          
1097          
23          
GRVL-F          
No/No          













Airport map






Aerial View