CYXU








London Airport





Airport

ICAO code


  CYXU





IATA Code

YXU




Summary

ICAO Region

NAM



ICAO Territory





Canada






 








Location

London, Ontario




Serving

London



Elevation

912 ft



Coordinates



    43°
    1'
          59"
        N
  
      ,
    
    81°
    9'
          4"
        W
  





Metar
CYXU 071500Z 30008KT 15SM SCT018 BKN060 BKN130 BKN210 13/10 A2997 RMK SC3SC2AC2CI1 CI TR SLP152









Runways






Designator
Length
Width
Surface
Rops




9/27          
1920          
61          
ASP          
Yes/Yes          


15/33          
2682          
61          
ASP          
Yes/Yes          













Airport map






Aerial View