LFBU








Angoulême-Brie-Champniers Airport





Airport

ICAO code


  LFBU





IATA Code

ANG




Summary

ICAO Region

EUR



ICAO Territory





France






 








Location

, Poitou-Charentes




Serving

Angouleme



Elevation

436 ft



Coordinates



    45°
    43'
          45"
        N
  
      ,
    
    0°
    13'
          17"
        E
  





Metar
LFBU 071400Z AUTO 22011KT 190V250 9999 SCT027 BKN036 BKN074 22/15 Q1009 TEMPO 1500 -TSRA BKN025CB









Runways






Designator
Length
Width
Surface
Rops




10/28          
1810          
45          
ASP          
No/No          













Airport map






Aerial View