LICZ








Naval Air Station Sigonella





Airport

ICAO code


  LICZ





IATA Code

NSY




Summary

ICAO Region

EUR



ICAO Territory





Italy






 








Location

Sigonella, Sicily




Serving

Sigonella



Elevation

79 ft



Coordinates



    37°
    24'
          13"
        N
  
      ,
    
    14°
    55'
          20"
        E
  




KCC

Csa




Metar
LICZ 071355Z 08013KT 9999 FEW030 SCT080 32/23 Q1014








Naval Air Station Sigonella is an Italian Air Force base, and a U.S. Navy installation in Sicily, Italy.
Climatology
Warm mediterranean climate (Köppen climate classification Csa)






Runways






Designator
Length
Width
Surface
Rops




10L/28R          
2442          
30          
ASP          
Yes/Yes          


10R/28L          
2462          
45          
ASP          
Yes/Yes          













Airport map






Aerial View