OIMS








Sabzevar Airport





Airport

ICAO code


  OIMS





IATA Code

AFZ




Summary

ICAO Region

MID



ICAO Territory





Iran






 








Location

Sabzevar, Razavi Khorasan Province




Serving

Sabzevar



Elevation

3010 ft



Coordinates



    36°
    10'
          16"
        N
  
      ,
    
    57°
    36'
          12"
        E
  




KCC

BSk




Metar
OIMS 071400Z 09018KT CAVOK 30/05 Q1018








Airport located 7km south west of the city of Sabzevar in Iran.
Climatology
Cold semi-arid climate (Köppen climate classification Bsk).






Runways






Designator
Length
Width
Surface
Rops




9/27          
3178          
45          
ASP          
No/No          













Airport map






Aerial View