SKMU








Fabio Alberto León Bentley Airport





Airport

ICAO code


  SKMU





IATA Code

MVP




Summary

ICAO Region

CARSAM



ICAO Territory





Colombia






 








Location

Mitu, Vaupes Department




Serving

Mitu



Elevation

680 ft



Coordinates



    1°
    15'
          12"
        N
  
      ,
    
    70°
    14'
          2"
        W
  




KCC

Af




Metar
SKMU 071200Z 00000KT 8000 4000SE PRFG SCT003 BKN030 25/24 Q1011








Fabio Alberto León Bentley Airport is an airport serving Mitú in the Vaupés Department of Colombia. It is next to the Vaupés River and runs along the entire length of the city.
Climatology
Tropical rainforest climate (Köppen climate classification Af)






Runways






Designator
Length
Width
Surface
Rops




2/20          
1795          
20          
ASP          
No/No          













Airport map






Aerial View