ETNL








Rostock-Laage Airport





Airport

ICAO code


  ETNL






Summary

ICAO Region

EUR



ICAO Territory





Germany






 








Location

Rostock, Mecklenburg-Vorpommern,




Coordinates



    53°
    55'
          5"
        N
  
      ,
    
    12°
    16'
          42"
        E
  





Metar
ETNL 071420Z 15007KT 9999 BKN220 30/11 Q1013 BLU+








Description
Rostock–Laage Airport is the airport of Rostock, the largest city in the German state Mecklenburg-Vorpommern which is named after Laage, a town in the Rostock district.






Runways






Designator
Length
Width
Surface
Rops




10/28          
2500          
45          
CON          
Yes/Yes          













Airport map






Aerial View