MMMM








General Francisco J. Mujica International Airport





Airport

ICAO code


  MMMM





IATA Code

MLM




Summary

ICAO Region

CARSAM



ICAO Territory





Mexico






 








Location

Alvaro Obregon, Michoacan de Ocampo




Serving

Morelia



Elevation

6033 ft



Coordinates



    19°
    50'
          60"
        N
  
      ,
    
    101°
    1'
          32"
        W
  




KCC

Cwb




Metar
MMMM 071240Z 00000KT 6SM FEW010 SCT020 OVC025 17/15 A3017 RMK 8/5// HZY BINOVC








General Francisco Mujica International Airport, or simply Morelia International Airport, is an international airport in Álvaro Obregón, Michoacán, Mexico, near Morelia.
Climatology
Subtropical Highland climate (Köppen climate classification Cwb)






Runways






Designator
Length
Width
Surface
Rops




5/23          
3400          
45          
ASP          
Yes/Yes          













Airport map






Aerial View