LZPP








Piešťany Airport





Airport

ICAO code


  LZPP





IATA Code

PZY




Summary

ICAO Region

EUR



ICAO Territory





Slovakia






 








Location

Piešťany, Trnava Region




Serving

Piešťany



Elevation

545 ft



Coordinates



    48°
    37'
          30"
        N
  
      ,
    
    17°
    49'
          43"
        E
  




KCC

Dfb




Metar
LZPP 071300Z 13012KT 110V170 CAVOK 30/14 Q1016








Piešťany Airport is an airport serving spa town of Piešťany, Slovakia.
Climatology
Humid continental climate (Köppen climate classification Dfb)






Runways






Designator
Length
Width
Surface
Rops




1/19          
2000          
30          
ASP          
No/No          













Airport map






Aerial View