KCRE








Grand Strand Airport





Airport

ICAO code


  KCRE





IATA Code

CRE




Summary

ICAO Region

NAM



ICAO Territory





United States






 








Location

North Myrtle Beach, South Carolina




Serving

Horry County



Elevation

32 ft



Coordinates



    33°
    48'
          42"
        N
  
      ,
    
    78°
    43'
          26"
        W
  




KCC

Cfa




Metar
KCRE 071353Z 02010KT 10SM BKN120 23/21 A2981 RMK AO1 SLP095 T02280211








Grand Strand Airport is a county-owned, public-use airport located 1nm northwest of the central business district of North Myrtle Beach, in Horry County, South Carolina, United States.
Climatology
Humid “subtropical” climate (Köppen climate classification Cfa) - characterized by hot, humid summers and cool winters. Significant amounts of precipitation occur in all seasons in most areas. Winter rainfall (and sometimes snowfall) is associated with large storms that the westerlies steer from west to east. Most summer rainfall occurs during thunderstorms and occasional tropical storms (hurricanes).














Airport map






Aerial View