KCAK








Akron-Canton Regional Airport





Airport

ICAO code


  KCAK





IATA Code

CAK




Summary

ICAO Region

NAM



ICAO Territory





United States






 








Location

Green, Ohio




Serving

Cleveland



Elevation

1228 ft



Coordinates



    40°
    54'
          54"
        N
  
      ,
    
    81°
    26'
          13"
        W
  




KCC

Dfa



Airport WX

Cumulonimbus




Metar
KCAK 071351Z 33011KT 10SM BKN017 BKN030 13/09 A3002 RMK AO2 SLP162 T01330089 $








Description
Akron-Canton Regional Airport is a public use airport, located 10 nm southeast of Akron, in the city of Green, in southern Summit County, Ohio.














Airport map






Aerial View








Airport accidents



H25B, vicinity Akron OH USA, 2015