LFMN








Nice-Côte d'Azur Airport





Airport

ICAO code


  LFMN





IATA Code

NCE




Summary

ICAO Region

EUR



ICAO Territory





France






 








Location

Nice, Provence-Alpes-Cote d&#039;Azur




Serving

Nice



Elevation

12 ft



Coordinates



    43°
    39'
          35"
        N
  
      ,
    
    7°
    12'
          47"
        E
  




KCC

Csa



Airport LOS

Parallel Runway Operation




Metar
LFMN 071400Z 08021KT 9999 FEW063 28/20 Q1013 NOSIG








Description
Nice Côte d'Azur Airport is an airport located 3.2 nm southwest of Nice, in the Alpes-Maritimes department of France. The airport is positioned 7 km west of the city centre, and is the principal port of arrival for passengers to the Côte d'Azur.
Climatology
Dry-summer subtropical ”Mediterranean" climate (Köppen climate classification Csa) - characterized by hot, dry summers and mild winters. During the summer, subtropical high pressure cells dominate, making rainfall unlikely except for the occasional thunderstorm. In the winter, periodic storms bring rain (snow at higher elevations).






Runways






Designator
Length
Width
Surface
Rops




04L/22R          
2742          
45          
ASP          
Yes/Yes          


04R/22L          
2960          
45          
ASP          
Yes/Yes          













Airport map






Aerial View








Airport accidents



A319, Nice France, 2019
E190, Nice France, 2017
PRM1/CRJ2, Nice France, 2012