ENBO








Bodø Airport





Airport

ICAO code


  ENBO





IATA Code

BOO




Summary

ICAO Region

EUR



ICAO Territory





Norway






 








Location

Bodø, Nordland,




Serving

Bodø



Elevation

42 ft



Coordinates



    67°
    16'
          6"
        N
  
      ,
    
    14°
    21'
          24"
        E
  




KCC

Cfc




Metar
ENBO 071350Z 11008KT 9999 SCT015 BKN019 14/10 Q1019 NOSIG








Description
International airport serving Nordland region of northern Norway.
Climatology
Subpolar Oceanic climate (Köppen climate classification Cfc) - uniform precipitation distribution, temperatures are moderated by the proximity of the ocean and warm currents - cool summers and comparatively mild winters.






Runways






Designator
Length
Width
Surface
Rops




7/25          
3394          
45          
CON          
Yes/Yes          













Airport map






Aerial View








Airport accidents



S61, vicinity Bødo Norway, 2008
D228, vicinity Bodø Norway, 2003