KAOO








Altoona-Blair County Airport





Airport

ICAO code


  KAOO





IATA Code

ADO




Summary

ICAO Region

NAM



ICAO Territory





United States






 








Location

Martinsburg, Pennsylvania




Serving

Altoona



Elevation

1503 ft



Coordinates



    40°
    17'
          46"
        N
  
      ,
    
    78°
    19'
          12"
        W
  




KCC

Dfb



Airport WX

Cumulonimbus




Metar
KAOO 071353Z AUTO 31011KT 10SM FEW028 BKN090 OVC110 16/11 A2994 RMK AO2 SLP133 T01610106








Description
Altoona–Blair County Airport is a public use airport located 14 nm south of the central business district of Altoona, a city in Blair County, Pennsylvania.














Airport map






Aerial View