LFBH








La Rochelle-Île de Ré Airport





Airport

ICAO code


  LFBH





IATA Code

LRH




Summary

ICAO Region

EUR



ICAO Territory





France






 








Location

, Poitou-Charentes




Serving

La Rochelle



Elevation

74 ft



Coordinates



    46°
    10'
          45"
        N
  
      ,
    
    1°
    11'
          43"
        W
  





Metar
LFBH 071400Z AUTO 30008KT 9999 FEW010 BKN082 19/17 Q1009 TEMPO 2500 TSRA BKN012 BKN020CB BECMG 20014KT









Runways






Designator
Length
Width
Surface
Rops




10/28          
2255          
45          
ASP          
No/No          













Airport map






Aerial View