KPSC








Tri-Cities Airport





Airport

ICAO code


  KPSC






Summary

ICAO Region

NAM



ICAO Territory





United States






 








Location

Pasco, Washington,




Coordinates



    46°
    15'
          28"
        N
  
      ,
    
    119°
    7'
          2"
        W
  




KCC

BSk



Airport LOS

Parallel Runway Operation



Airport WX

Mountain Waves




Metar
KPSC 071353Z 00000KT 10SM CLR 14/12 A2993 RMK AO2 SLP131 T01390117








Description
Tri-Cities Airport is a public use airport located 3 km northwest of the central business district of Pasco, in Franklin County, Washington.
Climatology
Semi-arid climate (Köppen climate classification BSk) - Little precipitation, hot summers and cold winters, sometimes with large changes in temperature in a 24 hour period.






Runways






Designator
Length
Width
Surface
Rops




03R/21L          
1348          
23          
ASP          
Yes/Yes          


12/30          
2348          
46          
ASP          
Yes/Yes          


03L/21R          
2350          
46          
ASP          
Yes/Yes          













Airport map






Aerial View