LIBV








Gioia del Colle Air Base





Airport

ICAO code


  LIBV






Summary

ICAO Region

EUR



ICAO Territory





Italy






 








Location

Gioia del Colle, Apulia




Serving

Gioia del Colle



Elevation

1186 ft



Coordinates



    40°
    46'
          5"
        N
  
      ,
    
    16°
    56'
          2"
        E
  




KCC

Csa




Metar
LIBV 071355Z 35009KT 9999 SCT035 31/18 Q1016








Gioia del Colle Air Base is an Italian Air Force base located in the province of Bari, Apulia, Italy, located approximately 1 km south-southeast of Gioia del Colle.
Climatology
Warm mediterranean climate (Köppen climate classification Csa)






Runways






Designator
Length
Width
Surface
Rops




14L/32R          
2996          
30          
ASP          
No/No          


14R/32L          
3001          
45          
ASP          
No/No          













Airport map






Aerial View