KFXE








Fort Lauderdale Executive Airport





Airport

ICAO code


  KFXE





IATA Code

FXE




Summary

ICAO Region

NAM



ICAO Territory





United States






 








Location

Cypress Creek, Florida




Serving

Fort Lauderdale



Elevation

13 ft



Coordinates



    26°
    11'
          50"
        N
  
      ,
    
    80°
    10'
          15"
        W
  




KCC

Am



Airport WX

Tropical Revolving Storm




Metar
KFXE 071353Z VRB05KT 10SM FEW022 27/27 A2988 RMK AO2 SLP120 T02720267








Executive airport 5 nm north of Fort Lauderdale, Florida, USA.














Airport map






Aerial View