SKLT








Alfredo Vásquez Cobo International Airport





Airport

ICAO code


  SKLT





IATA Code

LET




Summary

ICAO Region

CARSAM



ICAO Territory





Colombia






 








Location

Leticia, Amazonas Department




Serving

Leticia



Elevation

277 ft



Coordinates



    4°
    11'
          28"
        S
  
      ,
    
    69°
    56'
          29"
        W
  




KCC

Af




Metar
SKLT 071130Z 36004KT 2000 RA BKN007 22/22 Q1012 RETS








Alfredo Vásquez Cobo International Airport is an airport serving Leticia, the capital of the Amazonas Department of Colombia.
Climatology
Tropical rainforest climate (Köppen climate classification Af)






Runways






Designator
Length
Width
Surface
Rops




3/21          
1880          
40          
ASP          
No/No          













Airport map






Aerial View