SPTN








Coronel FAP Carlos Ciriani Santa Rosa International Airport





Airport

ICAO code


  SPTN





IATA Code

TCQ




Summary

ICAO Region

CARSAM



ICAO Territory





Peru






 








Location

Tcana, Tacna




Serving

Tacna



Elevation

1538 ft



Coordinates



    18°
    3'
          12"
        S
  
      ,
    
    70°
    16'
          33"
        W
  




KCC

BWh




Metar
SPTN 071300Z 25003KT 220V360 8000 SCT015 BKN025 13/09 Q1015 RMK PP000








Airport serving Tacna, Peru.
Climatology
Mild Desert climate (Köppen climate classification BWh).






Runways






Designator
Length
Width
Surface
Rops




2/20          
2500          
45          
ASP          
No/No          













Airport map






Aerial View