RJSC








Yamagata Airport





Airport

ICAO code


  RJSC





IATA Code

GAJ




Summary

ICAO Region

APAC



ICAO Territory





Japan






 








Location

Higashine, Yamagata Prefecture




Serving

Yamagata



Elevation

345 ft



Coordinates



    38°
    24'
          38"
        N
  
      ,
    
    140°
    21'
          59"
        E
  




KCC

Cfa




Metar
RJSC 070100Z 20003KT 150V300 9999 FEW020 SCT070 BKN/// 26/23 Q1015








Airport 23 km north of the city of Yamagata, Japan.
Climatology
Humid subtropical climate (Köppen climate classification Cfa).






Runways






Designator
Length
Width
Surface
Rops




1/19          
1999          
46          
ASP          
Yes/Yes          













Airport map






Aerial View