MMGL








Don Miguel Hidalgo Y Costilla International Airport





Airport

ICAO code


  MMGL





IATA Code

GDL




Summary

ICAO Region

CARSAM



ICAO Territory





Mexico






 








Location

Tlajomulco de Zuñiga, Jalisco




Serving

Guadalajara



Elevation

5016 ft



Coordinates



    20°
    31'
          18"
        N
  
      ,
    
    103°
    18'
          40"
        W
  




KCC

BSh




Metar
MMGL 071247Z 07004KT 8SM SCT020 BKN090 19/18 A3012 RMK 8/570 HZY








International airport located 10nm south of Guadalajara, Mexico.
Climatology
Hot, semi-arid/Steppe climate (Köppen climate classification BSh) - hot, sometimes extremely hot summers and mild to warm winters, with low annual precipitation.






Runways






Designator
Length
Width
Surface
Rops




2/20          
1818          
29          
ASP          
Yes/Yes          


10/28          
4000          
60          
CON          
Yes/Yes          













Airport map






Aerial View