RJFS








Saga Airport





Airport

ICAO code


  RJFS





IATA Code

HSG




Summary

ICAO Region

APAC



ICAO Territory





Japan






 








Location

Kawasoe, Saga Prefecture




Serving

Saga



Elevation

6 ft



Coordinates



    33°
    9'
          12"
        N
  
      ,
    
    130°
    18'
          11"
        E
  




KCC

Cfa




Metar
RJFS 071300Z 27003KT 9999 FEW030 BKN050 27/23 Q1014








Saga Airport is an airport in the Kawasoe area of Saga, Saga Prefecture, Japan. It also uses the unofficial name Kyushu Saga International Airport.
Climatology
Humid Sub-tropical climate (Köppen climate classification Cfa)






Runways






Designator
Length
Width
Surface
Rops




11/29          
2000          
45          
ASP          
Yes/Yes          













Airport map






Aerial View