SKPS








Antonio Narino Airport





Airport

ICAO code


  SKPS





IATA Code

PSO




Summary

ICAO Region

CARSAM



ICAO Territory





Colombia






 








Location

Chachagui, Narino Department




Serving

Pasto



Elevation

5951 ft



Coordinates



    1°
    23'
          50"
        N
  
      ,
    
    77°
    17'
          26"
        W
  




KCC

Cwb




Metar
SKPS 071200Z 00000KT CAVOK 16/09 Q1019








Antonio Nariño Airport is located in the town of Chachagüí and serves the city of Pasto in the Nariño Department of Colombia. The airport is 35 km north of Pasto.
Climatology
Subtropical highland climate (Köppen climate classification Cwb)






Runways






Designator
Length
Width
Surface
Rops




2/20          
2312          
40          
ASP          
No/No          













Airport map






Aerial View