OMFJ








Fujairah International Airport





Airport

ICAO code


  OMFJ





IATA Code

FJR




Summary

ICAO Region

MID



ICAO Territory





United Arab Emirates






 








Location

Fujairah,




Serving

Fujairah



Elevation

152 ft



Coordinates



    25°
    6'
          44"
        N
  
      ,
    
    56°
    19'
          26"
        E
  




KCC

BWh




Metar
OMFJ 071200Z 10009KT 060V130 9999 FEW030 33/26 Q1002 A2960








Description
International airport serving the emirate of Fujairah, UAE.
Climatology
Hot Desert Climate (Köppen climate classification BWh) - Hot desert climates are typically found in the subtropics where there is unbroken sunshine for the whole year due to the stable descending air and high pressure, little or no precipitation. Maximum temperatures of 40°C to 45°C are not uncommon, particularly during the warmer months of the year.






Runways






Designator
Length
Width
Surface
Rops




11/29          
3750          
45          
ASP          
Yes/Yes          













Airport map






Aerial View