OIKK








Ayatollah Hashemi Rafsanjani International Airport





Airport

ICAO code


  OIKK





IATA Code

KER




Summary

ICAO Region

MID



ICAO Territory





Iran






 








Location

Kerman, Kerman Province




Serving

Kerman



Elevation

5741 ft



Coordinates



    30°
    15'
          32"
        N
  
      ,
    
    56°
    57'
          42"
        E
  




KCC

BSh




Metar
OIKK 071400Z 06014KT 9999 FEW100 33/M10 Q1016 A3002








Also known as Kerman International Airport. The airport is 10km west of the city of Kerman, Iran.
Climatology
Cold semi-arid climate (Köppen climate classification Bsh).






Runways






Designator
Length
Width
Surface
Rops




5/23          
2029          
45          
ASP          
Yes/Yes          


16/34          
3847          
45          
ASP          
Yes/Yes          













Airport map






Aerial View