SVGD








Guasdualito Airport





Airport

ICAO code


  SVGD





IATA Code

GDO




Summary

ICAO Region

CARSAM



ICAO Territory





Venezuela






 








Location

Guasdualito, Apure




Serving

Guasdualito



Elevation

426 ft



Coordinates



    7°
    12'
          40"
        N
  
      ,
    
    70°
    45'
          25"
        W
  




KCC

Aw




Metar
SVGD 071503Z AUTO 19003KT NCD 27/25 Q1014








Guasdualito Airport, also known as Vare Maria Airport, is an airport serving Guasdualito in the Apure state of Venezuela.
Climatology
Tropical savanna climate (Köppen climate classification Aw)






Runways






Designator
Length
Width
Surface
Rops




5/23          
2070          
30          
ASP          
No/No          













Airport map






Aerial View