CYLW








Kelowna International Airport





Airport

ICAO code


  CYLW






Summary

ICAO Region

NAM



ICAO Territory





Canada






 








Location

Kelowna, British Columbia,




Coordinates



    49°
    57'
          7"
        N
  
      ,
    
    119°
    23'
          7"
        W
  




KCC

BSk



Airport CFIT

Altimeter Temperature Error Correction



Airport RE

Crosswind Landings




Metar
CYLW 071400Z AUTO VRB02KT 9SM CLR 11/08 A3004 RMK SLP171








Description
International airport located at Kelowna, British Columbia, Canada.
Climatology
Semi-arid Steppe climate (Köppen climate classification BSk) - Little precipitation, hot summers and cold winters, sometimes with large changes in temperature in a 24 hour period.






Runways






Designator
Length
Width
Surface
Rops




16/34          
2225          
61          
ASP          
Yes/Yes          













Airport map






Aerial View








Airport accidents



C500, vicinity Kelowna BC Canada, 2016