SCIP








Mataveri Airport





Airport

ICAO code


  SCIP





IATA Code

IPC




Summary

ICAO Region

CARSAM



ICAO Territory





Easter Island






 








Location

Hanga Roa, Valparaiso




Serving

Easter Island



Elevation

227 ft



Coordinates



    27°
    9'
          53"
        S
  
      ,
    
    109°
    25'
          19"
        W
  




KCC

Af




Metar
SCIP 071300Z 12007KT 9999 SCT015 15/14 Q1022 NOSIG








International airport serving Easter Island.
Climatology
Tropical rainforest climate (Köppen climate classification Af)






Runways






Designator
Length
Width
Surface
Rops




10/28          
3300          
45          
ASP          
Yes/Yes          













Airport map






Aerial View