YSCB








Canberra International Airport





Airport

ICAO code


  YSCB





IATA Code

CBR




Summary

ICAO Region

APAC



ICAO Territory





Australia






 








Location

Canberra, Australian Capital Territory




Serving

Canberra



Elevation

1888 ft



Coordinates



    35°
    18'
          19"
        S
  
      ,
    
    149°
    11'
          36"
        E
  





Metar
YSCB 071400Z AUTO 00000KT 9999 // NCD 05/02 Q1022 RF00.0/000.0

















Airport map






Aerial View








Airport accidents



AT76, Canberra Australia, 2019
AT76, Canberra Australia, 2017