LGSM








Samos International Airport





Airport

ICAO code


  LGSM





IATA Code

SMI




Summary

ICAO Region

EUR



ICAO Territory





Greece






 








Location

Pythagorio, North Aegean




Serving

Samos



Elevation

19 ft



Coordinates



    37°
    41'
          22"
        N
  
      ,
    
    26°
    54'
          41"
        E
  




KCC

Csa




Metar
LGSM 071320Z 31012KT CAVOK 33/15 Q1010








Samos International Airport is an airport on Samos Island, Greece.
Climatology
Warm mediterranean climate (Köppen climate classification Csa)






Runways






Designator
Length
Width
Surface
Rops




9/27          
2044          
45          
ASP          
Yes/Yes          













Airport map






Aerial View