MMMT








Minatitlán/Coatzacoalcos National Airport





Airport

ICAO code


  MMMT





IATA Code

MTT




Summary

ICAO Region

CARSAM



ICAO Territory





Mexico






 








Location

Cosoleacaque Municipality, Veracruz-Llave




Serving

Minatitlan



Elevation

36 ft



Coordinates



    18°
    6'
          12"
        N
  
      ,
    
    94°
    34'
          50"
        W
  




KCC

Am




Metar
MMMT 062340Z 01008KT 7SM FEW025 SCT100 BKN250 29/25 A2977 RMK SLP115 57007 963 8/188








Minatitlán International Airport is an international airport located in Cosoleacaque, Veracruz, Mexico, near Minatitlán.
Climatology
Tropical Monsoon Climate (Köppen climate classification Am)






Runways






Designator
Length
Width
Surface
Rops




1/19          
2100          
45          
ASP          
No/No          













Airport map






Aerial View