SLCB








Jorge Wilsterman International Airport





Airport

ICAO code


  SLCB





IATA Code

CBB




Summary

ICAO Region

CARSAM



ICAO Territory





Bolivia






 








Location

Cochabamba, Cochabamba




Serving

Cochabamba



Elevation

8360 ft



Coordinates



    17°
    25'
          16"
        S
  
      ,
    
    66°
    10'
          38"
        W
  




KCC

BSk




Metar
SLCB 071200Z 00000KT 4000E FU NSC 15/05 Q1025








A high elevation international airport serving Cochabamba, the capital of the Cochabamba Department of Bolivia.
Climatology
Semi-arid climate (Köppen climate classification BSk).






Runways






Designator
Length
Width
Surface
Rops




4/22          
2649          
45          
ASP          
Yes/Yes          


14/32          
3798          
45          
ASP          
Yes/Yes          













Airport map






Aerial View