ETHC








Celle Air Base





Airport

ICAO code


  ETHC






Summary

ICAO Region

EUR



ICAO Territory





Germany






 








Location

Celle, Lower Saxony,




Coordinates



    52°
    35'
          23"
        N
  
      ,
    
    10°
    1'
          32"
        E
  





Metar
ETHC 071420Z 08005KT 9999 BKN280 29/12 Q1011 BLU+








Description
Celle Air Base is a military airbase of the German Army. The airfield is situated south-west of the city of Celle, Lower Saxony, Germany.






Runways






Designator
Length
Width
Surface
Rops




8/26          
1831          
45          
ASP          
No/No          













Airport map






Aerial View