KAHN








Athens-Ben Epps Airport





Airport

ICAO code


  KAHN





IATA Code

AHN




Summary

ICAO Region

NAM



ICAO Territory





United States






 








Location

Athens, Georgia




Serving

Athens



Elevation

808 ft



Coordinates



    33°
    57'
          6"
        N
  
      ,
    
    83°
    19'
          37"
        W
  




KCC

Cfa




Metar
KAHN 071351Z 00000KT 10SM CLR 23/19 A2992 RMK AO2 SLP128 T02280194 $








Description
Athens-Ben Epps Airport is a public use airport located 3 nm east of the central business district of Athens, a city in Clarke County, Georgia.














Airport map






Aerial View