FABL








J B M Hertzog International Airport





Airport

ICAO code


  FABL





IATA Code

BFN




Summary

ICAO Region

AFI



ICAO Territory





South Africa






 








Location

, Free State




Serving

Bloemfontein



Elevation

4458 ft



Coordinates



    29°
    5'
          34"
        S
  
      ,
    
    26°
    18'
          9"
        E
  





Metar
FABL 071200Z 29017KT 260V330 9999 FEW025 28/M07 Q1020 NOSIG









Runways






Designator
Length
Width
Surface
Rops




12/30          
2195          
46          
ASP          
Yes/Yes          


2/20          
2559          
46          
ASP          
Yes/Yes          













Airport map






Aerial View