YGEL








Geraldton Airport





Airport

ICAO code


  YGEL





IATA Code

GET




Summary

ICAO Region

APAC



ICAO Territory





Australia






 








Location

, Western Australia




Serving

Geraldton



Elevation

121 ft



Coordinates



    28°
    47'
          46"
        S
  
      ,
    
    114°
    42'
          25"
        E
  





Metar
YGEL 071400Z AUTO 15009KT 9999 // NCD 12/10 Q1029 RF00.0/000.0

















Airport map






Aerial View