MPPA








Panama Pacifico International





Airport

ICAO code


  MPPA





IATA Code

BLB




Summary

ICAO Region

CARSAM



ICAO Territory





Panama






 








Location

Balboa, Panama




Serving

Panama Canal Zone



Elevation

52 ft



Coordinates



    8°
    55'
          11"
        N
  
      ,
    
    79°
    35'
          40"
        W
  




KCC

Aw




Metar
MPPA 071300Z 00000KT 8000 -TSRA FEW005 SCT013CB SCT080 25/25 Q1009








Commercial airport in Panama. It is located on the site of the former Howard Air Force Base, a United States Air Force base which had been within the Panama Canal Zone.
Climatology
Tropical savannah climate (Köppen climate classification Aw)














Airport map






Aerial View