KLWB








Greenbrier Valley Airport





Airport

ICAO code


  KLWB





IATA Code

LWB




Summary

ICAO Region

NAM



ICAO Territory





United States






 








Location

Lewisburg, West Virginia




Serving

Lewisburg



Elevation

2302 ft



Coordinates



    37°
    51'
          23"
        N
  
      ,
    
    80°
    24'
          17"
        W
  




KCC

Cfa



Airport WX

Cumulonimbus




Metar
KLWB 071345Z 36003KT 10SM OVC040 15/09 A3001








Greenbrier Valley Airport is located 3 nm north of the central business district of Lewisburg, a city in Greenbrier County, West Virginia, USA.






Runways






Designator
Length
Width
Surface
Rops




4/22          
2135          
46          
ASP          
Yes/Yes          













Airport map






Aerial View