ANYN








Nauru





Airport

ICAO code


  ANYN






Summary

ICAO Region

APAC



ICAO Territory





Nauru Islands






 








Location

Nauru,




Coordinates



    0°
    32'
          51"
        S
  
      ,
    
    166°
    55'
          8"
        E
  




KCC

Af



Airport BS

Bird Strike



Airport WX

Tropical Revolving Storm




Metar
ANYN 062300Z VRB02KT 9999 FEW030 30/25 Q1010








Description
Nauru International Airport is the sole airport on the island of the Republic of Nauru. The airport serves as the main hub of the national carrier, Our Airline, formerly known as Air Nauru. The airport's former ICAO airport code was ANAU.
Climatology
Tropical Rainforest climate (Köppen climate classification Af) - almost no distinct seasons, average daily temperature around 27°C throughout the year. Extensive cloud cover and heavy rainfall prevent temperatures from rising much over 33°C. The diurnal temperature change is between 2°C and 5°C which is greater than the annual temperature range of 2°C. Rainfall is heavy and is usually convectional and in the afternoon.






Runways






Designator
Length
Width
Surface
Rops




12/30          
2150          
45          
ASP          
No/No          













Airport map






Aerial View