EFJO








Joensuu





Airport

ICAO code


  EFJO






Summary

ICAO Region

EUR



ICAO Territory





Finland






 








Location

Joensuu,




Coordinates



    62°
    39'
          42"
        N
  
      ,
    
    29°
    36'
          36"
        E
  




KCC

Dfc



Airport GND

Aircraft Ground De/Anti Icing



Airport RE

Landing on Contaminated Runways




Metar
EFJO 071350Z AUTO 23008KT 200V260 CAVOK 22/11 Q1024








Description
Largely domestic but also international airport serving the city of Joensuu in Finland. The airport is located 7nm northwest of the city centre.
Climatology
Subarctic climate (Köppen climate classification Dfc) - long, usually very cold winters, and short, cool to mild summers.






Runways






Designator
Length
Width
Surface
Rops




17/35          
1200          
30          
COM          
Yes/Yes          


10/28          
2500          
52          
ASP          
Yes/Yes          













Airport map






Aerial View