EGVN








RAF Brize Norton





Airport

ICAO code


  EGVN





IATA Code

BZZ




Summary

ICAO Region

EUR



ICAO Territory





United Kingdom






 








Location

Carterton, Oxfordshire, England




Serving

Oxford



Elevation

288 ft



Coordinates



    51°
    45'
          0"
        N
  
      ,
    
    1°
    35'
          2"
        W
  




KCC

Cfb




Metar
EGVN 071420Z 21002KT 9999 FEW010 BKN100 19/14 Q1009 NOSIG








Description
The principal RAF transport hub in the UK which is also the base of the RAF air-to-air refuelling fleet.
Climatology
Temperate Marine climate/Oceanic climate (Köppen climate classification Cfb). Moderately cool summer and comparatively warm winter with a temperature range of only 14°C. Prevailing south-westerly winds from the Atlantic Ocean.






Runways






Designator
Length
Width
Surface
Rops




8/26          
3050          
56          
ASP          
Yes/Yes          













Airport map






Aerial View