PAEN








Kenai Municipal Airport





Airport

ICAO code


  PAEN






Summary

ICAO Region

NAM



ICAO Territory





Alaska






 








Location

Kenai,




Coordinates



    60°
    34'
          16"
        N
  
      ,
    
    151°
    14'
          14"
        W
  




KCC

Dfc



Airport BS

Bird Strike
Non Avian Wildlife Hazards to Aircraft



Airport CFIT

Altimeter Temperature Error Correction




Metar
PAEN 071330Z AUTO 17004KT 10SM BKN024 07/07 A2991 RMK AO2 T00720072 TSNO $








Description
Regional airport serving the city of Kenai.
Climatology
Cool continental climate/Subarctic climate (Köppen climate classification Dfc)






Runways






Designator
Length
Width
Surface
Rops




01R/19L          
610          
18          
GVL          
Yes/Yes          


01W/19W          
1402          
77          
WATER-E          
No/No          


01L/19R          
2309          
46          
ASP          
Yes/Yes          













Airport map






Aerial View