SBCJ








Carajás Airport





Airport

ICAO code


  SBCJ





IATA Code

CKS




Summary

ICAO Region

CARSAM



ICAO Territory





Brazil






 








Location

Carajás, Para




Serving

Parauapebas



Elevation

2064 ft



Coordinates



    6°
    6'
          55"
        S
  
      ,
    
    50°
    0'
          5"
        W
  




KCC

Aw




Metar
SBCJ 071300Z 03005KT CAVOK 28/19 Q1018








Carajás Airport is the airport serving Parauapebas, Brazil.
Climatology
Tropical savannah climate (Köppen climate classification Aw)






Runways






Designator
Length
Width
Surface
Rops




10/28          
2000          
45          
ASP          
No/No          













Airport map






Aerial View