RJFM








Miyazaki Airport





Airport

ICAO code


  RJFM





IATA Code

KMI




Summary

ICAO Region

APAC



ICAO Territory





Japan






 








Location

Miyazaki, Kyushu




Serving

Miyazaki



Elevation

19 ft



Coordinates



    31°
    52'
          38"
        N
  
      ,
    
    131°
    26'
          55"
        E
  




KCC

Cfa




Metar
RJFM 071300Z AUTO 27004KT 9999 NCD 26/24 Q1014








Miyazaki Airport is an airport located 3.2 km south southeast of Miyazaki, a city in the Miyazaki Prefecture of Japan.
Climatology
Humid Sub-tropical climate (Köppen climate classification Cfa)






Runways






Designator
Length
Width
Surface
Rops




9/27          
2499          
46          
ASP          
Yes/Yes          













Airport map






Aerial View