DAOI








Ech Cheliff Airport





Airport

ICAO code


  DAOI





IATA Code

QAS




Summary

ICAO Region

AFI



ICAO Territory





Algeria






 








Location

, Chlef




Serving

Ech-cheliff



Elevation

463 ft



Coordinates



    36°
    12'
          46"
        N
  
      ,
    
    1°
    19'
          54"
        E
  





Metar
DAOI 071200Z 24012KT 7000 FEW030 39/14 Q1011









Runways






Designator
Length
Width
Surface
Rops




7/25          
1650          
30          
ASP          
No/No          













Airport map






Aerial View