KSYR








Syracuse Hancock International Airport





Airport

ICAO code


  KSYR






Summary

ICAO Region

NAM



ICAO Territory





United States






 








Location

Syracuse, New York,




Coordinates



    43°
    6'
          40"
        N
  
      ,
    
    76°
    6'
          22"
        W
  




KCC

Dfb



Airport GND

Aircraft Ground De/Anti Icing



Airport RE

Landing on Contaminated Runways



Airport WX

Cumulonimbus




Metar
KSYR 071423Z 26009KT 4SM -RA BR SCT012 BKN032 OVC055 15/13 A2983 RMK AO2 P0008 T01500133 $








Description
Syracuse Hancock International Airport is a public use airport located 7 km northeast of the central business district of Syracuse, a city in Onondaga County, New York.
Climatology
Humid Continental climate (Köppen climate classification Dfb) - Variable weather patterns and a large seasonal temperature variance. Summers are often warm and humid with frequent thunderstorms and winters can be very cold with frequent snowfall and persistent snow cover.






Runways






Designator
Length
Width
Surface
Rops




6/24          
994          
46          
CON          
No/No          


15/33          
2286          
46          
ASP          
Yes/Yes          


10/28          
2744          
46          
ASP          
Yes/Yes          













Airport map






Aerial View