KIAG








Niagara Falls International Airport





Airport

ICAO code


  KIAG





IATA Code

IAG




Summary

ICAO Region

NAM



ICAO Territory





United States






 








Location

Niagara Falls, New York,




Serving

Niagara Falls



Elevation

589 ft



Coordinates



    43°
    6'
          17"
        N
  
      ,
    
    78°
    56'
          29"
        W
  




KCC

Dfb



Airport GND

Aircraft Ground De/Anti Icing



Airport LOS

Parallel Runway Operation



Airport WX

Lake Effect Snow




Metar
KIAG 071353Z 30013KT 10SM FEW015 BKN029 BKN040 16/12 A2986 RMK AO2 RAB40E51 SLP112 P0000 T01560117








Niagara Falls International Airport is a joint civil-military (USAFR) airport located 6 km east of the central business district of Niagara Falls, in Niagara County, New York.
Climatology
Humid Continental climate (Köppen climate classification Dfb) - Variable weather patterns and a large seasonal temperature variance. Summers are often warm and humid with frequent thunderstorms and winters can be very cold with frequent snowfall and persistent snow cover.














Airport map






Aerial View