TLPL








Hewanorra International Airport





Airport

ICAO code


  TLPL






Summary

ICAO Region

CARSAM



ICAO Territory





Saint Lucia






 








Location

Hewanorra, Vieux Fort, Saint Lucia,




Coordinates



    13°
    43'
          60"
        N
  
      ,
    
    60°
    57'
          9"
        W
  




KCC

Aw




Metar
TLPL 071300Z 00000KT 9999 TS FEW008 SCT014CB 29/27 Q1012 TEMPO SHRA








Description
International airport on the south end of the island of St Lucia; the largest of the two airports on the Island.
Climatology
Tropical Savanna climate (Köppen climate classification Aw)






Runways






Designator
Length
Width
Surface
Rops




10/28          
2744          
45          
ASP          
Yes/Yes          













Airport map






Aerial View








Airport accidents



A333, St Lucia Eastern Caribbean, 2013