LBSF








Sofia Airport





Airport

ICAO code


  LBSF





IATA Code

SOF




Summary

ICAO Region

EUR



ICAO Territory





Bulgaria






 








Location

Sofia, Sofia-Capital




Serving

Sofia



Elevation

1742 ft



Coordinates



    42°
    41'
          44"
        N
  
      ,
    
    23°
    24'
          57"
        E
  




KCC

Cfa



Airport RE

Aquaplaning



Airport WX

Cumulonimbus




Metar
LBSF 071230Z 04007KT 010V120 CAVOK 26/13 Q1019 NOSIG








International airport serving the capital of Bulgaria.
Climatology
Humid “subtropical” climate (Köppen climate classification Cfa)






Runways






Designator
Length
Width
Surface
Rops




9/27          
2800          
45          
ASP          
Yes/Yes          













Airport map






Aerial View








Airport accidents



A320 / CRJ2, Sofia Bulgaria, 2007