LFBL








Limoges-Bellegarde Airport





Airport

ICAO code


  LFBL






Summary

ICAO Region

EUR



ICAO Territory





France






 








Location

Limoges, Limousin, France,




Coordinates



    45°
    51'
          46"
        N
  
      ,
    
    1°
    10'
          46"
        E
  




KCC

Cfb




Metar
LFBL 071400Z AUTO 13005KT 9999 BKN037 OVC078 16/15 Q1010 NOSIG








Description
International airport 6 km west-northwest of Limoges, France.
Climatology
Temperate Marine climate/Oceanic climate (Köppen climate classification Cfb). Moderately cool summer and comparatively warm winter with a temperature range of only 14°C. Prevailing south-westerly winds from the Atlantic Ocean.






Runways






Designator
Length
Width
Surface
Rops




3/21          
2500          
45          
ASP          
Yes/Yes          













Airport map






Aerial View








Airport accidents



B738, Limoges France, 2008