VDSV








Sihanoukville International Airport





Airport

ICAO code


  VDSV





IATA Code

KOS




Summary

ICAO Region

APAC



ICAO Territory





Cambodia






 








Location

Kong King, Preah Sihanouk




Serving

Sihanoukville



Elevation

40 ft



Coordinates



    10°
    34'
          40"
        N
  
      ,
    
    103°
    38'
          12"
        E
  




KCC

Aw




Metar
VDSV 071430Z 26007KT 9000 SCT015 27/26 Q1010








Sihanouk International Airport, located 18 km east of Preah Sihanouk Province, is Cambodia's third international airport. The airport is also known as Kang Keng Airport. The IATA code KOS dates from Sihanoukville's former name Kompong Som.
Climatology
Tropical Savanna climate (Köppen climate classification Aw)














Airport map






Aerial View