ESNU








Umea





Airport

ICAO code


  ESNU






Summary

ICAO Region

EUR



ICAO Territory





Sweden






 








Location

Umea, Sweden,




Elevation

24 ft



Coordinates



    63°
    47'
          30"
        N
  
      ,
    
    20°
    16'
          58"
        E
  




KCC

Dfb




Metar
ESNU 071220Z AUTO 19007KT 170V230 7000 OVC003/// 15/14 Q1021








Description
International airport serving Umea in northern Sweden
Climatology
Humid Continental climate (Köppen climate classification Dfb) - Variable weather patterns and a large seasonal temperature variance. Summers are often warm and humid with frequent thunderstorms and winters can be very cold with frequent snowfall and persistent snow cover.






Runways






Designator
Length
Width
Surface
Rops




14/32          
2302          
45          
ASP          
Yes/Yes          













Airport map






Aerial View