LIED








Decimomannu Air Base





Airport

ICAO code


  LIED





IATA Code

DCI




Summary

ICAO Region

EUR



ICAO Territory





Italy






 








Location

Decimomannu, Sardinia




Serving

Decimomannu



Elevation

100 ft



Coordinates



    39°
    21'
          1"
        N
  
      ,
    
    8°
    58'
          29"
        E
  




KCC

Csa




Metar
LIED 071355Z 15018KT 9999 FEW025 33/25 Q1012








Decimomannu Air Base is an Italian Air Force air base located approximately 2.7 nm north of Decimomannu, a comune in the Province of Cagliari on the island of Sardinia in Italy.
Climatology
Warm mediterranean climate (Köppen climate classification Csa)






Runways






Designator
Length
Width
Surface
Rops




17R/35L          
2611          
23          
ASP          
No/No          


17L/35R          
2990          
45          
ASP          
No/No          













Airport map






Aerial View