SKSP








Gustavo Rojas Pinilla International Airport





Airport

ICAO code


  SKSP





IATA Code

ADZ




Summary

ICAO Region

CARSAM



ICAO Territory





Colombia






 








Location

San Andres, Archipelago of San Andres, Providencia and Santa Catalina




Serving

San Andres



Elevation

19 ft



Coordinates



    12°
    35'
          10"
        N
  
      ,
    
    81°
    42'
          8"
        W
  




KCC

Am




Metar
SKSP 071100Z 05005KT 9999 FEW017 28/26 Q1007








Gustavo Rojas Pinilla International Airport is the main airport in the archipelago of San Andrés (Saint Andrew), Providencia and Santa Catalina, one of the departments of Colombia.
Climatology
Tropical monsoon climate (Köppen climate classification Am)






Runways






Designator
Length
Width
Surface
Rops




6/24          
2380          
45          
ASP          
Yes/Yes          













Airport map






Aerial View