SCCI








Punta Arenas/ Presidente Carlos Ibáñez del Campo International Airport





Airport

ICAO code


  SCCI





IATA Code

PUQ




Summary

ICAO Region

CARSAM



ICAO Territory





Chile






 








Location

Punta Arenas, Magallanes y Antártica Chilena




Serving

Punta Arenas



Elevation

139 ft



Coordinates



    53°
    0'
          12"
        S
  
      ,
    
    70°
    51'
          12"
        W
  




KCC

BSk




Metar
SCCI 071300Z 29021KT 9999 FEW025 SCT200 04/M01 Q0990 NOSIG








Description
International airport serving Punta Arenas.
Climatology
Cold Semi-arid climate (Köppen climate classification BSk)






Runways






Designator
Length
Width
Surface
Rops




1/19          
1678          
45          
ASP          
No/No          


12/30          
2400          
45          
ASP          
No/No          


7/25          
2790          
45          
ASP          
No/No          













Airport map






Aerial View