FMEE








Sainte-Marie/Roland Garros Airport





Airport

ICAO code


  FMEE





IATA Code

RUN




Summary

ICAO Region

AFI



ICAO Territory





Reunion






 








Location

Sainte Marie, Réunion




Serving

Saint-Denis



Elevation

66 ft



Coordinates



    20°
    53'
          29"
        S
  
      ,
    
    55°
    31'
          4"
        E
  





Metar
FMEE 071400Z AUTO 13014KT 9999 OVC041 23/17 Q1022 BECMG 10015G25KT








Roland Garros Airport, formerly known as Gillot Airport, is located in Sainte-Marie on Réunion, The airport is 7 kilometres east of Saint-Denis.






Runways






Designator
Length
Width
Surface
Rops




14/32          
2670          
45          
ASP          
Yes/Yes          


12/30          
3200          
45          
ASP          
Yes/Yes          













Airport map






Aerial View