OIBB








Bushehr International Airport





Airport

ICAO code


  OIBB





IATA Code

BUZ




Summary

ICAO Region

MID



ICAO Territory





Iran






 








Location

Bandar Bushehr, Bushehr




Serving

Bandar Bushehr



Elevation

68 ft



Coordinates



    28°
    57'
          29"
        N
  
      ,
    
    50°
    49'
          32"
        E
  




KCC

BSh




Metar
OIBB 071400Z 24008KT CAVOK 37/24 Q1001 A2956 NOSIG








A joint civil and military airport in Bushehr, Iran.
Climatology
Hot Semi-arid climate (Köppen climate classification BSh).






Runways






Designator
Length
Width
Surface
Rops




13L/31R          
4469          
45          
ASP          
No/No          


13R/31L          
4470          
45          
ASP          
No/No          













Airport map






Aerial View