FAWB








Wonderboom Airport





Airport

ICAO code


  FAWB





IATA Code

PRY




Summary

ICAO Region

AFI



ICAO Territory





South Africa






 








Location

Pretoria, Gauteng




Serving

Pretoria



Elevation

4095 ft



Coordinates



    25°
    39'
          14"
        S
  
      ,
    
    28°
    13'
          27"
        E
  




KCC

Cwa




Metar
FAWB 071100Z AUTO 03007KT //// // ////// 26/05 Q1024








Description
Airport handling general aviation traffic north of Pretoria, South Africa.
Climatology
Within the Köppen Climate Classification System, ((Koppen climate classification Cwa)) this climate type generally has warm and humid summers with mild dry winters. Convective thunderstorms provide precipitation in the summer months.






Runways






Designator
Length
Width
Surface
Rops




6/24          
1280          
22          
ASP          
No/No          


11/29          
1828          
30          
ASP          
No/No          













Airport map






Aerial View