LTAN








Konya Airport





Airport

ICAO code


  LTAN





IATA Code

KYA




Summary

ICAO Region

EUR



ICAO Territory





Turkey






 








Location

Konya,




Serving

Konya



Elevation

3381 ft



Coordinates



    37°
    59'
          1"
        N
  
      ,
    
    32°
    34'
          37"
        E
  





Metar
LTAN 071150Z 03011KT 9999 FEW040 28/08 Q1016 NOSIG









Runways






Designator
Length
Width
Surface
Rops




01L/19R          
3348          
45          
ASP          
Yes/Yes          


01R/19L          
3348          
45          
CON          
Yes/Yes          













Airport map






Aerial View