VOBG








HAL Bangalore International Airport





Airport

ICAO code


  VOBG






Summary

ICAO Region

APAC



ICAO Territory





India






 








Location

Bangalore, Karnataka,




Coordinates



    12°
    57'
          5"
        N
  
      ,
    
    77°
    40'
          9"
        E
  




KCC

Aw



Airport WX

Cumulonimbus




Metar
VOBG 071200Z 23009KT 6000 SCT012 SCT018 BKN080 26/22 Q1012 NOSIG








Description
Formerly the international airport serving the city of Bangalore, India, HAL Bangalore International Airport, also known as HAL Airport or Hindustan Airport, is an airport exclusively used as a testing facility by Hindustan Aeronautics Limited and the Indian Armed Forces.
Climatology
Tropical Savanna climate (Köppen climate classification Aw) - monthly mean temperatures above 18°C, and a pronounced dry season. A Tropical Savanna climate has more pronounced dry seasons than a Tropical Monsoon climate.














Airport map






Aerial View