KSTC








St. Cloud Regional Airport





Airport

ICAO code


  KSTC






Summary

ICAO Region

NAM



ICAO Territory





United States






 








Location

St. Cloud, Minnesota,




Coordinates



    45°
    32'
          47"
        N
  
      ,
    
    94°
    3'
          35"
        W
  




KCC

Dfb



Airport CFIT

Altimeter Temperature Error Correction



Airport GND

Aircraft Ground De/Anti Icing



Airport RE

Landing on Contaminated Runways




Metar
KSTC 071353Z 15004KT 10SM CLR 12/09 A3033 RMK AO2 SLP281 T01170089 $








Description
St. Cloud Regional Airport is a public airport located 6 km east of the central business district of St. Cloud, a city in Stearns County, Minnesota.
Climatology
Humid Continental climate (Köppen climate classification Dfb) - Variable weather patterns and a large seasonal temperature variance. Summers are often warm and humid with frequent thunderstorms and winters can be very cold with frequent snowfall and persistent snow cover.






Runways






Designator
Length
Width
Surface
Rops




5/23          
914          
23          
ASP          
Yes/Yes          


13/31          
2134          
46          
CON          
Yes/Yes          













Airport map






Aerial View