MHRO








Juan Manuel Gálvez International Airport





Airport

ICAO code


  MHRO





IATA Code

RTB




Summary

ICAO Region

CARSAM



ICAO Territory





Honduras






 








Location

Roatan, Bay Islands Department




Serving

Roatan



Elevation

39 ft



Coordinates



    16°
    19'
          5"
        N
  
      ,
    
    86°
    31'
          37"
        W
  




KCC

Aw



Airport WX

Tropical Revolving Storm




Metar
MHRO 071500Z 27007KT 230V310 9999 SCT018 30/25 Q1008 A2977 NOSIG








International airport serving the island of Roatan, Honduras.
Climatology
Tropical Savanna climate (Köppen climate classification Aw)






Runways






Designator
Length
Width
Surface
Rops




7/25          
2240          
45          
ASP          
Yes/Yes          













Airport map






Aerial View