DNIB








Ibadan Airport





Airport

ICAO code


  DNIB





IATA Code

IBA




Summary

ICAO Region

AFI



ICAO Territory





Nigeria






 








Location

Ibadan, Oyo State




Serving

Ibadan



Elevation

728 ft



Coordinates



    7°
    21'
          35"
        N
  
      ,
    
    3°
    58'
          33"
        E
  




KCC

Aw




Metar
DNIB 071100Z 26005KT 9999 BKN010 27/22 Q1016








Ibadan Airport is an airport serving Ibadan, the capital of the Oyo State of Nigeria.
Climatology
Tropical savanna climate (Köppen climate classification Aw)






Runways






Designator
Length
Width
Surface
Rops




5/23          
2400          
45          
ASP          
No/No          













Airport map






Aerial View