KMBS








MBS International Airport





Airport

ICAO code


  KMBS





IATA Code

MBS




Summary

ICAO Region

NAM



ICAO Territory





United States






 








Location

Freeland, Michigan




Serving

Saginaw



Elevation

668 ft



Coordinates



    43°
    31'
          54"
        N
  
      ,
    
    84°
    4'
          56"
        W
  




KCC

Dfb



Airport CFIT

Altimeter Temperature Error Correction




Metar
KMBS 071402Z 31009KT 10SM BKN021 12/07 A3011 RMK AO2 T01170067








MBS International Airport is located in Freeland, Michigan, USA and serves the nearby cities of Midland, Bay City and Saginaw. It was formerly named Tri City Airport or Freeland Tri-City Airport.






Runways






Designator
Length
Width
Surface
Rops




14/32          
1951          
46          
ASP          
Yes/Yes          


5/23          
2439          
46          
ASP          
Yes/Yes          













Airport map






Aerial View