KLOM








Wings Field





Airport

ICAO code


  KLOM






Summary

ICAO Region

NAM



ICAO Territory





United States






 








Location

Blue Bell, Pennsylvania,




Coordinates



    40°
    8'
          15"
        N
  
      ,
    
    75°
    15'
          54"
        W
  




KCC

Cfa



Airport BS

Bird Strike



Airport WX

Tropical Revolving Storm




Metar
KLOM 071210Z AUTO 15007KT 10SM BKN009 BKN014 BKN060 21/19 A2986 RMK AO2 T02110191








Description
General Aviation airport 5 km northwest of Philadelphia.
Climatology
Humid “subtropical” climate (Köppen climate classification Cfa) - characterized by hot, humid summers and cool winters. Significant amounts of precipitation occur in all seasons in most areas. Winter rainfall (and sometimes snowfall) is associated with large storms that the westerlies steer from west to east. Most summer rainfall occurs during thunderstorms and occasional tropical storms (hurricanes).






Runways






Designator
Length
Width
Surface
Rops




6/24          
1128          
23          
ASP          
Yes/Yes          













Airport map






Aerial View