KLWS








Lewiston-Nez Perce County Airport





Airport

ICAO code


  KLWS





IATA Code

LWS




Summary

ICAO Region

NAM



ICAO Territory





United States






 








Location

Lewiston, Idaho




Serving

Lewiston



Elevation

1442 ft



Coordinates



    46°
    22'
          27"
        N
  
      ,
    
    117°
    0'
          49"
        W
  




KCC

BSk



Airport CFIT

Altimeter Temperature Error Correction




Metar
KLWS 071356Z AUTO 00000KT 8SM CLR 18/07 A3000 RMK AO2 SLP147 T01780067








Lewiston – Nez Perce County Airport is a public airport serving the city of Lewiston, in Nez Perce County, Idaho, USA.






Runways






Designator
Length
Width
Surface
Rops




12/30          
1525          
30          
ASPH-G          
Yes/Yes          


8/26          
1985          
46          
ASP          
Yes/Yes          













Airport map






Aerial View