GMMN








Casablanca/Mohammed V International Airport





Airport

ICAO code


  GMMN





IATA Code

CMN




Summary

ICAO Region

AFI



ICAO Territory





Morocco






 








Location

Casablanca, Grand Casablanca




Serving

Casablanca



Elevation

656 ft



Coordinates



    33°
    22'
          4"
        N
  
      ,
    
    7°
    35'
          32"
        W
  




KCC

Csb




Metar
GMMN 071300Z 35020KT 9999 SCT016 BKN100 25/18 Q1009 NOSIG








International airport serving Casablanca.
Climatology
Warm mediterranean climate (Köppen climate classification Csa)






Runways






Designator
Length
Width
Surface
Rops




17L/35R          
3720          
45          
ASP          
Yes/Yes          


17R/35L          
3720          
45          
ASP          
Yes/Yes          













Airport map






Aerial View








Airport accidents



A319, Casablanca Morocco, 2011