LIPH








Treviso-Sant'Angelo Airport





Airport

ICAO code


  LIPH





IATA Code

TSF




Summary

ICAO Region

EUR



ICAO Territory





Italy






 








Location

Treviso, Veneto




Serving

Treviso



Elevation

59 ft



Coordinates



    45°
    38'
          54"
        N
  
      ,
    
    12°
    11'
          40"
        E
  





Metar
LIPH 071220Z VRB03KT 9999 SCT035 27/19 Q1016









Runways






Designator
Length
Width
Surface
Rops




7/25          
2420          
44          
ASP          
Yes/Yes          













Airport map






Aerial View