PABR








Wiley Post - Will Rogers Memorial Airport





Airport

ICAO code


  PABR






Summary

ICAO Region

NAM



ICAO Territory





Alaska






 








Location

Barrow,




Coordinates



    71°
    17'
          7"
        N
  
      ,
    
    156°
    45'
          57"
        W
  




KCC

Dfc



Airport BS

Non Avian Wildlife Hazards to Aircraft



Airport CFIT

Altimeter Temperature Error Correction




Metar
PABR 062201Z 26015KT 10SM BKN010 OVC013 04/02 A2963








Description
Regional airport serving Barrow, Alaska.
Climatology
Subarctic climate (Köppen climate classification Dfc) - long, usually very cold winters, and short, cool to mild summers.






Runways






Designator
Length
Width
Surface
Rops




6/24          
1981          
46          
ASP          
Yes/Yes          













Airport map






Aerial View








Airport accidents



C500, vicinity Wiley Post Airport, Oklahoma City OK USA, 2008