USPP








Perm/Bolshoye Savino International Airport





Airport

ICAO code


  USPP





IATA Code

PEE




Summary

ICAO Region

EUR



ICAO Territory





Russian Federation






 








Location

Bolshoye Savino, Permskiy Kray




Serving

Perm



Elevation

123 ft



Coordinates



    57°
    55'
          11"
        N
  
      ,
    
    56°
    1'
          9"
        E
  





Metar
USPP 071230Z 35003MPS 320V020 CAVOK 20/11 Q1024 R03/090060 NOSIG RMK QFE757








Description
Perm International Airport is an international airport located in Perm Krai, Russia located 16 kilometres southwest of Perm, in the village of Bolshoye Savino.






Runways






Designator
Length
Width
Surface
Rops




3/21          
3206          
49          
CON          
Yes/Yes          













Airport map






Aerial View








Airport accidents



B735, vicinity Perm Russian Federation, 2008