BKPR








Pristina





Airport

ICAO code


  BKPR






Summary

ICAO Region

EUR



ICAO Territory





Kosovo






 








Location

Slatina, Pristina,




Coordinates



    42°
    34'
          22"
        N
  
      ,
    
    21°
    2'
          9"
        E
  




KCC

Cfa




Metar
BKPR 071300Z VRB03KT 9999 FEW030CB 31/14 Q1017 TEMPO TS








Description
Pristina International Airport is an international airport located 15 km southwest of Pristina, Kosovo. It is co-located with Slatina Air Base.
Climatology
Humid “subtropical” climate (Köppen climate classification Cfa) - characterized by hot, humid summers and cool winters. Significant amounts of precipitation occur in all seasons in most areas. Winter rainfall (and sometimes snowfall) is associated with large storms that the westerlies steer from west to east. Most summer rainfall occurs during thunderstorms.






Runways






Designator
Length
Width
Surface
Rops




17/35          
2489          
45          
ASP          
Yes/Yes          













Airport map






Aerial View








Airport accidents



B738, Pristina Kosovo, 2016
A320, Pristina Kosovo, 2017
AT43, vicinity Pristina Kosovo, 1999