EGNT








Newcastle Airport





Airport

ICAO code


  EGNT





IATA Code

NCL




Summary

ICAO Region

EUR



ICAO Territory





United Kingdom






 








Location

Woolsington, Newcastle, England




Serving

Newcastle



Elevation

266 ft



Coordinates



    55°
    2'
          12"
        N
  
      ,
    
    1°
    41'
          30"
        W
  




KCC

Cfb




Metar
EGNT 071220Z 15004KT 060V210 9999 FEW015 20/16 Q1013








Description
Domestic and international airport serving Newcastle, Gateshead the north-east of England.
Climatology
Temperate Marine climate/Oceanic climate (Köppen climate classification Cfb). Moderately cool summer and comparatively warm winter with a temperature range of only 14°C. Prevailing south-westerly winds from the Atlantic Ocean.






Runways






Designator
Length
Width
Surface
Rops




7/25          
2329          
46          
ASP          
Yes/Yes          













Airport map






Aerial View








Airport accidents



B738, Newcastle UK, 2010