LSMP








Payerne Airport





Airport

ICAO code


  LSMP






Summary

ICAO Region

EUR



ICAO Territory





Switzerland






 








Location

Morens, Fribourg




Serving

Payerne



Elevation

1465 ft



Coordinates



    46°
    50'
          36"
        N
  
      ,
    
    6°
    54'
          54"
        E
  





Metar
LSMP 071420Z AUTO 06004KT 340V110 1700NDV NCD 26/14 Q1010 RMK








Payerne Airport is a military airfield of the Swiss Air Force north of Payerne in Switzerland, located approximately halfway between Lausanne and Bern.
Climatology
Warm mediterranean climate (Köppen climate classification Cfa)






Runways






Designator
Length
Width
Surface
Rops




5/23          
2858          
40          
ASP          
No/No          













Airport map






Aerial View