RJSS








Sendai Airport





Airport

ICAO code


  RJSS





IATA Code

SDJ




Summary

ICAO Region

APAC



ICAO Territory





Japan






 








Location

Natori, Sendai Metropolis




Serving

Sendai



Elevation

6 ft



Coordinates



    38°
    8'
          23"
        N
  
      ,
    
    140°
    55'
          1"
        E
  




KCC

Cfa




Metar
RJSS 071200Z VRB01KT 9999 SCT008 BKN070 26/24 Q1014








Sendai Airport is an international airport located in the city of Natori, Miyagi, 13.6 km south southeast of Sendai metropolis, Sendai, Japan.
Climatology
Humid Sub-tropical climate (Köppen climate classification Cfa)






Runways






Designator
Length
Width
Surface
Rops




12/30          
1201          
46          
ASP          
Yes/Yes          


9/27          
3000          
46          
ASP          
Yes/Yes          













Airport map






Aerial View