OIBQ








Kharg Airport





Airport

ICAO code


  OIBQ





IATA Code

KHK




Summary

ICAO Region

APAC



ICAO Territory





Iran






 








Location

Kharg, Bushehr




Serving

Kharg Island



Elevation

29 ft



Coordinates



    29°
    15'
          14"
        N
  
      ,
    
    50°
    19'
          35"
        E
  




KCC

BWh




Metar
OIBQ 071400Z 29006KT CAVOK 38/23 Q1001








Climatology
Warm desert climate (Köppen climate classification BWh)






Runways






Designator
Length
Width
Surface
Rops




14/32          
1805          
45          
ASP          
No/No          













Airport map






Aerial View








Airport accidents



B463, Khark Island Iran, 2016