LFLC








Clermont-Ferrand Auvergne Airport





Airport

ICAO code


  LFLC





IATA Code

CFE




Summary

ICAO Region

EUR



ICAO Territory





France






 








Location

Aulnat, Auvergne




Serving

Clermont-Ferrand



Elevation

1090 ft



Coordinates



    45°
    47'
          12"
        N
  
      ,
    
    3°
    10'
          9"
        E
  




KCC

Cfb




Metar
LFLC 071400Z AUTO 33004KT 290V360 4800 RA BR VCTS FEW021/// SCT032/// BKN049/// ///CB 16/15 Q1010 TEMPO VRB15G30KT 2000 TSRA BKN014 BKN035TCU








Clermont-Ferrand Auvergne Airport is an airport serving the French city of Clermont-Ferrand. It is located 6.7 km east of the city, in Aulnat.
Climatology
Temperate Oceanic climate (Köppen climate classification Cfb).






Runways






Designator
Length
Width
Surface
Rops




08L/26R          
0          
0          
UNK          
No/No          


8/26          
3015          
45          
ASP          
Yes/Yes          













Airport map






Aerial View