DABC








Constantine





Airport

ICAO code


  DABC






Summary

ICAO Region

AFI



ICAO Territory





Algeria






 








Location

Constantine,




Coordinates



    36°
    16'
          41"
        N
  
      ,
    
    6°
    37'
          7"
        E
  





Metar
DABC 071100Z 28012KT 240V320 CAVOK 34/15 Q1017








Description
Mohamed Boudiaf International Airport, also known as Mohamed Boudiaf Airport, is an airport in Algeria, located approximately 9 km south of Constantine; about 320 km east-southeast of Algiers.
Climatology






Runways






Designator
Length
Width
Surface
Rops




14/32          
2400          
45          
ASP          
Yes/Yes          


16/34          
3000          
45          
ASP          
Yes/Yes          













Airport map






Aerial View