HETR








El Tor Airport





Airport

ICAO code


  HETR





IATA Code

ELT




Summary

ICAO Region

AFI



ICAO Territory





Egypt






 








Location

El Tor, Janub Sina&#039;




Serving

El Tor



Elevation

115 ft



Coordinates



    28°
    12'
          33"
        N
  
      ,
    
    33°
    38'
          44"
        E
  





Metar
HETR 071200Z 30018KT 6000 NSC 32/19 Q1007









Runways






Designator
Length
Width
Surface
Rops




10/28          
3000          
45          
ASP          
No/No          













Airport map






Aerial View