RJOM








Matsuyama Airport





Airport

ICAO code


  RJOM





IATA Code

MYJ




Summary

ICAO Region

APAC



ICAO Territory





Japan






 








Location

Matsuyama, Ehime Prefecture




Serving

Matsuyama



Elevation

13 ft



Coordinates



    33°
    49'
          45"
        N
  
      ,
    
    132°
    42'
          15"
        E
  




KCC

Cfa




Metar
RJOM 071200Z VRB02KT 9999 FEW030 27/24 Q1014








airport located 5.6km west southwest of Matsuyama, Ehime, Japan.
Climatology
Humid Sub-tropical climate (Köppen climate classification Cfa)






Runways






Designator
Length
Width
Surface
Rops




14/32          
2499          
46          
ASP          
Yes/Yes          













Airport map






Aerial View