PADE








Deering Airport





Airport

ICAO code


  PADE





IATA Code

DRG




Summary

ICAO Region

NAM



ICAO Territory





Alaska






 








Location

, Alaska




Serving

Deering



Elevation

21 ft



Coordinates



    66°
    4'
          11"
        N
  
      ,
    
    162°
    45'
          58"
        W
  





Metar
PADE 071319Z AUTO 00000KT 2SM BR OVC002 01/00 A2986 RMK AO2 T00060000 TSNO $









Runways






Designator
Length
Width
Surface
Rops




11/29          
805          
23          
GVL          
No/No          


2/20          
1006          
23          
GVL          
No/No          













Airport map






Aerial View