YBLN








Busselton Regional Airport





Airport

ICAO code


  YBLN





IATA Code

BQB




Summary

ICAO Region

APAC



ICAO Territory





Australia






 








Location

Brusselton, Western Australia




Serving

Brusselton



Elevation

55 ft



Coordinates



    33°
    41'
          14"
        S
  
      ,
    
    115°
    24'
          1"
        E
  





Metar
YBLN 071400Z AUTO 22001KT 9999 // FEW026 OVC030 12/12 Q1029

















Airport map






Aerial View