VICG








Chandigarh Airport





Airport

ICAO code


  VICG






Summary

ICAO Region

APAC



ICAO Territory





India






 








Location

Chandigarh, Haryana and Punjab,




Coordinates



    30°
    40'
          15"
        N
  
      ,
    
    76°
    48'
          5"
        E
  




KCC

Cwa



Airport BS

Bird Strike



Airport WX

Cumulonimbus




Metar
VICG 070300Z VRB02KT 4500 BR SCT025 BKN090 29/28 Q1008 TEMPO -RA








Description
Chandigarh Airport is located in the Union Territory of Chandigarh, the capital city of the provinces of Haryana and Punjab, India.
Climatology
Humid “subtropical” climate (Köppen climate classification Cwa) - characterized by hot, humid summers and cool winters.














Airport map






Aerial View