SKUC








Santiago Pérez Quiroz Airport





Airport

ICAO code


  SKUC





IATA Code

AUC




Summary

ICAO Region

CARSAM



ICAO Territory





Colombia






 








Location

Arauca, Arauca Department




Serving

Arauca



Elevation

423 ft



Coordinates



    7°
    4'
          5"
        N
  
      ,
    
    70°
    44'
          7"
        W
  




KCC

Aw




Metar
SKUC 071200Z 00000KT 9999 BKN023 24/24 Q1011








Santiago Pérez Quiroz Airport is an airport serving Arauca, the capital of the Arauca Department in Colombia. The runway is southeast of the city, and 2km south of Colombia's border with Venezuela.
Climatology
Tropical savannah climate (Köppen climate classification Aw)






Runways






Designator
Length
Width
Surface
Rops




11/29          
2100          
30          
ASP          
No/No          













Airport map






Aerial View