SBBU








Bauru Airport





Airport

ICAO code


  SBBU





IATA Code

BAU




Summary

ICAO Region

CARSAM



ICAO Territory





Brazil






 








Location

Bauru, Sao Paulo




Serving

Bauru



Elevation

2025 ft



Coordinates



    22°
    20'
          37"
        S
  
      ,
    
    49°
    3'
          14"
        W
  




KCC

Cwa




Metar
SBBU 071100Z 12009KT 6000 NSC 20/16 Q1019








Comte. João Ribeiro de Barros Airport is an airport serving Bauru, Brazil.
Climatology
Humid subtropical climate (Köppen climate classification Cwa)






Runways






Designator
Length
Width
Surface
Rops




14/32          
1501          
35          
ASP          
No/No          













Airport map






Aerial View