LFQB








Troyes-Barberey Airport





Airport

ICAO code


  LFQB





IATA Code

QYR




Summary

ICAO Region

EUR



ICAO Territory





France






 








Location

, Champagne-Ardenne




Serving

Troyes



Elevation

388 ft



Coordinates



    48°
    19'
          20"
        N
  
      ,
    
    4°
    1'
          0"
        E
  





Metar
LFQB 071330Z AUTO 12010KT 090V150 CAVOK 22/18 Q1008









Runways






Designator
Length
Width
Surface
Rops




5/23          
780          
100          
GRS          
No/No          


18R/36L          
900          
100          
GRS          
No/No          


18/36          
1650          
30          
ASP          
No/No          













Airport map






Aerial View