KHXD








Hilton Head Airport





Airport

ICAO code


  KHXD





IATA Code

HHH




Summary

ICAO Region

NAM



ICAO Territory





United States






 








Location

Hilton Head Island, South Carolina




Serving

Hilton Head Island



Elevation

19 ft



Coordinates



    32°
    13'
          27"
        N
  
      ,
    
    80°
    41'
          50"
        W
  




KCC

Cfa




Metar
KHXD 071415Z VRB04KT 2SM --RA FEW013 FEW034 22/21 A2990








Hilton Head Airport is a public use airport located on Hilton Head Island, in Beaufort County, South Carolina, USA.














Airport map






Aerial View