ENCN








Kristiansand/Kjevik





Airport

ICAO code


  ENCN






Summary

ICAO Region

EUR



ICAO Territory





Norway






 








Location

Kristiansand, Norway,




Elevation

57 ft



Coordinates



    58°
    12'
          15"
        N
  
      ,
    
    8°
    5'
          7"
        E
  




KCC

Cfb




Metar
ENCN 071350Z 04012KT CAVOK 23/14 Q1018








Description
Airport serving Kristiansand, southern Norway.
Climatology
Temperate Marine climate/Oceanic climate (Köppen climate classification Cfb). Moderately cool summer and comparatively warm winter with a temperature range of only 14°C. Prevailing south-westerly winds from the Atlantic Ocean.






Runways






Designator
Length
Width
Surface
Rops




4/22          
2030          
45          
ASP          
Yes/Yes          













Airport map






Aerial View