RCMQ








Taichung Airport





Airport

ICAO code


  RCMQ





IATA Code

RMQ




Summary

ICAO Region

APAC



ICAO Territory





China






 








Location

Taichung, Central Taiwan




Serving

Taichung



Elevation

663 ft



Coordinates



    24°
    15'
          53"
        N
  
      ,
    
    120°
    37'
          30"
        E
  




KCC

Cwa



Airport GND

Foreign Object Debris



Airport RI

Runway Misidentification



Airport WX

Tropical Revolving Storm




Metar
RCMQ 071300Z 09004KT 8000 VCSH FEW010 FEW012CB SCT025 BKN060 27/27 Q1013 NOSIG RMK A2992 CB SW VCSH NE








Taichung Airport, commonly known as Taichung Ching Chuang Kang Airport, is an airport located in Taichung County, Taiwan for both commercial and military purposes.
Climatology
Humid Sub-tropical climate (Köppen climate classification Cwa) - Hot humid summers and cooler winter. Significant precipitation in all seasons but drier in the winter.
Occasional Typhoons coming from South China Sea.






Runways






Designator
Length
Width
Surface
Rops




18/36          
3658          
45          
CON          
Yes/Yes          













Airport map






Aerial View