KTRI








Tri-Cities Regional Airport





Airport

ICAO code


  KTRI






Summary

ICAO Region

NAM



ICAO Territory





United States






 








Location

Blountville, Tennessee,




Coordinates



    36°
    28'
          52"
        N
  
      ,
    
    82°
    24'
          28"
        W
  




KCC

Cfa



Airport WX

Cumulonimbus




Metar
KTRI 071353Z 05003KT 10SM OVC042 17/11 A3002 RMK AO2 SLP147 T01670111 $








Description
Tri-Cities Regional Airport is a public use airport adjacent to Blountville, in Sullivan County, Tennessee. It primarily serves the Tri-Cities area of Bristol, Kingsport and Johnson City in Northeast Tennessee and Southwest Virginia.
Climatology
Humid “subtropical” climate (Köppen climate classification Cfa) - characterized by hot, humid summers and cool winters. Significant amounts of precipitation occur in all seasons in most areas. Winter rainfall (and sometimes snowfall) is associated with large storms that the westerlies steer from west to east. Most summer rainfall occurs during thunderstorms and occasional tropical storms (hurricanes).






Runways






Designator
Length
Width
Surface
Rops




9/27          
1354          
46          
ASP          
Yes/Yes          


5/23          
2448          
46          
ASP          
Yes/Yes          













Airport map






Aerial View