UHBB








Blagoveshchensk/Ignatyevo Airport





Airport

ICAO code


  UHBB






Summary

ICAO Region

EUR



ICAO Territory





Russian Federation






 








Location

Blagoveshchensk,




Coordinates



    50°
    25'
          30"
        N
  
      ,
    
    127°
    24'
          48"
        E
  





Metar
UHBB 071200Z 13002MPS 9999 FEW033 15/06 Q1009 R36/090061 NOSIG RMK QFE739/0986








Description
Ignatyevo Airport is a large airport in Russia located 20 km northwest of Blagoveshchensk.
Climatology
Subarctic climate (Köppen climate classification Dfc) - long, usually very cold winters, and short, cool to mild summers






Runways






Designator
Length
Width
Surface
Rops




18/36          
2821          
45          
ASP          
No/No          













Airport map






Aerial View