OJAM








Amman/Marka





Airport

ICAO code


  OJAM






Summary

ICAO Region

MID



ICAO Territory





Jordan






 








Location

Amman, Jordan,




Coordinates



    31°
    58'
          22"
        N
  
      ,
    
    35°
    59'
          30"
        E
  




KCC

Csa




Metar
OJAM 071300Z 24010KT 7000 FEW035 32/13 Q1013 NOSIG








Description
Military airport.
Climatology
Dry-summer subtropical ”Mediterranean" climate (Köppen climate classification Csa) - characterized by hot, dry summers and mild winters. During the summer, subtropical high pressure cells dominate, making rainfall unlikely except for the occasional thunderstorm. In the winter, periodic storms bring rain.






Runways






Designator
Length
Width
Surface
Rops




6/24          
3275          
45          
ASP          
Yes/Yes          













Airport map






Aerial View