FAGG








George Airport





Airport

ICAO code


  FAGG





IATA Code

GRJ




Summary

ICAO Region

AFI



ICAO Territory





South Africa






 








Location

George, Western Cape




Serving

George



Elevation

648 ft



Coordinates



    34°
    0'
          20"
        S
  
      ,
    
    22°
    22'
          44"
        E
  




KCC

Cfb




Metar
FAGG 071200Z 16007KT 130V200 9999 FEW026 16/08 Q1021








Description
George Airport is an airport located in George, South Africa. It was formerly known as P.W. Botha Airport, named after the state president who lived in this part of the country.
Climatology
Temperate Marine climate/Oceanic climate (Köppen climate classification Cfb). Moderately cool summer and comparatively warm winter.






Runways






Designator
Length
Width
Surface
Rops




2/20          
1220          
30          
COM          
Yes/Yes          


11/29          
2000          
45          
ASP          
Yes/Yes          













Airport map






Aerial View








Airport accidents



C550, vicinity George South Africa, 2020
E135, George South Africa, 2009