MUPB








Playa Baracoa Airport





Airport

ICAO code


  MUPB





IATA Code

UPB




Summary

ICAO Region

CARSAM



ICAO Territory





Cuba






 








Location

Playa Baracoa, Artemisa




Serving

Caimito



Elevation

102 ft



Coordinates



    23°
    1'
          56"
        N
  
      ,
    
    82°
    34'
          55"
        W
  




KCC

Aw




Metar
MUPB 060046Z VRB01KT 8000 -TSRA FEW018CB OVC020 24/23 Q1014 RMK CB AT II III QUAD








Inactive military airport west of the city of Havana, Cuba
Climatology
Tropical Savanna climate (Köppen climate classification Aw)






Runways






Designator
Length
Width
Surface
Rops




2/20          
2305          
45          
ASP          
No/No          













Airport map






Aerial View