KBOS








Logan International Airport





Airport

ICAO code


  KBOS





IATA Code

BOS




Summary

ICAO Region

NAM



ICAO Territory





United States






 








Location

East Boston , Massachusetts




Serving

Boston



Elevation

19 ft



Coordinates



    42°
    21'
          55"
        N
  
      ,
    
    71°
    0'
          27"
        W
  




KCC

Dfa



Airport BS

Bird Strike



Airport LOS

Parallel Runway Operation



Airport RE

Engineered Materials Arresting System




Metar
KBOS 071154Z 33007KT 10SM FEW007 SCT010 BKN250 18/15 A2991 RMK AO2 SLP129 T01780150 10183 20167 56002








Description
General Edward Lawrence Logan International Airport, also know as Boston Logan International Airport, is located in the East Boston neighbourhood of Boston, Massachusetts, United States.














Airport map






Aerial View








Airport accidents



E190 / LJ60, Boston USA, 2023
B788, Boston MA USA, 2013