MMTP








Tapachula International Airport





Airport

ICAO code


  MMTP





IATA Code

TAP




Summary

ICAO Region

CARSAM



ICAO Territory





Mexico






 








Location

Tapachula, Chiapas




Serving

Tapachula



Elevation

97 ft



Coordinates



    14°
    47'
          40"
        N
  
      ,
    
    92°
    22'
          12"
        W
  




KCC

Aw




Metar
MMTP 062245Z 22005KT 8SM SCT020 BKN060 30/25 A2971 RMK 8/470 HZY FRMG CB N OCNL LTGIC








Tapachula International Airport is an international airport located at Tapachula, Chiapas, Mexico, and is Mexico's southernmost airport.
Climatology
Tropical Savannah Climate (Köppen climate classification Aw)






Runways






Designator
Length
Width
Surface
Rops




5/23          
2000          
45          
ASP          
No/No          













Airport map






Aerial View