ENLK








Leknes Airport





Airport

ICAO code


  ENLK





IATA Code

LKN




Summary

ICAO Region

EUR



ICAO Territory





Norway






 








Location

Leknes, Nordland




Serving

Leknes



Elevation

79 ft



Coordinates



    68°
    9'
          14"
        N
  
      ,
    
    13°
    36'
          45"
        E
  




KCC

Cfc




Metar
ENLK 071350Z VRB04KT 9999 SCT010 SCT020 14/11 Q1018








Description
Regional airport serving the town of Leknes, Lofted Islands, northern Norway.
Climatology
Subpolar Oceanic climate (Köppen climate classification Cfc) - uniform precipitation distribution, temperatures are moderated by the proximity of the ocean and warm currents - cool summers and comparatively mild winters.






Runways






Designator
Length
Width
Surface
Rops




3/21          
878          
0          
ASP          
No/No          













Airport map






Aerial View