VVVD








Van Don International Airport





Airport

ICAO code


  VVVD





IATA Code

VDO




Summary

ICAO Region

APAC



ICAO Territory





Vietnam






 








Location

Van Don, Quang Ninh




Serving

Ha Long Bay



Coordinates



    21°
    7'
          4"
        N
  
      ,
    
    107°
    24'
          51"
        E
  




KCC

Cwa




Metar
VVVD 071300Z 25020G30KT 8000 -RA BKN013 OVC025 27/26 Q0998 NOSIG








Van Don International Airport or Ha Long Airport, is an airport in Vân Đồn District, Quảng Ninh Province, Vietnam, home to World Heritage Ha Long Bay.
Climatology
Humid subtropical climate (Köppen climate classification Cwa)














Airport map






Aerial View