ENSO








Stord/Sørstokken Airport





Airport

ICAO code


  ENSO





IATA Code

SRP




Summary

ICAO Region

EUR



ICAO Territory





Norway






 








Location

Sørstokken, Hordaland,




Serving

Stord



Elevation

160 ft



Coordinates



    59°
    47'
          25"
        N
  
      ,
    
    5°
    20'
          28"
        E
  




KCC

Cfb




Metar
ENSO 061650Z 34007KT CAVOK 23/13 Q1021








Description
Stord Airport, Sørstokken is a regional airport located 13 km west of Leirvik, in the municipality and island of Stord, Norway.
Climatology
Temperate Marine climate/Oceanic climate (Köppen climate classification Cfb). Moderately cool summer and comparatively warm winter with a temperature range of only 14°C. Prevailing south-westerly winds from the Atlantic Ocean.






Runways






Designator
Length
Width
Surface
Rops




15/33          
1200          
30          
ASP          
Yes/Yes          













Airport map






Aerial View








Airport accidents



B462, Stord Norway, 2006