EIKN








Ireland West Airport Knock





Airport

ICAO code


  EIKN






Summary

ICAO Region

EUR



ICAO Territory





Ireland






 








Location

Charlestown, County Mayo,




Coordinates



    53°
    54'
          51"
        N
  
      ,
    
    8°
    48'
          39"
        W
  




KCC

Cfb



Airport BS

Bird Strike




Metar
EIKN 071300Z 06003KT 9999 FEW020 SCT250 21/16 Q1012 NOSIG








Description
Ireland West Airport Knock (Irish: Aerfort Iarthar Éireann) is an airport located 3 NM south-west of Charlestown, County Mayo, Ireland. The airport was formerly known as Knock International Airport, Connacht Regional Airport, and Horan International Airport.
Climatology
Temperate Marine climate/Oceanic climate (Köppen climate classification Cfb). Moderately cool summer and comparatively warm winter with a temperature range of only 14°C. Prevailing south-westerly winds from the Atlantic Ocean.






Runways






Designator
Length
Width
Surface
Rops




9/27          
2300          
45          
ASP          
Yes/Yes          













Airport map






Aerial View








Airport accidents



B738, Knock Ireland, 2009