LGLM








Lemnos International Airport





Airport

ICAO code


  LGLM





IATA Code

LXS




Summary

ICAO Region

EUR



ICAO Territory





Greece






 








Location

Gravia, Lemnos




Serving

Lemnos



Elevation

14 ft



Coordinates



    39°
    55'
          7"
        N
  
      ,
    
    25°
    14'
          10"
        E
  




KCC

Csa




Metar
LGLM 071350Z 04010KT CAVOK 29/17 Q1014








Lemnos International Airport "Hephaestus" is an airport on Lemnos Island, Greece.
Climatology
Warm mediterranean climate (Köppen climate classification Csa)






Runways






Designator
Length
Width
Surface
Rops




04R/22L          
3016          
45          
ASP          
Yes/Yes          













Airport map






Aerial View