LFSO








Nancy-Ochey (BA 133) Air Base





Airport

ICAO code


  LFSO






Summary

ICAO Region

EUR



ICAO Territory





France






 








Location

, Lorraine




Serving

Nancy



Elevation

1106 ft



Coordinates



    48°
    34'
          59"
        N
  
      ,
    
    5°
    57'
          18"
        E
  





Metar
LFSO 071400Z AUTO 09007KT 050V130 CAVOK 28/17 Q1010 TEMPO SHRA SCT030CB









Runways






Designator
Length
Width
Surface
Rops




2/20          
2401          
45          
CON          
No/No          













Airport map






Aerial View