RJTO








Oshima Airport





Airport

ICAO code


  RJTO





IATA Code

OIM




Summary

ICAO Region

APAC



ICAO Territory





Japan






 








Location

Oshima, Tokyo




Serving

Tokyo



Elevation

124 ft



Coordinates



    34°
    46'
          55"
        N
  
      ,
    
    139°
    21'
          41"
        E
  




KCC

Cfa




Metar
RJTO 070100Z 20010KT 9999 FEW015 30/26 Q1014








Oshima Airport is an airport located on the island of Izu Ōshima, Tokyo, Japan.
Climatology
Humid Sub-tropical climate (Köppen climate classification Cfa)






Runways






Designator
Length
Width
Surface
Rops




3/21          
1800          
46          
ASP          
Yes/Yes          













Airport map






Aerial View