KEVV








Evansville Regional Airport





Airport

ICAO code


  KEVV





IATA Code

EVV




Summary

ICAO Region

NAM



ICAO Territory





United States






 








Location

Evansville,  Indiana




Serving

Evansville



Elevation

422 ft



Coordinates



    38°
    2'
          49"
        N
  
      ,
    
    87°
    31'
          46"
        W
  




KCC

Cfa



Airport WX

Cumulonimbus




Metar
KEVV 071354Z 02011G17KT 10SM CLR 18/08 A3018 RMK AO2 SLP216 T01780083








Evansville Regional Airport is a public use airport located 3 nm north of the central business district of Evansville, a city in Vanderburgh County, Indiana, USA.














Airport map






Aerial View