LERS








Reus Airport





Airport

ICAO code


  LERS





IATA Code

REU




Summary

ICAO Region

EUR



ICAO Territory





Spain






 








Location

Reus, Catalonia




Serving

Reus



Elevation

233 ft



Coordinates



    41°
    8'
          51"
        N
  
      ,
    
    1°
    10'
          2"
        E
  





Metar
LERS 071400Z VRB07KT 9999 SCT025 29/22 Q1009









Runways






Designator
Length
Width
Surface
Rops




12/30          
950          
35          
GRE          
No/No          


7/25          
2455          
45          
ASP          
Yes/Yes          













Airport map






Aerial View








Airport accidents



B738 / DV20, vicinity Reus Spain, 2019