KGTR








Golden Triangle Regional Airport





Airport

ICAO code


  KGTR





IATA Code

GTR




Summary

ICAO Region

NAM



ICAO Territory





United States






 








Location

Starkville, Mississippi




Serving

Golden Triangle



Elevation

264 ft



Coordinates



    33°
    27'
          1"
        N
  
      ,
    
    88°
    35'
          28"
        W
  




KCC

Cfa




Metar
KGTR 071356Z 03008KT 10SM OVC008 21/21 A3000 RMK AO2 CIG 007V011 SLP164 T02110206








Golden Triangle Regional Airport is a public use airport in Lowndes County, Mississippi, United States. The airport is located midway between the cities of Columbus, Starkville, and West Point, Mississippi and serves the area known as the Golden Triangle.
 














Airport map






Aerial View