KIND








Indianapolis International Airport





Airport

ICAO code


  KIND





IATA Code

IND




Summary

ICAO Region

NAM



ICAO Territory





United States






 








Location

Indianapolis, Indiana




Serving

Indianapolis



Elevation

797 ft



Coordinates



    39°
    42'
          54"
        N
  
      ,
    
    86°
    17'
          46"
        W
  




KCC

Dfa



Airport LOS

Parallel Runway Operation



Airport WX

Cumulonimbus




Metar
KIND 071154Z 33006KT 10SM FEW250 11/08 A3015 RMK AO2 SLP208 70005 T01060078 10128 20094 53010








Indianapolis International Airport is a public airport located 7 nm southwest of the central business district of Indianapolis, a city in Marion County, Indiana, USA.
 














Airport map






Aerial View