LTBS








Dalaman Airport





Airport

ICAO code


  LTBS





IATA Code

DLM




Summary

ICAO Region

EUR



ICAO Territory





Turkey






 








Location

Dalaman,




Serving

Dalaman



Elevation

20 ft



Coordinates



    36°
    42'
          45"
        N
  
      ,
    
    28°
    47'
          29"
        E
  




KCC

Csa



Airport RI

Runway Misidentification




Metar
LTBS 071150Z 19012KT 9999 FEW035 34/18 Q1008 NOSIG








Description
International airport serving south-west Turkey, located 3 nm south of the town of Dalaman and with high ground to the north, east, and west.
Climatology
Typical Mediterranean climate with hot dry summers and mild, wet winters (Köppen climate classification Csa).






Runways






Designator
Length
Width
Surface
Rops




1/19          
3000          
45          
CON          
Yes/Yes          













Airport map






Aerial View