EGHQ








Cornwall Airport Newquay





Airport

ICAO code


  EGHQ





IATA Code

NQY




Summary

ICAO Region

EUR



ICAO Territory





United Kingdom






 








Location

Mawgan in Pydar, Cornwall




Serving

Newquay



Elevation

390 ft



Coordinates



    50°
    26'
          27"
        N
  
      ,
    
    4°
    59'
          43"
        W
  




KCC

Cfb




Metar
EGHQ 071220Z 01007KT 340V040 9999 FEW008 16/15 Q1010








Cornwall Airport Newquay is the main commercial airport for Cornwall, United Kingdom, located 4 nm northeast of the town of Newquay on Cornwall's north coast. 






Runways






Designator
Length
Width
Surface
Rops




13/31          
2745          
87          
ASP          
No/No          













Airport map






Aerial View