SVSA








Juan Vicente Gómez International Airport





Airport

ICAO code


  SVSA





IATA Code

SVZ




Summary

ICAO Region

CARSAM



ICAO Territory





Venezuela






 








Location

San Antonio del Táchira, Tachira




Serving

San Antonio del Táchira



Elevation

1312 ft



Coordinates



    7°
    50'
          24"
        N
  
      ,
    
    72°
    26'
          23"
        W
  




KCC

Aw




Metar
SVSA 071503Z AUTO 15006KT NCD 30/18 Q1011








Juan Vicente Gómez International Airport, is an airport serving San Antonio del Táchira, in the Táchira state of Venezuela.
Climatology
Tropical savanna climate (Köppen climate classification Aw)






Runways






Designator
Length
Width
Surface
Rops




17/35          
1870          
40          
ASP          
No/No          













Airport map






Aerial View