KPHF








Newport News/Williamsburg International Airport





Airport

ICAO code


  KPHF






Summary

ICAO Region

NAM



ICAO Territory





United States






 








Location

Newport News, Virginia,




Coordinates



    37°
    7'
          54"
        N
  
      ,
    
    76°
    29'
          34"
        W
  




KCC

Cfa




Metar
KPHF 071426Z 18008KT 10SM BKN010 BKN020 21/21 A2987 RMK AO2 T02110206








Description
Newport News/Williamsburg International Airport is a public use international airport located in Newport News, Virginia.
Climatology
Humid “subtropical” climate (Köppen climate classification Cfa) - characterized by hot, humid summers and cool winters. Significant amounts of precipitation occur in all seasons in most areas. Winter rainfall (and sometimes snowfall) is associated with large storms that the westerlies steer from west to east. Most summer rainfall occurs during thunderstorms and occasional tropical storms (hurricanes).






Runways






Designator
Length
Width
Surface
Rops




2/20          
1989          
46          
CON          
Yes/Yes          


7/25          
2439          
46          
CON          
Yes/Yes          













Airport map






Aerial View