KCLE








Cleveland Hopkins International Airport





Airport

ICAO code


  KCLE





IATA Code

CLE




Summary

ICAO Region

NAM



ICAO Territory





United States






 








Location

Hopkins, OHIO




Serving

Cleveland



Elevation

800 ft



Coordinates



    41°
    24'
          37"
        N
  
      ,
    
    81°
    51'
          10"
        W
  




KCC

Dfa



Airport WX

Lake Effect Snow




Metar
KCLE 071351Z 31011KT 10SM BKN048 15/09 A3000 RMK AO2 SLP174 T01500089








Description
Cleveland Hopkins International Airport is a public airport located 9 nm southwest of the central business district of Cleveland, a city in Cuyahoga County, Ohio, United States.














Airport map






Aerial View








Airport accidents



E145 / DH8B, Cleveland USA, 2009
E170, Cleveland OH USA, 2007