EGBJ








Gloucestershire Airport





Airport

ICAO code


  EGBJ





IATA Code

GLO




Summary

ICAO Region

EUR



ICAO Territory





United Kingdom






 








Location

Staverton, Gloucestershire, England




Serving

Gloucester



Elevation

101 ft



Coordinates



    51°
    53'
          37"
        N
  
      ,
    
    2°
    9'
          52"
        W
  





Metar
EGBJ 071420Z 00000KT 9999 FEW010 SCT014 21/16 Q1009








Description
Gloucestershire Airport, formerly Staverton Airport, is located at Staverton, in the Borough of Tewkesbury within Gloucestershire, England. It lies 3.5 nm west of Cheltenham, near the city of Gloucester and close to the M5 motorway.






Runways






Designator
Length
Width
Surface
Rops




18/36          
800          
18          
ASP          
No/No          


4/22          
981          
34          
ASP          
No/No          


9/27          
1419          
34          
ASP          
No/No          













Airport map






Aerial View