MDAB








Arroyo Barril International Airport





Airport

ICAO code


  MDAB





IATA Code

EPS




Summary

ICAO Region

CARSAM



ICAO Territory





Dominican Republic






 








Location

Los Robalos, Samaná Province




Serving

Samaná



Elevation

57 ft



Coordinates



    19°
    12'
          6"
        N
  
      ,
    
    69°
    25'
          57"
        W
  




KCC

Af




Metar
MDAB 071300Z 00000KT 9999 FEW018 SCT300 27/25 Q1012








Arroyo Barril Airport is located in the Samaná province of the Dominican Republic. The airport is used for domestic flights.
Climatology
Tropical rainforest climate (Köppen climate classification Af)






Runways






Designator
Length
Width
Surface
Rops




11/29          
1167          
25          
ASP          
No/No          













Airport map






Aerial View