KMUO








Mountain Home Air Force Base





Airport

ICAO code


  KMUO





IATA Code

MUO




Summary

ICAO Region

NAM



ICAO Territory





United States






 








Location

Mountain Home, Idaho




Serving

Mountain Home



Elevation

2996 ft



Coordinates



    43°
    2'
          25"
        N
  
      ,
    
    115°
    52'
          9"
        W
  




KCC

BSk



Airport CFIT

Altimeter Temperature Error Correction




Metar
KMUO 071355Z 00000KT 10SM CLR 13/02 A3005 RMK AO2A SLP152 T01320024 $








Mountain Home Air Force Base is a United States Air Force installation located in Elmore County, 12 nm southwest of the city of Mountain Home, USA.






Runways






Designator
Length
Width
Surface
Rops




7/25          
3048          
152          
ASP          
No/No          


12/30          
4115          
61          
PEM          
Yes/Yes          













Airport map






Aerial View