CYTS








Timmins Victor M. Power Airport





Airport

ICAO code


  CYTS






Summary

ICAO Region

NAM



ICAO Territory





Canada






 








Location

Timmins, Ontario,




Coordinates



    48°
    34'
          11"
        N
  
      ,
    
    81°
    22'
          36"
        W
  




KCC

Dfb



Airport BS

Bird Strike



Airport CFIT

Altimeter Temperature Error Correction



Airport GND

Aircraft Ground De/Anti Icing



Airport RE

Landing on Contaminated Runways




Metar
CYTS 071400Z 33012G23KT 12SM -DZ OVC020 05/03 A3008 RMK ST8 SLP201








Description
Regional airport located 6 miles northwest of Timmins, Ontario, Canada.
Climatology
Humid Continental climate (Köppen climate classification Dfb) - Variable weather patterns and a large seasonal temperature variance. Summers are often warm and humid with frequent thunderstorms and winters can be very cold with frequent snowfall and persistent snow cover.






Runways






Designator
Length
Width
Surface
Rops




10/28          
1494          
46          
ASP          
Yes/Yes          


3/21          
1829          
46          
ASP          
Yes/Yes          













Airport map






Aerial View