KCLL








Easterwood Airport





Airport

ICAO code


  KCLL





IATA Code

CLL




Summary

ICAO Region

NAM



ICAO Territory





United States






 








Location

College Station, Texas




Serving

Bryan-College Station



Elevation

321 ft



Coordinates



    30°
    35'
          37"
        N
  
      ,
    
    96°
    21'
          59"
        W
  




KCC

Cfa




Metar
KCLL 071353Z 03012G22KT 10SM CLR 25/19 A3001 RMK AO2 PK WND 03026/1328 SLP159 T02500189








Easterwood Airport, also known as Easterwood Field, is a public use, regional airport serving Texas A&M University, Bryan-College Station and Brazos County, located 3 nm southwest of College Station, Texas, USA.














Airport map






Aerial View