PAKH








Akhiok Airport





Airport

ICAO code


  PAKH





IATA Code

AKK




Summary

ICAO Region

NAM



ICAO Territory





Alaska






 








Location

Akhiok, Alaska




Serving

Akhiok



Elevation

44 ft



Coordinates



    56°
    56'
          19"
        N
  
      ,
    
    154°
    10'
          57"
        W
  





Metar
PAKH 071256Z AUTO 09004KT 10SM OVC070 11/10 A2993 RMK AO2 SLP134 T01110100 PNO $









Runways






Designator
Length
Width
Surface
Rops




4/22          
951          
15          
GRAVEL-G          
No/No          













Airport map






Aerial View