ENTO








Sandefjord/Torp





Airport

ICAO code


  ENTO






Summary

ICAO Region

EUR



ICAO Territory





Norway






 








Location

Stokke, Norway,




Elevation

286 ft



Coordinates



    59°
    11'
          12"
        N
  
      ,
    
    10°
    15'
          31"
        E
  




KCC

Cfb




Metar
ENTO 071350Z 05006KT 360V100 CAVOK 23/13 Q1020 NOSIG








Description
Sandefjord Airport, Torp is an second level international airport located 4 nm northeast of Sandefjord, Norway.
Climatology
Temperate Marine climate/Oceanic climate (Köppen climate classification Cfb). Moderately cool summer and comparatively warm winter with a temperature range of only 14°C. Prevailing south-westerly winds from the Atlantic Ocean.






Runways






Designator
Length
Width
Surface
Rops




18/36          
2949          
45          
ASP          
Yes/Yes          













Airport map






Aerial View








Airport accidents



A321, Sandefjord Norway, 2006