LFPT








Pontoise - Cormeilles-en-Vexin Airport





Airport

ICAO code


  LFPT





IATA Code

POX




Summary

ICAO Region

EUR



ICAO Territory





France






 








Location

, Ile-de-France




Serving

Pontoise



Elevation

325 ft



Coordinates



    49°
    5'
          48"
        N
  
      ,
    
    2°
    2'
          27"
        E
  





Metar
LFPT 071400Z AUTO 10003KT 060V140 9999 SCT019 BKN025 BKN033 21/17 Q1008









Runways






Designator
Length
Width
Surface
Rops




12/30          
1650          
50          
ASP          
Yes/Yes          


5/23          
1689          
50          
ASP          
Yes/Yes          













Airport map






Aerial View