KIAD








Washington/Dulles





Airport

ICAO code


  KIAD






Summary

ICAO Region

NAM



ICAO Territory





United States






 








Location

Dulles, Virginia,




Elevation

312 ft



Coordinates



    38°
    57'
          3"
        N
  
      ,
    
    77°
    26'
          51"
        W
  




KCC

Cfa



Airport LOS

Parallel Runway Operation




Metar
KIAD 071352Z 27007KT 10SM FEW019 OVC065 21/17 A2987 RMK AO2 SLP114 T02110167








Description
Washington Dulles International Airport is a public airport located 41.6 km west of the central business district of Washington, D.C., in Dulles, Virginia. It serves the greater Washington, D.C., metropolitan area.
Climatology
Humid “subtropical” climate (Köppen climate classification Cfa) - characterized by hot, humid summers and cool winters. Significant amounts of precipitation occur in all seasons in most areas. Winter rainfall (and sometimes snowfall) is associated with large storms that the westerlies steer from west to east. Most summer rainfall occurs during thunderstorms and occasional tropical storms (hurricanes).














Airport map






Aerial View








Airport accidents



CRJ2, Washington Dulles VA USA, 2002