LIBD








Bari/Karol Wojtyła Airport





Airport

ICAO code


  LIBD





IATA Code

BRI




Summary

ICAO Region

EUR



ICAO Territory





Italy






 








Location

Palese, Puglia




Serving

Bari



Elevation

177 ft



Coordinates



    41°
    8'
          16"
        N
  
      ,
    
    16°
    45'
          41"
        E
  




KCC

Csa




Metar
LIBD 071220Z 05007KT 010V100 CAVOK 30/22 Q1015








International airport serving city of Bari, Italy.
Climatology
Dry-summer subtropical ”Mediterranean" climate (Köppen climate classification Csa) - characterized by hot, dry summers and mild winters. During the summer, subtropical high pressure cells dominate, making rainfall unlikely except for the occasional thunderstorm. In the winter, periodic storms bring rain (snow at higher elevations).






Runways






Designator
Length
Width
Surface
Rops




7/25          
2440          
45          
ASP          
Yes/Yes          













Airport map






Aerial View