UTAK








Turkmenbashi International Airport





Airport

ICAO code


  UTAK





IATA Code

KRW




Summary

ICAO Region

EUR



ICAO Territory





Turkmenistan






 








Location

Turkmenbashi, Turkmenistan,




Serving

Turkmenbashi



Elevation

282 ft



Coordinates



    40°
    1'
          60"
        N
  
      ,
    
    52°
    58'
          60"
        E
  





Metar
UTAK 071400Z 09016KT CAVOK 30/M00 Q1017 R16R/CLRD70 NOSIG









Runways






Designator
Length
Width
Surface
Rops




16/34          
2500          
44          
CON          
No/No          













Airport map






Aerial View