LFLU








Valence-Chabeuil Airport





Airport

ICAO code


  LFLU





IATA Code

VAF




Summary

ICAO Region

EUR



ICAO Territory





France






 








Location

, Rhone-Alpes




Serving

Valence



Elevation

525 ft



Coordinates



    44°
    55'
          18"
        N
  
      ,
    
    4°
    58'
          12"
        E
  





Metar
LFLU 071400Z AUTO 17022KT 9999 ///TCU 32/18 Q1007









Runways






Designator
Length
Width
Surface
Rops




1/19          
2100          
45          
ASP          
No/No          













Airport map






Aerial View