ETHB








Bückeburg Air Base





Airport

ICAO code


  ETHB






Summary

ICAO Region

EUR



ICAO Territory





Germany






 








Location

Bückeburg, Lower Saxony,




Coordinates



    52°
    16'
          42"
        N
  
      ,
    
    9°
    4'
          55"
        E
  





Metar
ETHB 071420Z 14004KT 9999 FEW055 BKN350 29/15 Q1011 BLU+








Description
Bückeburg Air Base is located northeast of the city of Bückeburg, Lower Saxony, Germany.






Runways






Designator
Length
Width
Surface
Rops




8/26          
1832          
45          
ASP          
No/No          













Airport map






Aerial View