EGPH








Edinburgh Airport





Airport

ICAO code


  EGPH





IATA Code

EDI




Summary

ICAO Region

EUR



ICAO Territory





United Kingdom






 








Location

Turnhouse, Scotland




Serving

Edinburgh



Elevation

136 ft



Coordinates



    55°
    56'
          57"
        N
  
      ,
    
    3°
    21'
          31"
        W
  




KCC

Cfb




Metar
EGPH 071420Z 07005KT 030V120 7000 OVC003 16/15 Q1013








Description
Domestic and international airport serving the Scottish City of Edinburgh and the surrounding region.
Climatology
Temperate Marine climate/Oceanic climate (Köppen climate classification Cfb). Moderately cool summer and comparatively warm winter with a temperature range of only 14°C. Prevailing south-westerly winds from the Atlantic Ocean.






Runways






Designator
Length
Width
Surface
Rops




8/26          
799          
46          
ASP          
No/No          


12/30          
1747          
46          
ASP          
Yes/Yes          


6/24          
2560          
46          
ASP          
Yes/Yes          













Airport map






Aerial View








Airport accidents



SH36, vicinity Edinburgh UK, 2001
B738 / A320, Edinburgh UK, 2018
DH8D, vicinity Edinburgh UK, 2008