LRSV








Suceava Stefan cel Mare Airport





Airport

ICAO code


  LRSV





IATA Code

SCV




Summary

ICAO Region

EUR



ICAO Territory





Romania






 








Location

, Suceava




Serving

Suceava



Elevation

1375 ft



Coordinates



    47°
    41'
          15"
        N
  
      ,
    
    26°
    21'
          15"
        E
  





Metar
LRSV 071200Z 11011KT 9999 SCT045 26/09 Q1023









Runways






Designator
Length
Width
Surface
Rops




16/34          
1800          
30          
CON          
No/No          













Airport map






Aerial View