KVAD








Moody Air Force Base





Airport

ICAO code


  KVAD





IATA Code

VAD




Summary

ICAO Region

NAM



ICAO Territory





United States






 








Location

Valdosta, Georgia




Serving

Valdosta



Elevation

233 ft



Coordinates



    30°
    58'
          7"
        N
  
      ,
    
    83°
    11'
          35"
        W
  




KCC

Cfa




Metar
KVAD 071440Z AUTO 04007KT 10SM OVC006 22/21 A2991 RMK AO2 SLP129 $








Moody Air Force Base is a United States Air Force installation located in Lowndes County and Lanier County, about 10 nm northeast of Valdosta, Georgia, USA.






Runways






Designator
Length
Width
Surface
Rops




18R/36L          
2438          
46          
PEM          
Yes/Yes          


18L/36R          
2835          
46          
CON          
Yes/Yes          













Airport map






Aerial View