HKLO








Lodwar Airport





Airport

ICAO code


  HKLO





IATA Code

LOK




Summary

ICAO Region

AFI



ICAO Territory





Kenya






 








Location

Lodwar, Turkana County




Serving

Lodwar



Elevation

1715 ft



Coordinates



    3°
    7'
          17"
        N
  
      ,
    
    35°
    36'
          20"
        E
  




KCC

BWh




Metar
HKLO 071300Z 09003KT 9999 FEW035 36/12 Q1008








Lodwar Airport is located in Turkana County, in the town of Lodwar, in the northwestern part of the Republic of Kenya.
Climatology
Warm desert climate (Köppen climate classification BWh)






Runways






Designator
Length
Width
Surface
Rops




9/27          
0          
0          
UNK          
No/No          


09L/27R          
501          
20          
GRE          
No/No          


09R/27L          
1000          
20          
ASP          
No/No          













Airport map






Aerial View