KLFI








Langley Air Force Base





Airport

ICAO code


  KLFI





IATA Code

LFI




Summary

ICAO Region

NAM



ICAO Territory





United States






 








Location

Hampton, Virginia




Serving

Hampton



Elevation

8 ft



Coordinates



    37°
    5'
          1"
        N
  
      ,
    
    76°
    21'
          33"
        W
  




KCC

Cfa




Metar
KLFI 071427Z 19006KT 10SM SCT008 SCT015 SCT080 OVC250 22/21 A2986 RMK AO2A RAE17DZB18E27 SLP118








Langley Air Force Base, also known as Langley Field, is a United States military facility located adjacent to Hampton and Newport News, Virginia. On 1 October 2010, Langley AFB was joined with Fort Eustis to become Joint Base Langley–Eustis.






Runways






Designator
Length
Width
Surface
Rops




8/26          
3048          
46          
CON          
Yes/Yes          













Airport map






Aerial View