MMLM








Valle del Fuerte International Airport





Airport

ICAO code


  MMLM





IATA Code

LMM




Summary

ICAO Region

CARSAM



ICAO Territory





Mexico






 








Location

Plan de Guadalupe, Sinaloa




Serving

Los Mochis



Elevation

16 ft



Coordinates



    25°
    41'
          7"
        N
  
      ,
    
    109°
    4'
          51"
        W
  




KCC

BWh




Metar
MMLM 070044Z 27014KT 10SM BKN100 34/24 A2974 RMK 8/030








Valle del Fuerte Federal International Airport or commonly named Los Mochis International Airport is the airport serving Los Mochis, Sinaloa, Mexico.
Climatology
Hot Desert Climate (Köppen climate classification BWh)






Runways






Designator
Length
Width
Surface
Rops




9/27          
2000          
45          
ASP          
Yes/Yes          













Airport map






Aerial View