ULAA








Talagi/Arkhangelsk International





Airport

ICAO code


  ULAA






Summary

ICAO Region

EUR



ICAO Territory





Russian Federation






 








Location

Arkhangelsk,




Coordinates



    64°
    35'
          60"
        N
  
      ,
    
    40°
    43'
          0"
        E
  





Metar
ULAA 071230Z 28006MPS 240V330 9999 SCT045 25/15 Q1021 R26/CLRD70 NOSIG RMK QFE764/1019








Description
Talagi Airport is an international airport serving Arkhangelsk, Russia, located 11 km outside the city.
Climatology
Subarctic climate (Köppen climate classification Dfc) - long, usually very cold winters, and short, cool to mild summers






Runways






Designator
Length
Width
Surface
Rops




8/26          
2500          
44          
CON          
Yes/Yes          













Airport map






Aerial View