UBEE








Yevlakh Airport





Airport

ICAO code


  UBEE





IATA Code

YLV




Summary

ICAO Region

APAC



ICAO Territory





Azerbaijan






 








Location

Yevlakh, Yevlakh




Serving

Yevlakh



Coordinates



    40°
    38'
          3"
        N
  
      ,
    
    47°
    8'
          21"
        E
  




KCC

BSk




Metar
UBEE 071542Z 11004KT 9999 FEW050CB BKN100 23/13 Q1018 NOSIG








Yevlax Airport is an airport serving the city of Yevlax in Azerbaijan.
Climatology
Cool Steppe climate (Köppen climate classification BSk)














Airport map






Aerial View