PAHO








Homer Airport





Airport

ICAO code


  PAHO






Summary

ICAO Region

NAM



ICAO Territory





Alaska






 








Location

Homer,




Coordinates



    59°
    38'
          44"
        N
  
      ,
    
    151°
    28'
          35"
        W
  




KCC

Dfc



Airport BS

Bird Strike
Non Avian Wildlife Hazards to Aircraft



Airport CFIT

Altimeter Temperature Error Correction




Metar
PAHO 071255Z 05003KT 3SM BR SCT001 OVC031 09/08 A2991 RMK AO2 T00890078








Description
Regional airport serving Homer, Alaska.
Climatology
Cool continental climate/Subarctic climate (Köppen climate classification Dfc)






Runways






Designator
Length
Width
Surface
Rops




3/21          
2042          
46          
ASP          
Yes/Yes          













Airport map






Aerial View