KBLI








Bellingham International Airport





Airport

ICAO code


  KBLI





IATA Code

BLI




Summary

ICAO Region

NAM



ICAO Territory





United States






 








Location

Bellingham , Washington




Serving

Vancouver, BC and Bellingham WA



Elevation

170 ft



Coordinates



    48°
    47'
          44"
        N
  
      ,
    
    122°
    32'
          15"
        W
  




KCC

Csb




Metar
KBLI 071353Z 00000KT 10SM R16/1600VP6000FT CLR 13/13 A2993 RMK AO2 SLP140 T01280128








Description
Bellingham International Airport is a public use airport located 3 nm northwest of Bellingham, in Whatcom County, Washington, USA.
 














Airport map






Aerial View