SKUI








El Caraño Airport





Airport

ICAO code


  SKUI





IATA Code

UIB




Summary

ICAO Region

CARSAM



ICAO Territory





Colombia






 








Location

Quibdo, Choco Department




Serving

Quibdo



Elevation

204 ft



Coordinates



    5°
    41'
          28"
        N
  
      ,
    
    76°
    38'
          39"
        W
  




KCC

Af




Metar
SKUI 071200Z 00000KT 6000 -DZ SCT008 OVC080 24/24 Q1009 RETS








Alvano Rey Zuniga "El Caraño" Airport is an airport serving Quibdó in the Chocó Department of Colombia.
Climatology
Tropical rainforest climate (Köppen climate classification Af)






Runways






Designator
Length
Width
Surface
Rops




13/31          
1400          
30          
ASP          
No/No          













Airport map






Aerial View