KDLF








Laughlin Air Force Base





Airport

ICAO code


  KDLF





IATA Code

DLF




Summary

ICAO Region

NAM



ICAO Territory





United States






 








Location

Del Rio, Texas




Serving

Del Rio



Elevation

1082 ft



Coordinates



    29°
    21'
          20"
        N
  
      ,
    
    100°
    47'
          2"
        W
  




KCC

BSh



Airport LOS

Parallel Runway Operation



Airport WX

Tropical Revolving Storm




Metar
KDLF 071355Z AUTO 33007KT 10SM CLR 25/19 A3007 RMK AO2 SLP170 T02470188 $








Laughlin Air Force Base is a facility of the United States Air Force which is located 6 nm east of the central business district of Del Rio, Texas, USA.














Airport map






Aerial View