KFAT








Fresno Yosemite International Airport





Airport

ICAO code


  KFAT





IATA Code

FAT




Summary

ICAO Region

NAM



ICAO Territory





United States






 








Location

Fresno, California




Serving

Fresno



Elevation

336 ft



Coordinates



    36°
    46'
          34"
        N
  
      ,
    
    119°
    43'
          4"
        W
  




KCC

Csa



Airport LOS

Parallel Runway Operation




Metar
KFAT 071353Z 26005KT 10SM FEW100 SCT150 23/12 A2989 RMK AO2 SLP116 T02330122








Fresno Yosemite International Airport, formerly known as Fresno Air Terminal, is a joint civil-military (ANG) airport located in eastern Fresno, in Fresno County, California, USA.














Airport map






Aerial View