PAIM








Indian Mountain LRRS Airport





Airport

ICAO code


  PAIM





IATA Code

UTO




Summary

ICAO Region

NAM



ICAO Territory





Alaska






 








Location

Utopia Creek, Alaska




Serving

Indian Mountains



Elevation

1273 ft



Coordinates



    65°
    59'
          34"
        N
  
      ,
    
    153°
    42'
          15"
        W
  





Metar
PAIM 071312Z AUTO 23012KT 8SM BKN001 03/03 A2977 RMK AO2 SLP087









Runways






Designator
Length
Width
Surface
Rops




6/24          
1250          
37          
GVL          
No/No          













Airport map






Aerial View