UCFO








Osh





Airport

ICAO code


  UCFO





IATA Code

OSS




Summary

ICAO Region

APAC



ICAO Territory





Kyrgyzstan






 








Location

Osh,




Serving

Osh



Elevation

2927 ft



Coordinates



    40°
    36'
          28"
        N
  
      ,
    
    72°
    47'
          11"
        E
  




KCC

BSk




Metar
UCFO 071500Z 14002MPS 5000 FU FEW050 14/08 Q1021 NOSIG








Description
Osh Airport is an airport serving Osh, a city in the Osh province (oblast) of Kyrgyzstan.
Climatology
Cold Semi-arid climate (Köppen climate classification BSk). - Hot, sometimes extremely hot summers and cold, sometimes very cold winters. Some snowfall during the winter. Areas featuring cold semi-arid climates are sometimes subject to major temperature swings during a 24 hour period.














Airport map






Aerial View