SBTT








Tabatinga International Airport





Airport

ICAO code


  SBTT





IATA Code

TBT




Summary

ICAO Region

CARSAM



ICAO Territory





Brazil






 








Location

Tabatinga, Amazonas




Serving

Tabatinga



Elevation

279 ft



Coordinates



    4°
    15'
          25"
        S
  
      ,
    
    69°
    56'
          16"
        W
  




KCC

Af




Metar
SBTT 071300Z 36004KT 3000 -RA BR BKN060 22/22 Q1014








Tabatinga International Airport (IATA: TBT, ICAO: SBTT) is the airport serving Tabatinga, Brazil, located by the border with Colombia and Peru.
Climatology
Tropical rainforest climate (Köppen climate classification Af)






Runways






Designator
Length
Width
Surface
Rops




12/30          
2150          
30          
ASP          
No/No          













Airport map






Aerial View