LFMU








Béziers-Vias Airport





Airport

ICAO code


  LFMU





IATA Code

BZR




Summary

ICAO Region

EUR



ICAO Territory





France






 








Location

, Languedoc-Roussillon




Serving

Beziers



Elevation

56 ft



Coordinates



    43°
    19'
          25"
        N
  
      ,
    
    3°
    21'
          14"
        E
  





Metar
LFMU 071400Z AUTO 13014KT 090V160 9999 BKN009 27/24 Q1008 TEMPO 13015G25KT









Runways






Designator
Length
Width
Surface
Rops




10/28          
1820          
30          
ASP          
No/No          













Airport map






Aerial View