TAPA








V. C. Bird International Airport





Airport

ICAO code


  TAPA





IATA Code

ANU




Summary

ICAO Region

CARSAM



ICAO Territory





Antigua and Barbuda






 








Location

St. John&#039;s, Antigua




Serving

St. John's



Elevation

62 ft



Coordinates



    17°
    8'
          12"
        N
  
      ,
    
    61°
    47'
          34"
        W
  




KCC

Am




Metar
TAPA 071400Z 11006KT 050V170 9999 VCSH SCT017 30/25 Q1012 NOSIG








V.C. Bird International Airport is located on the island of Antigua, 8 km northeast of St. John's, the capital of Antigua and Barbuda.
Climatology
Tropical Monsoon climate (Köppen climate classification Am) - monthly mean temperatures above 18°C in every month of the year and features wet and dry seasons. A tropical monsoon climate typically features less pronounced dry seasons than a tropical savanna climate and see less variance in temperatures during the course of the year. The driest month nearly always occurs at or soon after the "winter" solstice.






Runways






Designator
Length
Width
Surface
Rops




7/25          
2744          
45          
ASP          
Yes/Yes          













Airport map






Aerial View








Airport accidents



BN2P, Antigua East Caribbean Sea, 2012