LEPA








Palma de Mallorca





Airport

ICAO code


  LEPA






Summary

ICAO Region

EUR



ICAO Territory





Spain






 








Location

Palma de Mallorca, Baleariac Islands,




Coordinates



    39°
    33'
          2"
        N
  
      ,
    
    2°
    44'
          5"
        E
  




KCC

Csa



Airport RI

Runway Misidentification




Metar
LEPA 071230Z 23015KT 9999 FEW020 29/24 Q1010 NOSIG








Description
International airport serving the island of Majorca.
Climatology
Dry-summer subtropical ”Mediterranean" climate (Köppen climate classification Csa) - characterized by hot, dry summers and mild winters. During the summer, subtropical high pressure cells dominate, making rainfall unlikely except for the occasional thunderstorm. In the winter, periodic storms bring rain.






Runways






Designator
Length
Width
Surface
Rops




06R/24L          
3000          
45          
ASP          
Yes/Yes          


06L/24R          
3270          
45          
ASP          
Yes/Yes          













Airport map






Aerial View








Airport accidents



B738 / SF50, vicinity Palma Spain, 2022
AT75, Palma de Mallorca Spain, 2021
B738 / Vehicle, Palma Spain, 2020