LIMJ








Genoa/Cristoforo Colombo Airport





Airport

ICAO code


  LIMJ





IATA Code

GOA




Summary

ICAO Region

EUR



ICAO Territory





Italy






 








Location

Sestri Ponente, Genoa, Liguria




Serving

Genoa



Elevation

13 ft



Coordinates



    44°
    24'
          43"
        N
  
      ,
    
    8°
    50'
          47"
        E
  




KCC

Csa



Airport RE

Aquaplaning



Airport WX

Low Level Turbulence




Metar
LIMJ 071350Z 20003KT 170V230 9999 FEW030 27/17 Q1015








International airport serving Italian port of Genova.
Climatology
Dry-summer subtropical ”Mediterranean" climate (Köppen climate classification Csa) - characterized by hot, dry summers and mild winters. During the summer, subtropical high pressure cells dominate, making rainfall unlikely except for the occasional thunderstorm. In the winter, periodic storms bring rain (snow at higher elevations).






Runways






Designator
Length
Width
Surface
Rops




11/29          
2915          
45          
ASP          
Yes/Yes          













Airport map






Aerial View