CYWG








Winnipeg International





Airport

ICAO code


  CYWG






Summary

ICAO Region

NAM



ICAO Territory





Canada






 








Location

Winnipeg, Manitoba,




Coordinates



    49°
    54'
          36"
        N
  
      ,
    
    97°
    14'
          24"
        W
  




KCC

Dfb




Metar
CYWG 071400Z 19009KT 15SM FEW160 FEW190 BKN260 10/07 A3020 RMK AS1AS2CS5 AS TR FU ASOCTD SLP234








Description
International airport serving Winnipeg, Manitoba.
Climatology
Humid Continental climate (Köppen climate classification Dfb) - Variable weather patterns and a large seasonal temperature variance. Summers are often warm and humid with frequent thunderstorms and winters can be very cold with frequent snowfall and persistent snow cover.






Runways






Designator
Length
Width
Surface
Rops




7/25          
1372          
61          
ASP          
Yes/Yes          


13/31          
2652          
61          
ASP          
Yes/Yes          


18/36          
3353          
61          
ASP          
Yes/Yes          













Airport map






Aerial View








Airport accidents



DH8D / B737, Winnipeg Canada, 2014