ENSH








Svolvær Airport





Airport

ICAO code


  ENSH





IATA Code

SVJ




Summary

ICAO Region

EUR



ICAO Territory





Norway






 








Location

Svolvær, Vågan, Nordland




Serving

Svolvær



Elevation

30 ft



Coordinates



    68°
    14'
          36"
        N
  
      ,
    
    14°
    40'
          9"
        E
  




KCC

Cfc



Airport CFIT

Altimeter Temperature Error Correction



Airport WX

Low Level Turbulence




Metar
ENSH 071320Z AUTO 23010KT 9999 FEW010/// SCT028/// 13/12 Q1019 RMK WIND 0150FT /////KT








Description
Regional airport serving the town of Svolvær in northern Norway.
Climatology
Subpolar Oceanic climate (Köppen climate classification Cfc) - uniform precipitation distribution, temperatures are moderated by the proximity of the ocean and warm currents - cool summers and comparatively mild winters.






Runways






Designator
Length
Width
Surface
Rops




1/19          
857          
0          
UNK          
No/No          













Airport map






Aerial View








Airport accidents



DH8A, vicinity Svolvær Norway, 2010