LERI








Alcantarilla Airport





Airport

ICAO code


  LERI






Summary

ICAO Region

EUR



ICAO Territory





Spain






 








Location

,




Serving

Murcia



Elevation

250 ft



Coordinates



    37°
    57'
          4"
        N
  
      ,
    
    1°
    13'
          49"
        W
  





Metar
LERI 071400Z 06004KT 010V100 CAVOK 32/12 Q1009 NOSIG









Runways






Designator
Length
Width
Surface
Rops




7/25          
938          
45          
ASP          
No/No          













Airport map






Aerial View