KJLN








Joplin Regional Airport





Airport

ICAO code


  KJLN





IATA Code

JLN




Summary

ICAO Region

NAM



ICAO Territory





United States






 








Location

Joplin, Missouri




Serving

Joplin



Elevation

981 ft



Coordinates



    37°
    8'
          55"
        N
  
      ,
    
    94°
    29'
          57"
        W
  




KCC

Cfa




Metar
KJLN 071253Z 06005KT 10SM CLR 12/08 A3025 RMK AO2 SLP238 T01220083








Joplin Regional Airport is a public use airport located 4 nm north of the central business district of Joplin, in Jasper County, Missouri, USA.














Airport map






Aerial View