KMCI








Kansas City International Airport





Airport

ICAO code


  KMCI





IATA Code

MCI




Summary

ICAO Region

NAM



ICAO Territory





United States






 








Location

Kansas City, Missouri




Serving

Kansas City



Elevation

1026 ft



Coordinates



    39°
    17'
          51"
        N
  
      ,
    
    94°
    42'
          50"
        W
  




KCC

Cfa



Airport BS

Bird Strike



Airport LOS

Parallel Runway Operation




Metar
KMCI 071253Z 03006KT 10SM CLR 12/09 A3029 RMK AO2 SLP252 T01170089 $








International airport serving Kansas City, Missouri, USA. The airport is located 14 nm northwest of the city.






Runways






Designator
Length
Width
Surface
Rops




01R/19L          
2896          
46          
CON          
Yes/Yes          


9/27          
2896          
46          
ASP          
Yes/Yes          


01L/19R          
3292          
46          
CON          
Yes/Yes          













Airport map






Aerial View








Airport accidents



DC91, vicinity Kansas City MO USA, 1999