LSZS








Samedan Airport





Airport

ICAO code


  LSZS





IATA Code

SMV




Summary

ICAO Region

EUR



ICAO Territory





Switzerland






 








Location

Samedan, Graubunden




Serving

Sankt Moritz



Elevation

5600 ft



Coordinates



    46°
    32'
          3"
        N
  
      ,
    
    9°
    53'
          3"
        E
  




KCC

ET



Airport CFIT

Altimeter Temperature Error Correction



Airport GND

Aircraft Ground De/Anti Icing




Metar
LSZS 071420Z 23015KT 9999 FEW050 18/08 Q1022 RMK R TL170








Description
Samedan Airport, also known as Engadin Airport, is a regional airport in Samedan in the Engadin valley of Switzerland, 5 km from St. Moritz.
Climatology
Alpine climate (Köppen climate classification ET) - warmest month has an average temperature of 0 - 10 degrees C.
In the Summer (warm) months, pilots should be aware of the possibility of Maloja Wind effects






Runways






Designator
Length
Width
Surface
Rops




3/21          
1800          
40          
ASP          
Yes/Yes          













Airport map






Aerial View








Airport accidents



PRM1, vicinity Samedan Switzerland, 2010