UATE








Actau Airport (formerly Shevchenko-Central)





Airport

ICAO code


  UATE





IATA Code

SCO




Summary

ICAO Region

APAC



ICAO Territory





Kazakhstan






 








Location

Actau,




Serving

Actau



Elevation

73 ft



Coordinates



    43°
    51'
          29"
        N
  
      ,
    
    51°
    5'
          32"
        E
  




KCC

BWk



Airport BS

Bird Strike



Airport WX

Fog




Metar
UATE 071400Z 09006MPS 9999 FEW060CB 24/M03 Q1023 NOSIG RMK QFE765/1020








International airport serving Actau, a Caspian Sea port city in Kazakhstan. The airport is located approximately 20km north of the city.






Runways






Designator
Length
Width
Surface
Rops




12/30          
2652          
45          
ASP          
Yes/Yes          


12L/30R          
2935          
46          
GRE          
No/No          













Airport map






Aerial View