LESU








Pirineus - la Seu d'Urgel airport





Airport

ICAO code


  LESU





IATA Code

LEU




Summary

ICAO Region

EUR



ICAO Territory





Spain






 








Location

Montferrer i Castellbò, Andorra




Serving

Andorra



Elevation

2625 ft



Coordinates



    42°
    20'
          27"
        N
  
      ,
    
    1°
    24'
          39"
        E
  





Metar
LESU 071230Z 20011KT 9999 SCT060 25/14 Q1011








Andorra–La Seu d'Urgell Airport is located in the municipality of Montferrer i Castellbò, in eastern Spain, and serves the city of la Seu d'Urgell and the microstate Principality of Andorra, which is 12 km north of the airport.






Runways






Designator
Length
Width
Surface
Rops




4/22          
1340          
30          
ASP          
No/No          













Airport map






Aerial View