WATT








Kupang/El Tari Airport





Airport

ICAO code


  WATT





IATA Code

KOE




Summary

ICAO Region

APAC



ICAO Territory





Indonesia






 








Location

Kupang, Nusa Tenggara Timur




Serving

Kupang



Elevation

335 ft



Coordinates



    10°
    10'
          18"
        S
  
      ,
    
    123°
    40'
          16"
        E
  





Metar
WATT 071430Z AUTO 11006KT 9999 NCD 27/22 Q1015








El Tari International Airport is an airport in Kupang, East Nusa Tenggara, Indonesia.














Airport map






Aerial View








Airport accidents



E190, Kupang Indonesia, 2015
MA60, Kupang Indonesia, 2013