MROC








Juan Santamaría International Airport





Airport

ICAO code


  MROC





IATA Code

SJO




Summary

ICAO Region

CARSAM



ICAO Territory





Costa Rica






 








Location

Alajuela, Alajuela Province




Serving

San José



Elevation

3021 ft



Coordinates



    9°
    59'
          37"
        N
  
      ,
    
    84°
    12'
          32"
        W
  




KCC

Aw




Metar
MROC 071300Z 03003KT 8000 BCFG FEW005 BKN200 22/20 A2995 NOSIG








Juan Santamaría International Airport (IATA: SJO) is located in Alajuela Province, about 20 km from downtown San José, Costa Rica.
Climatology
Tropical savannah climate (Köppen climate classification Aw)






Runways






Designator
Length
Width
Surface
Rops




7/25          
3012          
46          
ASP          
Yes/Yes          













Airport map






Aerial View








Airport accidents



B752, San Jose Costa Rica, 2022