EPWA








Warsaw/Okęcie Frédéric Chopin Airport





Airport

ICAO code


  EPWA





IATA Code

WAW




Summary

ICAO Region

EUR



ICAO Territory





Poland






 








Location

Okęcie, Warsaw, Masovia




Serving

Warsaw



Elevation

361 ft



Coordinates



    52°
    9'
          54"
        N
  
      ,
    
    20°
    58'
          6"
        E
  




KCC

Dfb




Metar
EPWA 071130Z 12011KT 090V160 CAVOK 29/11 Q1020 NOSIG








International airport serving capital city of Poland.
Climatology
Humid Continental climate (Köppen climate classification Dfb) - Variable weather patterns and a large seasonal temperature variance. Summers are often warm and humid with frequent thunderstorms and winters can be very cold with frequent snowfall and persistent snow cover.






Runways






Designator
Length
Width
Surface
Rops




11/29          
2800          
50          
CON          
Yes/Yes          


15/33          
3690          
60          
CON          
Yes/Yes          













Airport map






Aerial View








Airport accidents



E195, vicinity Warsaw Chopin Poland, 2019
B763, Warsaw Poland, 2011