CYVR








Vancouver International Airport





Airport

ICAO code


  CYVR





IATA Code

YVR




Summary

ICAO Region

NAM



ICAO Territory





Canada






 








Location

Sea Island, Richmond, British Columbia




Serving

Vancouver



Elevation

14 ft



Coordinates



    49°
    11'
          40"
        N
  
      ,
    
    123°
    10'
          49"
        W
  




KCC

Cfb



Airport LOS

Parallel Runway Operation



Airport WX

Fog




Metar
CYVR 071400Z 32009KT 15SM FEW220 17/17 A2993 RMK CS2 HZ SLP136 DENSITY ALT 300FT








Description
Vancouver International Airport is located on Sea Island in Richmond, British Columbia, Canada, about 12 km from Downtown Vancouver.
Climatology
Temperate Marine climate/Oceanic climate (Köppen climate classification Cfb). Moderately cool summer and comparatively warm winter.






Runways






Designator
Length
Width
Surface
Rops




XX/26A          
1067          
23          
CON          
No/No          


12/30          
2225          
61          
CON          
Yes/Yes          


08L/26R          
3030          
61          
CON          
Yes/Yes          


08R/26L          
3505          
61          
ASP          
Yes/Yes          













Airport map






Aerial View