KMKG








Muskegon County Airport





Airport

ICAO code


  KMKG





IATA Code

MKG




Summary

ICAO Region

NAM



ICAO Territory





United States






 








Location

Muskegon, Michigan




Serving

Muskegon



Elevation

628 ft



Coordinates



    43°
    10'
          10"
        N
  
      ,
    
    86°
    14'
          17"
        W
  




KCC

Dfb



Airport CFIT

Altimeter Temperature Error Correction



Airport WX

Lake Effect Snow




Metar
KMKG 071355Z 36011G18KT 10SM OVC046 13/06 A3018 RMK AO2 SLP222 T01330056








Muskegon County Airport is a public use airport located 4 nm south of the central business district of Muskegon, in Muskegon County, Michigan, USA.






Runways






Designator
Length
Width
Surface
Rops




14/32          
1524          
46          
ASP          
Yes/Yes          


6/24          
1982          
46          
ASP          
Yes/Yes          













Airport map






Aerial View