EGGP








Liverpool John Lennon Airport





Airport

ICAO code


  EGGP





IATA Code

LPL




Summary

ICAO Region

EUR



ICAO Territory





United Kingdom






 








Location

Speke, Liverpool, England




Serving

Liverpool



Elevation

80 ft



Coordinates



    53°
    20'
          4"
        N
  
      ,
    
    2°
    51'
          10"
        W
  




KCC

Cfb




Metar
EGGP 071320Z 06007KT 020V090 9999 SCT021 OVC039 20/16 Q1010








Description
International airport serving Liverpool and environs.
Climatology
Temperate Marine climate/Oceanic climate (Köppen climate classification Cfb). Moderately cool summer and comparatively warm winter with a temperature range of only 14°C. Prevailing south-westerly winds from the Atlantic Ocean.






Runways






Designator
Length
Width
Surface
Rops




9/27          
2286          
46          
ASP          
Yes/Yes          













Airport map






Aerial View








Airport accidents



GLEX, Liverpool UK, 2019
A320, vicinity Liverpool UK, 2018