RKSS








Gimpo International Airport





Airport

ICAO code


  RKSS





IATA Code

GMP




Summary

ICAO Region

APAC



ICAO Territory





South Korea






 








Location

Seoul, Seoul National Capital Area




Serving

Seoul



Elevation

58 ft



Coordinates



    37°
    33'
          30"
        N
  
      ,
    
    126°
    47'
          30"
        E
  




KCC

Dwa




Metar
RKSS 071300Z 32004KT 280V350 8000 NSC 24/23 Q1014 NOSIG








An international airport serving Seoul, South Korea but note that the main airport is Incheon.
Climatology
Warm continental climate/Humid continental climate/Humid subtropical climate (Köppen climate classification Dwa/Cwa)






Runways






Designator
Length
Width
Surface
Rops




14R/32L          
3200          
60          
ASP          
Yes/Yes          


14L/32R          
3600          
45          
ASP          
Yes/Yes          













Airport map






Aerial View