WIDD








Hang Nadim International AIrport





Airport

ICAO code


  WIDD





IATA Code

BTH




Summary

ICAO Region

APAC



ICAO Territory





Indonesia






 








Location

Batam, Sumatra




Serving

Riau Islands



Elevation

126 ft



Coordinates



    1°
    7'
          22"
        N
  
      ,
    
    104°
    7'
          12"
        E
  




KCC

Af




Metar
WIDD 071430Z 11003KT 9999 FEW014 29/25 Q1013 NOSIG








Hang Nadim Airport, also known as Hang Nadim International Airport, is located in Batam, Riau Islands (part of Sumatra), Indonesia. It is the only airport on the island.














Airport map






Aerial View








Airport accidents



B773, vicinity Batam Indonesia, 2022