KMEM








Memphis International Airport





Airport

ICAO code


  KMEM





IATA Code

MEM




Summary

ICAO Region

NAM



ICAO Territory





United States






 








Location

Shelby County, Tennessee




Serving

Memphis



Elevation

341 ft



Coordinates



    35°
    2'
          41"
        N
  
      ,
    
    89°
    58'
          54"
        W
  




KCC

Cfa



Airport LOS

Parallel Runway Operation




Metar
KMEM 071154Z 02009KT 10SM FEW070 SCT250 19/13 A3005 RMK AO2 SLP172 70022 T01940133 10233 20194 53010 $








International airport 3 nm south of the center of the city of Memphis, Tennessee, USA.






Runways






Designator
Length
Width
Surface
Rops




9/27          
2727          
46          
ASP          
Yes/Yes          


18L/36R          
2743          
46          
CON          
Yes/Yes          


18R/36L          
2841          
46          
CON          
Yes/Yes          


18C/36C          
3389          
46          
CON          
Yes/Yes          













Airport map






Aerial View