LGRP








Rhodes International





Airport

ICAO code


  LGRP





IATA Code

RHO




Summary

ICAO Region

EUR



ICAO Territory





Greece






 








Location

Paradeisi, Rhodes




Serving

Rhodes



Elevation

19 ft



Coordinates



    36°
    24'
          19"
        N
  
      ,
    
    28°
    5'
          10"
        E
  




KCC

Csa




Metar
LGRP 071220Z 24016KT CAVOK 33/17 Q1009 NOSIG








Description
Rhodes International Airport, "Diagoras" or Diagoras International Airport (IATA: RHO) is located on the island of Rhodes in Greece. The airport is located 14 km south west of the capital city of Rhodes, near the village of Paradisi.
Climatology
Dry-summer subtropical ”Mediterranean" climate (Köppen climate classification Csa) - characterized by hot, dry summers and mild winters. During the summer, subtropical high pressure cells dominate, making rainfall unlikely except for the occasional thunderstorm. In the winter, periodic storms bring rain (snow at higher elevations).






Runways






Designator
Length
Width
Surface
Rops




7/25          
3306          
45          
ASP          
Yes/Yes          













Airport map






Aerial View








Airport accidents



JS41, Rhodes Greece, 2015