KBKL








Cleveland Burke Lakefront Airport





Airport

ICAO code


  KBKL





IATA Code

BKL




Summary

ICAO Region

NAM



ICAO Territory





United States






 








Location

Cleveland, Ohio




Serving

Cleveland



Elevation

583 ft



Coordinates



    41°
    31'
          21"
        N
  
      ,
    
    81°
    40'
          9"
        W
  




KCC

Dfa



Airport BS

Bird Strike



Airport RE

Landing on Contaminated Runways




Metar
KBKL 071353Z 30020G26KT 10SM -RA FEW024 SCT030 OVC045 16/11 A3000 RMK AO2 PK WND 30030/1258 SLP156 P0000 T01610111








Description
Cleveland Burke Lakefront Airport is a public use airport situated on the shore of Lake Erie, in the northeast part of downtown Cleveland, in Cuyahoga County, Ohio, USA.














Airport map






Aerial View