EGSC








Cambridge Airport





Airport

ICAO code


  EGSC





IATA Code

CBG




Summary

ICAO Region

EUR



ICAO Territory





United Kingdom






 








Location

Cambridge, England




Serving

Cambridge



Elevation

47 ft



Coordinates



    52°
    12'
          25"
        N
  
      ,
    
    0°
    10'
          25"
        E
  




KCC

Cfb




Metar
EGSC 061650Z 07004KT 040V120 CAVOK 23/14 Q1008








Description
International airport serving the university city of Cambridge, UK.
Climatology
Temperate Marine climate/Oceanic climate (Köppen climate classification Cfb). Moderately cool summer and comparatively warm winter with a temperature range of only 14°C. Prevailing south-westerly winds from the Atlantic Ocean.






Runways






Designator
Length
Width
Surface
Rops




10/28          
699          
35          
GRS          
No/No          


05R/23L          
899          
35          
GRS          
No/No          


5/23          
1965          
46          
ASP          
Yes/Yes          













Airport map






Aerial View