EGNX








East Midlands Airport





Airport

ICAO code


  EGNX





IATA Code

EMA




Summary

ICAO Region

EUR



ICAO Territory





United Kingdom






 








Location

Castle Donington, Leicestershire, England




Serving

Nottingham



Elevation

306 ft



Coordinates



    52°
    49'
          51"
        N
  
      ,
    
    1°
    19'
          54"
        W
  




KCC

Cfb




Metar
EGNX 071250Z 05004KT 360V090 6000 BKN005 17/17 Q1010








Description
International airport serving the cities of Nottingham, Leicester, Derby and the East Midlands region of England generally.
Climatology
Temperate Marine climate/Oceanic climate (Köppen climate classification Cfb). Moderately cool summer and comparatively warm winter with a temperature range of only 14°C. Prevailing south-westerly winds from the Atlantic Ocean.






Runways






Designator
Length
Width
Surface
Rops




9/27          
2893          
46          
ASP          
Yes/Yes          













Airport map






Aerial View








Airport accidents



B734, East Midlands UK, 2021
B738, East Midlands UK, 2020
A306, East Midlands UK, 2011
B733, Nottingham East Midlands, UK 2006
B734, vicinity East Midlands UK, 1989
SH36, vicinity East Midlands UK, 1986
MD11, vicinity East Midlands UK, 2005