KSAN








San Diego International Airport





Airport

ICAO code


  KSAN





IATA Code

SAN




Summary

ICAO Region

NAM



ICAO Territory





United States






 








Location

San Diego, California




Serving

San Diego County



Elevation

17 ft



Coordinates



    32°
    44'
          0"
        N
  
      ,
    
    117°
    11'
          26"
        W
  




KCC

Csa



Airport RE

Engineered Materials Arresting System



Airport WX

Fog




Metar
KSAN 071351Z 00000KT 8SM BKN180 23/22 A2981 RMK AO2 SLP093 T02330217 $








Description
International airport serving San Diego, California, USA.
Climatology
San Diego enjoys mild, sunny weather throughout the year. Since the San Diego area straddles areas of Mediterranean climate (Csa) to the north, and Semi-arid climate (BSh) to the south and east, the climate is often referred to as "Mediterranean" or "arid-mediterranean". Fog is common in May and June.






Runways






Designator
Length
Width
Surface
Rops




9/27          
2865          
61          
PEM          
Yes/Yes          













Airport map






Aerial View








Airport accidents



B738 / E75L, San Diego USA, 2021