LTFJ








Istanbul/Sabiha Gökçen International Airport





Airport

ICAO code


  LTFJ





IATA Code

SAW




Summary

ICAO Region

EUR



ICAO Territory





Turkey






 








Location

Sanayi, Istanbul




Serving

Istanbul



Elevation

312 ft



Coordinates



    40°
    54'
          19"
        N
  
      ,
    
    29°
    19'
          1"
        E
  




KCC

Csa




Metar
LTFJ 071320Z 08005KT 020V150 9999 FEW015CB BKN030 25/18 Q1015 NOSIG









Runways






Designator
Length
Width
Surface
Rops




6/24          
3000          
45          
CON          
Yes/Yes          













Airport map






Aerial View