LXGB








Gibraltar Airport





Airport

ICAO code


  LXGB





IATA Code

GIB




Summary

ICAO Region

EUR



ICAO Territory





Gibraltar






 








Location

Gibraltar, Gibraltar




Serving

Gibraltar



Elevation

10 ft



Coordinates



    36°
    9'
          4"
        N
  
      ,
    
    5°
    20'
          54"
        W
  




KCC

Csa



Airport RE

Crosswind Landings



Airport WX

Low Level Turbulence




Metar
LXGB 071414Z 22012G23KT 9999 -TSRA BKN100CB 29/12 Q1011 TEMPO 20015G25KT 3000 +TSRA BKN080CB RMK BLU TEMPO YLO1








International airport serving the British Overseas Territory of Gibraltar.
Climatology
Dry-summer subtropical ”Mediterranean" climate (Köppen climate classification Csa) - characterized by hot, dry summers and mild winters. During the summer, subtropical high pressure cells dominate, making rainfall unlikely except for the occasional thunderstorm. In the winter, periodic storms bring rain.






Runways






Designator
Length
Width
Surface
Rops




9/27          
1829          
46          
ASP          
Yes/Yes          













Airport map






Aerial View