LOWI








Innsbruck





Airport

ICAO code


  LOWI





IATA Code

INN




Summary

ICAO Region

EUR



ICAO Territory





Austria






 








Location

Innsbruck, Tyrol




Serving

Innsbruck



Elevation

1906 ft



Coordinates



    47°
    15'
          37"
        N
  
      ,
    
    11°
    20'
          38"
        E
  




KCC

Dfb




Metar
LOWI 071050Z AUTO 17009G19KT 120V210 9999 NCD 27/10 Q1013 NOSIG








International airport serving the Tyrol.
Climatology
Humid Continental climate (Köppen climate classification Dfb)






Runways






Designator
Length
Width
Surface
Rops




8/26          
2000          
45          
ASP          
Yes/Yes          













Airport map






Aerial View