KSNA








Santa Ana





Airport

ICAO code


  KSNA






Summary

ICAO Region

NAM



ICAO Territory





United States






 








Location

Santa Ana, California,




Coordinates



    33°
    40'
          28"
        N
  
      ,
    
    117°
    52'
          10"
        W
  




KCC

Csa




Metar
KSNA 071353Z 00000KT 10SM FEW130 SCT200 24/19 A2979 RMK AO2 SLP086 T02440189








Description
Santa Maria Public Airport, also known as the Capt. G. Allan Hancock Field, is an airport located 5 km south of the central business district of Santa Maria, a city in northern Santa Barbara County, California.
Climatology
Warm Mediterranean climate (Köppen climate classification Csb). Because of the airport's proximity to the ocean, onshore breezes significantly moderate temperatures, resulting in warmer winters and cooler summers compared with places farther inland.






Runways






Designator
Length
Width
Surface
Rops




01R/19L          
880          
23          
ASP          
Yes/Yes          


01L/19R          
1737          
46          
ASP          
Yes/Yes          













Airport map






Aerial View








Airport accidents



WW24, vicinity John Wayne Airport Santa Ana CA USA, 1993