ZUUU








Chengdu





Airport

ICAO code


  ZUUU






Summary

ICAO Region

APAC



ICAO Territory





China






 








Location

Shuangliu County, Chengdu,




Coordinates



    30°
    34'
          43"
        N
  
      ,
    
    103°
    56'
          49"
        E
  




KCC

Dwa




Metar
ZUUU 071300Z 31002MPS 270V340 CAVOK 32/23 Q1010 NOSIG








Description
Chengdu Shuangliu International Airport is the major airport in Chengdu, China. It is located in the north of Shuangliu County, about 16 km southwest of downtown Chengdu.
Climatology
Warm continental climate/Humid continental climate (Köppen climate classification Dwa)














Airport map






Aerial View