KHOT








Memorial Field Airport





Airport

ICAO code


  KHOT





IATA Code

HOT




Summary

ICAO Region

NAM



ICAO Territory





United States






 








Location

Hot Springs, Arkansas




Serving

Hot Springs National Park



Elevation

540 ft



Coordinates



    34°
    28'
          44"
        N
  
      ,
    
    93°
    5'
          46"
        W
  




KCC

Cfa



Airport WX

Cumulonimbus




Metar
KHOT 071253Z AUTO VRB06KT 10SM CLR 20/10 A3012 RMK AO2 SLP192 T02000100








Airport serving Hot Springs, Arkansas, USA located 3 nm southwest of the city's business district.














Airport map






Aerial View