CYGK








Kingston/Norman Rogers Airport





Airport

ICAO code


  CYGK





IATA Code

YGK




Summary

ICAO Region

NAM



ICAO Territory





Canada






 








Location

Kingston, Ontario,




Serving

Kingston



Elevation

303 ft



Coordinates



    44°
    13'
          23"
        N
  
      ,
    
    76°
    35'
          58"
        W
  




KCC

Dfb



Airport WX

Lake Effect Snow




Metar
CYGK 071400Z 22003KT 5SM -RA BR SCT010 OVC013 15/14 A2977 RMK SF3SC5 SLP083








Description
Kingston Airport, or Norman Rogers Airport, is an airport located 4.3 nm west of the center of Kingston, Ontario, Canada.
Climatology
Humid Continental climate (Köppen climate classification Dfb) - Variable weather patterns and a large seasonal temperature variance. Summers are often warm and humid with frequent thunderstorms and winters can be very cold with frequent snowfall and persistent snow cover.






Runways






Designator
Length
Width
Surface
Rops




7/25          
1199          
30          
ASP          
Yes/Yes          


1/19          
1524          
30          
ASP          
Yes/Yes          













Airport map






Aerial View