CYYQ








Churchill Airport





Airport

ICAO code


  CYYQ






Summary

ICAO Region

NAM



ICAO Territory





Canada






 








Location

Churchill, Manitoba,




Coordinates



    58°
    44'
          17"
        N
  
      ,
    
    94°
    4'
          14"
        W
  




KCC

Dfc



Airport BS

Non Avian Wildlife Hazards to Aircraft



Airport CFIT

Altimeter Temperature Error Correction



Airport GND

Aircraft Ground De/Anti Icing



Airport WX

Fog




Metar
CYYQ 071400Z 22011G18KT 15SM BKN065 13/10 A2974 RMK SC5 SLP074








Description
Airport serving Churchill, Manitoba.
Climatology
Subarctic climate (Köppen climate classification Dfc) - long, usually very cold winters, and short, cool to mild summers.
Note
Diversion airfield for commercial aircraft on Polar and NAT routes






Runways






Designator
Length
Width
Surface
Rops




7/25          
1219          
30          
GVL          
No/No          


15/33          
2804          
49          
ASP          
No/No          













Airport map






Aerial View