OTBD








Doha International Airport





Airport

ICAO code


  OTBD





IATA Code

DOH




Summary

ICAO Region

MID



ICAO Territory





Qatar






 








Location

Doha, Qatar




Serving

Doha



Elevation

35 ft



Coordinates



    25°
    15'
          40"
        N
  
      ,
    
    51°
    33'
          54"
        E
  




KCC

BWh




Metar
OTBD 071430Z AUTO 10006KT CAVOK 35/27 Q1001 NOSIG








Doha International Airport is an airport in Doha, Qatar. It was Qatar's commercial international airport until Hamad International Airport opened on 30 April 2014. While all scheduled commercial traffic ceased, the airport site and existing runway is still used.
Climatology
Hot Desert Climate (Köppen climate classification BWh)






Runways






Designator
Length
Width
Surface
Rops




15/33          
4572          
46          
ASP          
Yes/Yes          













Airport map






Aerial View