ESMS








Malmo





Airport

ICAO code


  ESMS






Summary

ICAO Region

EUR



ICAO Territory





Sweden






 








Location

Malmo,




Elevation

236 ft



Coordinates



    55°
    32'
          11"
        N
  
      ,
    
    13°
    22'
          34"
        E
  




KCC

Cfb




Metar
ESMS 071120Z 11009KT 070V160 CAVOK 26/12 Q1016








Description
International airport serving Malmo, southwest Sweden.
Climatology
Temperate Marine climate/Oceanic climate (Köppen climate classification Cfb). Moderately cool summer and comparatively warm winter.






Runways






Designator
Length
Width
Surface
Rops




11/29          
797          
23          
ASP          
Yes/Yes          


17/35          
2800          
45          
ASP          
Yes/Yes          













Airport map






Aerial View








Airport accidents



RJ1H/UNKN, vicinity Malmo Sweden, 2009