EDDL








Dusseldorf





Airport

ICAO code


  EDDL






Summary

ICAO Region

EUR



ICAO Territory





Germany






 








Location

Düsseldorf,




Elevation

147 ft



Coordinates



    51°
    17'
          22"
        N
  
      ,
    
    6°
    46'
          0"
        E
  




KCC

Cfb




Metar
EDDL 071320Z AUTO 15010KT 120V180 CAVOK 28/17 Q1010 NOSIG








Description
International airport serving Düsseldorf.
Climatology
Temperate Marine climate/Oceanic climate (Köppen climate classification Cfb) - Moderately cool summer and comparatively warm winter.






Runways






Designator
Length
Width
Surface
Rops




05L/23R          
2700          
45          
CON          
Yes/Yes          


05R/23L          
3000          
45          
CON          
Yes/Yes          













Airport map






Aerial View








Airport accidents



B742, Düsseldorf Germany, 2005