SBBR








Brasília International Airport/President Juscelino Kubitschek





Airport

ICAO code


  SBBR





IATA Code

BSB




Summary

ICAO Region

CARSAM



ICAO Territory





Brazil






 








Location

Lago Sul, Federal District




Serving

Brasilia



Elevation

3479 ft



Coordinates



    15°
    51'
          46"
        S
  
      ,
    
    47°
    54'
          46"
        W
  




KCC

Aw



Airport RE

Hot and High Operations




Metar
SBBR 071100Z VRB02KT 8000 NSC 20/07 Q1022








Brasília's International airport.
Climatology
Tropical Savanna climate (Köppen climate classification Aw)






Runways






Designator
Length
Width
Surface
Rops




11L/29R          
3200          
45          
ASP          
Yes/Yes          


11R/29L          
3300          
45          
ASP          
Yes/Yes          













Airport map






Aerial View








Airport accidents



B738 / E110, Brasilia Brazil, 2018
A320, Brasilia Brazil, 2015