YMML








Melbourne Airport





Airport

ICAO code


  YMML





IATA Code

MEL




Summary

ICAO Region

APAC



ICAO Territory





Australia






 








Location

Tullamarine, Victoria




Serving

Melbourne



Elevation

434 ft



Coordinates



    37°
    40'
          11"
        S
  
      ,
    
    144°
    50'
          55"
        E
  




KCC

Cfb



Airport BS

Bird Strike



Airport WX

Cumulonimbus




Metar
YMML 071330Z 36007KT 9999 FEW036 BKN070 11/08 Q1022 RF00.0/000.0








Description
Melbourne Airport, also known as Tullamarine Airport, is the primary airport serving the city of Melbourne and the second busiest in Australia.
Climatology
Mild temperate oceanic climate (Köppen climate classification Cfb). Melbourne is known for its changeable weather conditions caused by the city's location on the boundary of the very hot inland areas and the cold southern ocean. Cold fronts in the spring and summer months can be associated with severe weather.














Airport map






Aerial View








Airport accidents



B789, Melbourne Australia, 2021
B773, vicinity Melbourne Australia, 2011
B763, Melbourne Australia, 2006
B773 / B738 / B738, Melbourne Australia, 2015
A332, vicinity Melbourne Australia, 2013
B763/B738, vicinity Melbourne Australia, 2010
B744 / B763, Melbourne Australia, 2006
A320, vicinity Melbourne Australia, 2007
A345, Melbourne Australia, 2009