LCPH








Paphos





Airport

ICAO code


  LCPH






Summary

ICAO Region

EUR



ICAO Territory





Cyprus






 








Location

Timi and Acheleia,




Coordinates



    34°
    43'
          5"
        N
  
      ,
    
    32°
    29'
          9"
        E
  




KCC

Csa




Metar
LCPH 071400Z 31011KT 250V320 9999 FEW030 30/25 Q1008 NOSIG








Description
Paphos International Airport is located 6.5 km southeast from the city of Paphos, Cyprus. It is the country's second largest airport, (after Larnaca International Airport). Paphos airport is commonly used by tourists on holiday in western Cyprus, providing access to popular resorts such as Coral Bay, Limassol and Paphos itself.
Climatology
Dry-summer subtropical ”Mediterranean" climate (Köppen climate classification Csa) - characterized by hot, dry summers and mild winters. During the summer, subtropical high pressure cells dominate, making rainfall unlikely except for the occasional thunderstorm. In the winter, periodic storms bring rain (snow at higher elevations).






Runways






Designator
Length
Width
Surface
Rops




11/29          
2700          
45          
ASP          
Yes/Yes          













Airport map






Aerial View