SBCF








Belo Horizonte - Tancredo Neves/Confins International Airport





Airport

ICAO code


  SBCF





IATA Code

CNF




Summary

ICAO Region

CARSAM



ICAO Territory





Brazil






 








Location

Confins, Minas Gerais




Serving

Belo Horizonte



Elevation

2715 ft



Coordinates



    19°
    38'
          7"
        S
  
      ,
    
    43°
    57'
          54"
        W
  




KCC

Aw




Metar
SBCF 071300Z 13005KT 7000 NSC 24/13 Q1024








Tancredo Neves/Confins International Airport, popularly known as Confins International Airport, is located in the metropolitan area of Belo Horizonte, in the municipality of Confins.
Climatology
Tropical Savanna climate (Köppen climate classification Aw).






Runways






Designator
Length
Width
Surface
Rops




16/34          
3000          
45          
ASP          
Yes/Yes          













Airport map






Aerial View