KJFK








New York/John F Kennedy International Airport





Airport

ICAO code


  KJFK





IATA Code

JFK




Summary

ICAO Region

NAM



ICAO Territory





United States






 








Location

Jamaica, Queens, New York, New York




Serving

New York



Elevation

13 ft



Coordinates



    40°
    38'
          40"
        N
  
      ,
    
    73°
    46'
          58"
        W
  




KCC

Cfa



Airport BS

Bird Strike



Airport LOS

Parallel Runway Operation



Airport RE

Engineered Materials Arresting System




Metar
KJFK 071351Z 13011KT 10SM BKN015 BKN022 OVC200 22/18 A2986 RMK AO2 RAB05E17 SLP112 P0000 T02170183








International airport serving the city of New York, NY, USA.
Climatology
Humid “subtropical” climate (Köppen climate classification Cfa) - characterized by hot, humid summers and cool winters. Significant amounts of precipitation occur in all seasons in most areas. Winter rainfall (and sometimes snowfall) is associated with large storms that the westerlies steer from west to east. Most summer rainfall occurs during thunderstorms.














Airport map






Aerial View








Airport accidents



A321, New York JFK USA, 2019
B752, vicinity New York JFK USA, 2016
E145, New York JFK USA, 2007
MD11, New York JFK USA, 2003
SF34, New York JFK USA, 1999
A320, vicinity New York JFK NY USA, 2007
A306, vicinity New York JFK, 2001