LGSA








Chania





Airport

ICAO code


  LGSA





IATA Code

CHQ




Summary

ICAO Region

EUR



ICAO Territory





Greece






 








Location

Souda Bay, Crete




Serving

Chania



Elevation

490 ft



Coordinates



    35°
    31'
          54"
        N
  
      ,
    
    24°
    8'
          59"
        E
  




KCC

Csa



Airport WX

Low Level Turbulence




Metar
LGSA 071350Z 10010KT CAVOK 33/19 Q1013








Description
Joint civil/military international airport serving the city of Chania on the island of Crete.
Climatology
Mediterranean climate (Köppen climate classification Csa) - Hot, dry summer and a mild wet winter.






Runways






Designator
Length
Width
Surface
Rops




11/29          
3347          
45          
ASP          
Yes/Yes          













Airport map






Aerial View








Airport accidents



DH8D, Chania Greece, 2010