ENZV








Stavanger/Sola Airport





Airport

ICAO code


  ENZV





IATA Code

SVG




Summary

ICAO Region

EUR



ICAO Territory





Norway






 








Location

Sola,




Serving

Stavanger



Elevation

29 ft



Coordinates



    58°
    52'
          42"
        N
  
      ,
    
    5°
    38'
          8"
        E
  




KCC

Cfb




Metar
ENZV 071350Z 25009KT CAVOK 25/14 Q1017 NOSIG








Description
International airport serving Stavanger and southwest Norway, located in Sola, Norway, 6 nm southwest of Stavanger.
Climatology
Temperate Marine climate/Oceanic climate (Köppen climate classification Cfb). Moderately cool summer and comparatively warm winter with a temperature range of only 14°C. Prevailing south-westerly winds from the Atlantic Ocean.






Runways






Designator
Length
Width
Surface
Rops




11/29          
2449          
45          
ASP          
Yes/Yes          


18/36          
2856          
60          
ASP          
Yes/Yes          













Airport map






Aerial View