WIII








Jakarta/Soekarno-Hatta International Airport





Airport

ICAO code


  WIII





IATA Code

CGK




Summary

ICAO Region

APAC



ICAO Territory





Indonesia






 








Location

Tangerang, Banten




Serving

Jakarta



Elevation

32 ft



Coordinates



    6°
    7'
          37"
        S
  
      ,
    
    106°
    39'
          15"
        E
  




KCC

Aw




Metar
WIII 071400Z 08011KT 8000 FEW021 29/21 Q1011 NOSIG








The principal international airport serving the Jakarta region.
Climatology
Tropical Savanna climate (Köppen climate classification Aw) - monthly mean temperature above 18°C in every month of the year and a pronounced dry season.














Airport map






Aerial View








Airport accidents



A332, Jakarta Indonesia, 2013