LMML








Luqa





Airport

ICAO code


  LMML






Summary

ICAO Region

EUR



ICAO Territory





Malta






 








Location

Luqa,




Coordinates



    35°
    51'
          25"
        N
  
      ,
    
    14°
    28'
          40"
        E
  




KCC

Csa




Metar
LMML 071215Z 10010KT 070V130 9999 FEW016 33/23 Q1016 NOSIG








Description
International airport serving the island of Malta.
Climatology
Dry-summer subtropical ”Mediterranean" climate (Köppen climate classification Csa) - characterized by hot, dry summers and mild winters. During the summer, subtropical high pressure cells dominate, making rainfall unlikely except for the occasional thunderstorm. In the winter, periodic storms bring rain.






Runways






Designator
Length
Width
Surface
Rops




5/23          
2377          
45          
ASP          
Yes/Yes          


13/31          
3544          
60          
ASP          
Yes/Yes          













Airport map






Aerial View