KATW








Outagamie County Regional Airport





Airport

ICAO code


  KATW






Summary

ICAO Region

NAM



ICAO Territory





United States






 








Location

Appleton, Wisconsin,




Coordinates



    44°
    15'
          38"
        N
  
      ,
    
    88°
    30'
          40"
        W
  




KCC

Dfa



Airport CFIT

Altimeter Temperature Error Correction



Airport WX

Cumulonimbus




Metar
KATW 071245Z 32009KT 10SM BKN038 09/06 A3027








Description
Outagamie County Regional Airport is a public use airport located just west of Appleton in Outagamie County, Wisconsin.
Climatology
Humid continental climate (Köppen climate classification Dfa) - characterized by four seasons: cold, windy, snowy winters, mild springs, hot, humid summers, and crisp and relatively short autumns. Precipitation reaches its lowest in January and February and peaks in summer and latter half of spring.














Airport map






Aerial View