VTSP








Phuket International





Airport

ICAO code


  VTSP






Summary

ICAO Region

APAC



ICAO Territory





Thailand






 








Location

Phuket, Thailand,




Coordinates



    8°
    6'
          48"
        N
  
      ,
    
    98°
    19'
          1"
        E
  




KCC

Am




Metar
VTSP 071230Z 24003KT 9999 FEW020 27/25 Q1009 NOSIG








Description
International airport serving Phuket, Thailand.
Climatology
Tropical Monsoon climate (Köppen climate classification Am) - monthly mean temperatures above 18°C in every month of the year and features wet and dry seasons. A tropical monsoon climate typically features less pronounced dry seasons than a tropical savanna climate and see less variance in temperatures during the course of the year. The driest month nearly always occurs at or soon after the "winter" solstice.














Airport map






Aerial View








Airport accidents



MD82, Phuket Thailand, 2007