KGRB








Green Bay - Austin Straubel International Airport





Airport

ICAO code


  KGRB





IATA Code

GRB




Summary

ICAO Region

NAM



ICAO Territory





United States






 








Location

Ashwaubenon , Wisconsin




Serving

Green Bay



Elevation

695 ft



Coordinates



    44°
    29'
          31"
        N
  
      ,
    
    88°
    7'
          39"
        W
  




KCC

Dfa



Airport CFIT

Altimeter Temperature Error Correction




Metar
KGRB 071353Z 36011KT 10SM CLR 12/06 A3026 RMK AO2 SLP250 T01170056








Description
Austin Straubel International Airport is a public use airport located in Brown County, Wisconsin, 7 nm southwest of the central business district of Green Bay.














Airport map






Aerial View