OPLA








Allama Iqbal International Airport





Airport

ICAO code


  OPLA





IATA Code

LHE




Summary

ICAO Region

APAC



ICAO Territory





Pakistan






 








Location

Lahore, Punjab




Serving

Lahore



Elevation

698 ft



Coordinates



    31°
    31'
          14"
        N
  
      ,
    
    74°
    24'
          16"
        E
  




KCC

Cwa



Airport BS

Bird Strike




Metar
OPLA 071155Z 31006KT 6000 SCT100 34/23 Q1003 NOSIG RMK QFE978 A29.63








Allama Iqbal International Airport is the second-largest civil airport in Pakistan, serving Lahore, the capital of the Punjab province. Previously known as the Lahore International Airport until 2003, it was renamed after Allama Sir Muhammad Iqbal.
Climatology
Humid subtropical Climate/Winter-rainfall climate (Köppen climate classification Cwa).






Runways






Designator
Length
Width
Surface
Rops




18R/36L          
2743          
46          
ASP          
Yes/Yes          


18L/36R          
3360          
46          
CON          
Yes/Yes          













Airport map






Aerial View








Airport accidents



B734, Lahore Pakistan, 2015