CYFB








Iqaluit





Airport

ICAO code


  CYFB






Summary

ICAO Region

NAM



ICAO Territory





Canada






 








Location

Iqaluit, Nunavut,




Coordinates



    63°
    45'
          16"
        N
  
      ,
    
    68°
    33'
          1"
        W
  




KCC

ET



Airport CFIT

Altimeter Temperature Error Correction



Airport WX

Low Level Turbulence




Metar
CYFB 071200Z 14003KT 30SM BKN030 03/01 A3028 RMK SC7 SLP257








Description
Airport serving Iqaluit, Nunavut.
Climatology
Tundra climate (Köppen climate classification ET) - warmest month has an average temperature of 0 - 10 degrees C.






Runways






Designator
Length
Width
Surface
Rops




17/35          
2623          
61          
ASP          
Yes/Yes          













Airport map






Aerial View