KISP








Islip/Long Island MacArthur Airport





Airport

ICAO code


  KISP





IATA Code

ISP




Summary

ICAO Region

NAM



ICAO Territory





United States






 








Location

Ronkonkoma, New York




Serving

Islip



Elevation

99 ft



Coordinates



    40°
    47'
          43"
        N
  
      ,
    
    73°
    6'
          1"
        W
  




KCC

Cfa




Metar
KISP 071256Z 12005KT 10SM SCT013 BKN019 BKN043 OVC200 19/17 A2988 RMK AO2 SLP119 T01940167








Long Island MacArthur Airport, formerly known as Islip Airport is a public airport located on Long Island, in Ronkonkoma, Town of Islip, Suffolk County, New York, USA.














Airport map






Aerial View