EGGW








London Luton Airport





Airport

ICAO code


  EGGW





IATA Code

LTN




Summary

ICAO Region

EUR



ICAO Territory





United Kingdom






 








Location

Luton, Bedfordshire,




Serving

Luton



Elevation

526 ft



Coordinates



    51°
    52'
          31"
        N
  
      ,
    
    0°
    22'
          10"
        W
  




KCC

Cfb




Metar
EGGW 071350Z AUTO 22003KT 9999 NCD 20/13 Q1009








Description
International airport with scheduled and business traffic.
Climatology
Temperate Marine climate/Oceanic climate (Köppen climate classification Cfb). Moderately cool summer and comparatively warm winter with a temperature range of only 14°C. Prevailing south-westerly winds.






Runways






Designator
Length
Width
Surface
Rops




8/26          
2160          
46          
ASP          
Yes/Yes          













Airport map






Aerial View








Airport accidents



A319, Luton UK, 2012
GLEX, Luton UK, 2008
B763, Luton UK, 2005