OIMM








Mashhad International Airport





Airport

ICAO code


  OIMM





IATA Code

MHD




Summary

ICAO Region

MID



ICAO Territory





Iran






 








Location

Mashhad, Razavi Khorasan Province




Serving

Mashhad



Elevation

3263 ft



Coordinates



    36°
    14'
          7"
        N
  
      ,
    
    59°
    38'
          27"
        E
  




KCC

BSk




Metar
OIMM 071430Z 10012KT CAVOK 22/07 Q1020 A3014








Mashhad International Airport or Shahid Hashemi Nejad Airport is an airport in Mashhad, Razavi Khorasan, Iran.
Climatology
Cold Semi-arid climate (Köppen climate classification BSk). - Hot, sometimes extremely hot summers and cold, sometimes very cold winters. Some snowfall during the winter. Areas featuring cold semi-arid climates are sometimes subject to major temperature swings during a 24 hour period.






Runways






Designator
Length
Width
Surface
Rops




13L/31R          
3811          
45          
ASP          
Yes/Yes          


13R/31L          
3925          
45          
ASP          
Yes/Yes          













Airport map






Aerial View