NWWW








La Tontouta International Airport





Airport

ICAO code


  NWWW





IATA Code

NOU




Summary

ICAO Region

APAC



ICAO Territory





New Caledonia






 








Location

Païta, South Province




Serving

Nouméa



Elevation

52 ft



Coordinates



    22°
    0'
          52"
        S
  
      ,
    
    166°
    12'
          47"
        E
  





Metar
NWWW 071230Z AUTO 04003KT 010V080 CAVOK 17/12 Q1023 NOSIG









Runways






Designator
Length
Width
Surface
Rops




11/29          
3250          
45          
ASP          
Yes/Yes          













Airport map






Aerial View