CYQT








Thunder Bay International Airport





Airport

ICAO code


  CYQT






Summary

ICAO Region

NAM



ICAO Territory





Canada






 








Location

Thunder Bay, Ontario,




Coordinates



    48°
    22'
          19"
        N
  
      ,
    
    89°
    19'
          26"
        W
  




KCC

Dfb



Airport CFIT

Altimeter Temperature Error Correction



Airport GND

Aircraft Ground De/Anti Icing



Airport RE

Crosswind Landings



Airport WX

Low Level Turbulence




Metar
CYQT 071400Z 22004KT 20SM FEW020 06/04 A3032 RMK CU1 SLP276








Description
International airport located in Thunder Bay, Ontario, Canada.
Climatology
Humid Continental climate (Köppen climate classification Dfb) - Variable weather patterns and a large seasonal temperature variance. Summers are often warm and humid with frequent thunderstorms and winters can be very cold with frequent snowfall and persistent snow cover.






Runways






Designator
Length
Width
Surface
Rops




12/30          
1615          
61          
ASP          
Yes/Yes          


7/25          
1890          
61          
ASP          
Yes/Yes          













Airport map






Aerial View