SEQM








Quito/Mariscal Sucre International Airport





Airport

ICAO code


  SEQM





IATA Code

UIO




Summary

ICAO Region

CARSAM



ICAO Territory





Ecuador






 








Location

Tababela, Pichincha




Serving

Quito



Elevation

7874 ft



Coordinates



    0°
    7'
          21"
        S
  
      ,
    
    78°
    21'
          31"
        W
  




KCC

Cwb




Metar
SEQM 071300Z VRB02KT 9999 FEW030 SCT300 16/05 Q1025 NOSIG RMK A3028








Mariscal Sucre International Airport is the busiest airport in Ecuador and one of the busiest airports in South America. It is located in the Tababela parish, about 18 km east of Quito.
Climatology
Subtropical Highland climate (Köppen climate classification Cwb)














Airport map






Aerial View