EGWU








RAF Northholt





Airport

ICAO code


  EGWU





IATA Code

NHT




Summary

ICAO Region

EUR



ICAO Territory





United Kingdom






 








Location

Northolt, Middlesex, England,




Serving

Northolt



Elevation

124 ft



Coordinates



    51°
    33'
          6"
        N
  
      ,
    
    0°
    25'
          6"
        W
  




KCC

Cfb




Metar
EGWU 071420Z 33003KT CAVOK 20/15 Q1009 NOSIG








Description
RAF Northolt is a military airport available to non scheduled civil traffic by prior arrangement.
Climatology
Temperate Marine climate/Oceanic climate (Köppen climate classification Cfb). Moderately cool summer and comparatively warm winter with a temperature range of only 14°C. Prevailing south-westerly winds from the Atlantic Ocean.






Runways






Designator
Length
Width
Surface
Rops




7/25          
1690          
46          
ASP          
Yes/Yes          













Airport map






Aerial View








Airport accidents



LJ25, Northolt London UK,1996