EGTE








Exeter International Airport





Airport

ICAO code


  EGTE





IATA Code

EXT




Summary

ICAO Region

EUR



ICAO Territory





United Kingdom






 








Location

Clyst Honiton, Devon, England




Serving

Exeter



Elevation

102 ft



Coordinates



    50°
    44'
          5"
        N
  
      ,
    
    3°
    24'
          49"
        W
  




KCC

Cfb




Metar
EGTE 071220Z VRB03KT 9999 -RA FEW005 SCT030 17/16 Q1009








Description
Relatively small regional and international airport serving the city of Exeter and the south-west of England.
Climatology
Temperate Marine climate/Oceanic climate (Köppen climate classification Cfb). Moderately cool summer and comparatively warm winter with a temperature range of only 14°C. Prevailing south-westerly winds from the Atlantic Ocean.






Runways






Designator
Length
Width
Surface
Rops




13/31          
1339          
46          
ASP          
No/No          


8/26          
2083          
46          
ASP          
Yes/Yes          













Airport map






Aerial View








Airport accidents



B734, Exeter UK, 2021
E195, Exeter UK, 2019
DH8D, vicinity Exeter UK, 2010
DH8D / B735, Exeter UK, 2009