LIRF








Rome/Fiumicino Airport





Airport

ICAO code


  LIRF





IATA Code

FCO




Summary

ICAO Region

EUR



ICAO Territory





Italy






 








Location

Fiumicino, Lazio




Serving

Rome



Elevation

13 ft



Coordinates



    41°
    48'
          2"
        N
  
      ,
    
    12°
    14'
          35"
        E
  




KCC

Csa




Metar
LIRF 071250Z 19012KT CAVOK 32/18 Q1015 NOSIG








Main international airport serving Rome.
Climatology
Dry-summer subtropical ”Mediterranean" climate (Köppen climate classification Csa) - characterized by hot, dry summers and mild winters. During the summer, subtropical high pressure cells dominate, making rainfall unlikely except for the occasional thunderstorm. In the winter, periodic storms bring rain (snow at higher elevations).






Runways






Designator
Length
Width
Surface
Rops




16C/34C          
0          
0          
UNK          
Yes/Yes          


7/25          
3309          
45          
ASP          
Yes/Yes          


16L/34R          
3900          
60          
ASP          
Yes/Yes          


16R/34L          
3900          
60          
ASP          
Yes/Yes          













Airport map






Aerial View








Airport accidents



B788, vicinity Rome Fiumicino Italy, 2019
AT75, Rome Fiumicino Italy, 2013