KDTW








Detroit Metropolitan Wayne County





Airport

ICAO code


  KDTW





IATA Code

DTW




Summary

ICAO Region

NAM



ICAO Territory





United States






 








Location

Romulus, Michigan




Serving

Detroit



Elevation

645 ft



Coordinates



    42°
    12'
          45"
        N
  
      ,
    
    83°
    21'
          12"
        W
  




KCC

Dfa




Metar
KDTW 071112Z 32009G18KT 10SM BKN021 11/07 A3005 RMK AO2 T01060067 $








Description
Detroit Metropolitan Wayne County Airport, usually called Detroit Metro Airport, Metro Airport locally, or simply DTW, is a major international airport in Romulus, Michigan, a suburb of Detroit.














Airport map






Aerial View








Airport accidents



DC91 / B722, Detroit MI USA, 1990
MD82, Detroit MI USA, 1987