DTTA








Tunis-Carthage





Airport

ICAO code


  DTTA






Summary

ICAO Region

AFI



ICAO Territory





Tunisia






 








Location

Tunis, Tunisia,




Coordinates



    36°
    51'
          4"
        N
  
      ,
    
    10°
    13'
          38"
        E
  




KCC

BSh




Metar
DTTA 071200Z 15005KT 090V200 9999 FEW033 40/17 Q1012








Description
Tunis - Carthage International Airport is the international airport serving Tunis in Tunisia.
Climatology
(Köppen climate classification BSh)






Runways






Designator
Length
Width
Surface
Rops




11/29          
2840          
45          
ASP          
Yes/Yes          


1/19          
3200          
45          
ASP          
Yes/Yes          













Airport map






Aerial View








Airport accidents



A319, vicinity Tunis Tunisia, 2012