EKCH








Copenhagen Airport, Kastrup





Airport

ICAO code


  EKCH





IATA Code

CPH




Summary

ICAO Region

EUR



ICAO Territory





Denmark






 








Location

Kastrup, Hovedstaden




Serving

Copenhagen



Elevation

17 ft



Coordinates



    55°
    36'
          54"
        N
  
      ,
    
    12°
    38'
          46"
        E
  




KCC

Cfb



Airport LOS

Parallel Runway Operation




Metar
EKCH 071220Z AUTO 14010KT 9999 NCD 26/13 Q1016 NOSIG








International airport serving the Danish capital.
Climatology
Temperate Marine climate/Oceanic climate (Köppen climate classification Cfb). Moderately cool summer and comparatively warm winter with a temperature range of only 14°C. Prevailing south-westerly winds from the Atlantic Ocean.






Runways






Designator
Length
Width
Surface
Rops




12/30          
3070          
45          
PEM          
Yes/Yes          


04R/22L          
3300          
45          
ASP          
Yes/Yes          


04L/22R          
3600          
45          
ASP          
Yes/Yes          













Airport map






Aerial View








Airport accidents



A320, Copenhagen Denmark, 2022
A319, Copenhagen Denmark, 2012
CRJ2/ATP, Stockholm Sweden, 2011
A343 / RJ1H, Copenhagen Denmark, 2016
MD82, Copenhagen Denmark, 2013
AT72, Copenhagen Denmark, 2013
B77L, Copenhagen Denmark, 2011
B763, Copenhagen Denmark, 1999
C340 / A332, Copenhagen Denmark, 2003