TNCM








Sint Maarten/Princess Juliana International Airport





Airport

ICAO code


  TNCM





IATA Code

SXM




Summary

ICAO Region

CARSAM



ICAO Territory





Sint Maarten






 








Location

Simpson Bay, Sint Maarten




Serving

Philipsburg



Elevation

13 ft



Coordinates



    18°
    2'
          29"
        N
  
      ,
    
    63°
    6'
          41"
        W
  





Metar
TNCM 071100Z 07003KT 9999 VCSH FEW016 28/27 Q1010 TEMPO SHRA RMK VCSH NE SE S








Princess Juliana International Airport also known as Sint Maarten International Airport serves the Dutch part of the island of Saint Martin. There is also an airport on the French side of the island near Marigot, called Aéroport de Grand Case or L'Espérance Airport.






Runways






Designator
Length
Width
Surface
Rops




10/28          
2180          
45          
ASPH-CONC          
Yes/Yes          


9/27          
2349          
45          
ASP          
Yes/Yes          













Airport map






Aerial View








Airport accidents



B738, Sint Maarten Eastern Caribbean, 2017
SH36, vicinity Sint Maarten Eastern Caribbean, 2014