KJHW








Chautauqua County-Jamestown Airport





Airport

ICAO code


  KJHW





IATA Code

JHW




Summary

ICAO Region

NAM



ICAO Territory





United States






 








Location

Jamestown, New York




Serving

Jamestown



Elevation

1723 ft



Coordinates



    42°
    9'
          12"
        N
  
      ,
    
    79°
    15'
          28"
        W
  




KCC

Dfb



Airport GND

Aircraft Ground De/Anti Icing




Metar
KJHW 071356Z AUTO 28006KT 10SM SCT009 BKN015 BKN028 13/13 A2991 RMK AO2 RAE21 SLP131 P0005 T01330128








Description
Chautauqua County-Jamestown Airport is a public use airport located 3 nm north of the central business district of Jamestown, a city in Chautauqua County, New York, USA.














Airport map






Aerial View