KLAW








Lawton-Fort Sill Regional Airport





Airport

ICAO code


  KLAW





IATA Code

LAW




Summary

ICAO Region

NAM



ICAO Territory





United States






 








Location

Lawton, Oklahoma




Serving

Lawton



Elevation

1110 ft



Coordinates



    34°
    34'
          23"
        N
  
      ,
    
    98°
    24'
          52"
        W
  




KCC

Cfa




Metar
KLAW 071253Z 02006KT 10SM CLR 18/11 A3020 RMK AO2 SLP216 T01780106








Lawton–Fort Sill Regional Airport is a public use airport located 2 nm south of the central business district of Lawton, a city in Comanche County, Oklahoma, USA.






Runways






Designator
Length
Width
Surface
Rops




17/35          
2621          
46          
CON          
Yes/Yes          













Airport map






Aerial View