FCBB








Brazzaville/Maya-Maya Airport





Airport

ICAO code


  FCBB





IATA Code

BZV




Summary

ICAO Region

AFI



ICAO Territory





Republic of the Congo






 








Location

Brazzaville, Brazzaville




Serving

Brazzaville



Elevation

1048 ft



Coordinates



    4°
    15'
          20"
        S
  
      ,
    
    15°
    14'
          54"
        E
  





Metar
FCBB 071430Z 25007KT 230V290 7000 FEW020 32/20 Q1011 NOSIG








Maya-Maya Airport is an airport located in Brazzaville, the capital of the Republic of the Congo.






Runways






Designator
Length
Width
Surface
Rops




5/23          
3300          
45          
ASP          
Yes/Yes          













Airport map






Aerial View