FGSL








Malabo





Airport

ICAO code


  FGSL





IATA Code

SSG




Summary

ICAO Region

AFI



ICAO Territory





Equatorial Guinea






 








Location

Punta Europa, Bioko Island, Bioko Island




Serving

Malabo



Elevation

76 ft



Coordinates



    3°
    45'
          19"
        N
  
      ,
    
    8°
    42'
          31"
        E
  




KCC

Am




Metar
FGSL 071400Z 31008KT 270V350 9999 SCT010 SCT013 29/26 Q1013 NOSIG








Malabo Airport or Saint Isabel Airport is an airport located at Punta Europa, Bioko Island, Equatorial Guinea.
Climatology
Tropical Monsoon climate (Köppen climate classification Am)






Runways






Designator
Length
Width
Surface
Rops




5/23          
2940          
46          
CON          
Yes/Yes          













Airport map






Aerial View