LSGG








Geneva Cointrin International Airport





Airport

ICAO code


  LSGG





IATA Code

GVA




Summary

ICAO Region

EUR



ICAO Territory





Switzerland






 








Location

Meyrin, Geneve




Serving

Geneva



Elevation

1411 ft



Coordinates



    46°
    14'
          17"
        N
  
      ,
    
    6°
    6'
          32"
        E
  




KCC

Cfa




Metar
LSGG 071220Z AUTO 06009KT CAVOK 24/15 Q1011 NOSIG









Runways






Designator
Length
Width
Surface
Rops




05L/23R          
823          
30          
CAUTION: A          
No/No          


5/23          
3900          
50          
CON          
Yes/Yes          













Airport map






Aerial View








Airport accidents



A320 / C56X, vicinity Geneva Switzerland, 2011
B738 / F100, Geneva Switzerland, 2014
AT43, vicinity Geneva Switzerland, 2006
B737 / F100, vicinity Geneva Switzerland, 2006
B737 / B737, vicinity Geneva Switzerland, 2006