KLRF








Little Rock Air Force Base





Airport

ICAO code


  KLRF






Summary

ICAO Region

NAM



ICAO Territory





United States






 








Location

Jacksonville, Arkansas




Serving

Little Rock



Elevation

310 ft



Coordinates



    34°
    54'
          50"
        N
  
      ,
    
    92°
    8'
          38"
        W
  




KCC

Cfa




Metar
KLRF 071255Z AUTO 02007KT 10SM CLR 19/12 A3008 RMK AO2 SLP187 T01850118 $








Little Rock Air Force Base is a United States Air Force base located approximately 16 nm northeast of the central business district of Little Rock, Arkansas, USA.






Runways






Designator
Length
Width
Surface
Rops




69/249          
1061          
18          
ASPH          
No/No          


7/25          
3658          
61          
CON          
No/No          













Airport map






Aerial View