HAAB








Bole International





Airport

ICAO code


  HAAB





IATA Code

ADD




Summary

ICAO Region

AFI



ICAO Territory





Ethiopia






 








Location

Addis Ababa, Addis Ababa




Serving

Addis Ababa



Elevation

7656 ft



Coordinates



    8°
    58'
          40"
        N
  
      ,
    
    38°
    47'
          58"
        E
  




KCC

Cwb



Airport RE

Hot and High Operations




Metar
HAAB 071200Z 21009KT 9999 BKN024 21/13 Q1026








International airport serving Addis Ababa, the capital of Ethiopia.
Climatology
Sub-tropical Highland climate (Köppen climate classification Cwb) - In the tropics, a Subtropical Highland climate tends to feature spring-like weather year-round. Average temperatures here remain relatively constant throughout the year but with a significant diurnal variation.






Runways






Designator
Length
Width
Surface
Rops




07L/25R          
3700          
45          
ASP          
Yes/Yes          


07R/25L          
3800          
45          
ASP          
Yes/Yes          













Airport map






Aerial View








Airport accidents



B763, Addis Ababa Ethiopia, 2014
A320, vicinity Addis Ababa Ethiopia, 2003