WBKK








Kota Kinabalu International Airport





Airport

ICAO code


  WBKK





IATA Code

BKI




Summary

ICAO Region

APAC



ICAO Territory





Malaysia






 








Location

Kepayan, Sabah




Serving

Kota Kinabalu



Elevation

10 ft



Coordinates



    5°
    55'
          51"
        N
  
      ,
    
    116°
    2'
          56"
        E
  




KCC

Af




Metar
WBKK 071230Z 11007KT 080V140 9999 FEW014 28/25 Q1011 NOSIG








 
Kota Kinabalu International Airport serves the city of Kota Kinabalu, the state capital of Sabah, Malaysia. The airport is located 5 nm southwest of the city centre.














Airport map






Aerial View