EFSI








Seinäjoki





Airport

ICAO code


  EFSI





IATA Code

SJY




Summary

ICAO Region

EUR



ICAO Territory





Finland






 








Location

Ilmajoki, South Ostrobothnia




Serving

Seinajoki



Elevation

302 ft



Coordinates



    62°
    41'
          37"
        N
  
      ,
    
    22°
    49'
          44"
        E
  




KCC

Dfc




Metar
EFSI 071350Z AUTO 25007KT 210V290 CAVOK 21/12 Q1023








Seinäjoki Airport is an airport serving Seinäjoki, a city in the Southern Ostrobothnia region of Finland. It is located 6 nm south-southwest of the city, in the municipality of Ilmajoki.
Climatology
Subarctic climate (Köppen climate classification Dfc)






Runways






Designator
Length
Width
Surface
Rops




14/32          
1543          
30          
ASP          
No/No          













Airport map






Aerial View








Airport accidents



AT45, vicinity Sienajoki Finland, 2007
AT45, Sienajoki Finland, 2006