LFPO








Paris/Orly Airport





Airport

ICAO code


  LFPO





IATA Code

ORY




Summary

ICAO Region

EUR



ICAO Territory





France






 








Location

Orly, Ile-de-France




Serving

Paris



Elevation

291 ft



Coordinates



    48°
    43'
          34"
        N
  
      ,
    
    2°
    21'
          51"
        E
  




KCC

Cfb



Airport LOS

Parallel Runway Operation




Metar
LFPO 071300Z 14005KT 100V170 9999 SCT016 BKN180 22/17 Q1009 NOSIG








Description
Busy domestic and limited international airport approximately 7 nm to the south of Paris.
Climatology
Temperate Marine climate/Oceanic climate (Köppen climate classification Cfb). Moderately cool summer and comparatively warm winter. Prevailing south-westerly winds from the Atlantic Ocean.






Runways






Designator
Length
Width
Surface
Rops




2/20          
2400          
60          
CON          
Yes/Yes          


8/26          
3320          
45          
CON          
Yes/Yes          


6/24          
3650          
45          
ASP          
Yes/Yes          













Airport map






Aerial View








Airport accidents



B738, vicinity Paris Orly France, 2019
A318, vicinity Paris Orly France, 2020
A359, vicinity Paris Orly France, 2020
B738, vicinity Paris Orly France, 2018
A320, Paris Orly France, 2013
MD83, vicinity Paris Orly France, 1997
A310, vicinity Paris Orly France, 1994