ENSR








Sørkjosen Airport





Airport

ICAO code


  ENSR





IATA Code

SOJ




Summary

ICAO Region

EUR



ICAO Territory





Norway






 








Location

Sørkjosen, Nordreisa, Troms,




Serving

Sørkjosen



Coordinates



    69°
    47'
          11"
        N
  
      ,
    
    20°
    57'
          35"
        E
  




KCC

Dfc



Airport CFIT

Altimeter Temperature Error Correction



Airport GND

Aircraft Ground De/Anti Icing



Airport WX

Low Level Turbulence




Metar
ENSR 071350Z AUTO VRB01KT 9999 -RA OVC022/// 12/11 Q1017 REDZ RMK WIND RWY 32 00000KT WIND 1119FT VRB03KT








Description
Airport in Sørkjosen in the municipality of Nordreisa, Troms in Northern Norway.
Climatology
Borderline Subpolar Oceanic/Continental subarctic climate (because of winter temperatures) (Köppen climate classification Cfc/Dfc) - uniform precipitation distribution, temperatures are moderated by the proximity of the ocean and warm currents - cool summers and comparatively mild winters.
Heavy snowfalls in winter.






Runways






Designator
Length
Width
Surface
Rops




15/33          
919          
30          
ASP          
No/No          













Airport map






Aerial View