CYRB








Resolute





Airport

ICAO code


  CYRB






Summary

ICAO Region

NAM



ICAO Territory





Canada






 








Location

Resolute, Nunavut,




Coordinates



    74°
    43'
          1"
        N
  
      ,
    
    94°
    58'
          10"
        W
  




KCC

ET



Airport BS

Non Avian Wildlife Hazards to Aircraft



Airport CFIT

Altimeter Temperature Error Correction



Airport GND

Aircraft Ground De/Anti Icing



Airport WX

Fog




Metar
CYRB 071400Z 11019KT 25SM OVC043 00/M01 A2979 RMK SC8 SLP098








Description
Airport serving Resolute, Nunavut.
Climatology
Tundra climate (Köppen climate classification ET) - warmest month has an average temperature of 0 - 10 degrees C.






Runways






Designator
Length
Width
Surface
Rops




17T/35T          
1981          
61          
GVL          
No/No          













Airport map






Aerial View








Airport accidents



B732, vicinity Resolute Bay Canada, 2011