KEWR








Newark Liberty International Airport





Airport

ICAO code


  KEWR





IATA Code

EWR




Summary

ICAO Region

NAM



ICAO Territory





United States






 








Location

Newark, New Jersey,




Serving

Newark



Elevation

18 ft



Coordinates



    40°
    41'
          24"
        N
  
      ,
    
    74°
    10'
          42"
        W
  




KCC

Cfa



Airport LOS

Parallel Runway Operation



Airport RE

Engineered Materials Arresting System




Metar
KEWR 071151Z 19005KT 4SM -RA BR FEW005 BKN008 OVC012 21/19 A2988 RMK AO2 RAB26 SLP118 P0002 60002 70002 T02060189 10211 20200 55009








Description
Newark Liberty International Airport (IATA: EWR), first named Newark Airport and later Newark International Airport, is an international airport within the city limits of both Newark and Elizabeth, New Jersey, United States (although it is entirely owned by the city of Newark). It is about 24 km southwest of Midtown Manhattan (New York City).
Climatology
Humid “subtropical” climate (Köppen climate classification Cfa) - characterized by hot, humid summers and cool winters. Significant amounts of precipitation occur in all seasons in most areas. Winter rainfall (and sometimes snowfall) is associated with large storms that the westerlies steer from west to east. Most summer rainfall occurs during thunderstorms.














Airport map






Aerial View








Airport accidents



B752, Newark NJ USA, 2006
B735, Newark NJ USA, 2006