GCRR








Lanzarote





Airport

ICAO code


  GCRR






Summary

ICAO Region

EUR



ICAO Territory





Canary Islands






 








Location

Arrecife,




Coordinates



    28°
    56'
          44"
        N
  
      ,
    
    13°
    36'
          19"
        W
  




KCC

Csa




Metar
GCRR 071300Z 35011KT 300V020 9999 FEW035 28/16 Q1011








Description
Airport serving the island of Lanzarote.
Climatology
Dry-summer subtropical ”Mediterranean" climate (Köppen climate classification Csa) - characterized by hot, dry summers and mild winters. During the summer, subtropical high pressure cells dominate, making rainfall unlikely except for the occasional thunderstorm. In the winter, periodic storms bring rain (snow at higher elevations).






Runways






Designator
Length
Width
Surface
Rops




3/21          
2400          
45          
ASP          
Yes/Yes          













Airport map






Aerial View








Airport accidents



B738, vicinity Lanzarote Spain, 2019
MD83, Lanzarote Spain, 2007