RJBB








Kansai International Airport





Airport

ICAO code


  RJBB





IATA Code

KIX




Summary

ICAO Region

APAC



ICAO Territory





Japan






 








Location

Osaka Bay, Osaka Prefecture




Serving

Greater Osaka area



Elevation

17 ft



Coordinates



    34°
    25'
          50"
        N
  
      ,
    
    135°
    13'
          49"
        E
  




KCC

Cfa




Metar
RJBB 071300Z 22010KT 9999 FEW020 28/25 Q1014 NOSIG








Kansai International Airport is an international airport located on an artificial island in the middle of Osaka Bay, 38 km southwest of Ōsaka Station, off the shore of the cities of Sennan and Izumisano and the town of Tajiri in Osaka Prefecture, Japan. It should not be confused with Osaka International Airport, which is closer to the city and now handles only domestic flights.
Climatology
Humid subtropical climate (Köppen climate classification Cfa).






Runways






Designator
Length
Width
Surface
Rops




6/24          
3500          
61          
ASP          
Yes/Yes          













Airport map






Aerial View








Airport accidents



B763 / B763, Kansai Japan, 2007