KFOD








Fort Dodge Regional Airport





Airport

ICAO code


  KFOD





IATA Code

FOD




Summary

ICAO Region

NAM



ICAO Territory





United States






 








Location

Fort Dodge, Iowa




Serving

Fort Dodge



Elevation

1156 ft



Coordinates



    42°
    33'
          9"
        N
  
      ,
    
    94°
    11'
          28"
        W
  




KCC

Dfa



Airport CFIT

Altimeter Temperature Error Correction




Metar
KFOD 071256Z AUTO 07005KT 10SM CLR 09/09 A3033 RMK AO2 SLP288 T00940089








Fort Dodge Regional Airport is a public use airport located 3 nm north of the central business district of Fort Dodge, a city in Webster County, Iowa, USA.














Airport map






Aerial View