KFSM








Fort Smith Regional Airport





Airport

ICAO code


  KFSM





IATA Code

FSM




Summary

ICAO Region

NAM



ICAO Territory





United States






 








Location

Fort Smith, Arkansas




Serving

Fort Smith



Elevation

469 ft



Coordinates



    35°
    20'
          7"
        N
  
      ,
    
    94°
    22'
          4"
        W
  




KCC

Cfa




Metar
KFSM 071253Z 03008KT 10SM CLR 18/11 A3017 RMK AO2 SLP212 T01830106








Joint use (civil/Air National Guard) regional airport serving Fort Smith, Arkansas, USA, located 3 nm southeast of the city's business district.














Airport map






Aerial View