KFLL








Fort Lauderdale Hollywood International Airport





Airport

ICAO code


  KFLL





IATA Code

FLL




Summary

ICAO Region

NAM



ICAO Territory





United States






 








Location

Dania Beach, Florida




Serving

Fort Lauderdale



Elevation

9 ft



Coordinates



    26°
    4'
          21"
        N
  
      ,
    
    80°
    9'
          10"
        W
  




KCC

Am



Airport RE

Engineered Materials Arresting System



Airport WX

Tropical Revolving Storm




Metar
KFLL 071153Z 22006KT 10SM SCT022CB BKN042 BKN100 28/26 A2988 RMK AO2 RAB10E20 SLP115 CB OHD MOV N P0000 60018 70026 T02780256 10289 20267 53005








International airport 3 nm southwest of downtown Fort Lauderdale, Florida, USA.














Airport map






Aerial View








Airport accidents



DC10, Fort Lauderdale FL USA, 2017