VLVT








Wattay International Airport





Airport

ICAO code


  VLVT





IATA Code

VTE




Summary

ICAO Region

APAC



ICAO Territory





Laos






 








Location

Vientiane, Vientiane




Serving

Vientiane



Elevation

564 ft



Coordinates



    17°
    59'
          17"
        N
  
      ,
    
    102°
    33'
          47"
        E
  




KCC

Aw




Metar
VLVT 071300Z 27002KT 5000 BR SCT050 28/24 Q1002 NOSIG








International airport serving the capital of Laos, Vientiane.
Climatology
Tropical savannah climate (Köppen climate classification Aw)














Airport map






Aerial View