ENSB








Svalbard/Longyear





Airport

ICAO code


  ENSB






Summary

ICAO Region

EUR



ICAO Territory





Norway






 








Location

Svalbard, Spitzbergen,




Elevation

88 ft



Coordinates



    78°
    14'
          46"
        N
  
      ,
    
    15°
    27'
          56"
        E
  




KCC

ET




Metar
ENSB 071450Z 28003KT 240V300 9999 FEW030 04/M02 Q1009 RMK WIND 1400FT VRB02KT








Description
Svalbard Airport, Longyear is the main airport serving Svalbard in Norway. It is located 1.6 nm northwest of Longyearbyen, and it is the northernmost airport in the world with public scheduled flights.
Climatology
Tundra climate (Köppen climate classification ET) - average temperature below 10°C in all twelve months of the year with very little precipitation






Runways






Designator
Length
Width
Surface
Rops




10/28          
2319          
45          
ASP          
Yes/Yes          













Airport map






Aerial View








Airport accidents



T154, vicinity Svalbard Norway, 1996