KCHA








Chattanooga Metropolitan Airport





Airport

ICAO code


  KCHA





IATA Code

CHA




Summary

ICAO Region

NAM



ICAO Territory





United States






 








Location

Chattanooga, Tennessee




Serving

Chattanooga



Elevation

683 ft



Coordinates



    35°
    2'
          7"
        N
  
      ,
    
    85°
    12'
          14"
        W
  




KCC

Cfa




Metar
KCHA 071253Z 36014KT 10SM SCT019 BKN030 OVC035 23/18 A2997 RMK AO2 SLP141 T02280178








Description
Airport serving Chattanooga, Tennessee, USA.














Airport map






Aerial View