EHEH








Eindhoven Airport





Airport

ICAO code


  EHEH





IATA Code

EIN




Summary

ICAO Region

EUR



ICAO Territory





Netherlands






 








Location

Eindhoven, Noord-Brabant




Serving

Eindhoven



Elevation

74 ft



Coordinates



    51°
    27'
          1"
        N
  
      ,
    
    5°
    22'
          28"
        E
  




KCC

Cfb




Metar
EHEH 071355Z AUTO 12005KT 050V180 9999 OVC130 28/16 Q1009 BLU NOSIG RMK TREND REMOTE BY EHWX








International airport serving Eindhoven, The Netherlands.
Climatology
Temperate Marine climate/Oceanic climate (Köppen climate classification Cfb). Moderately cool summer and comparatively warm winter with a temperature range of only 14°C. Prevailing south-westerly winds from the Atlantic Ocean.






Runways






Designator
Length
Width
Surface
Rops




4/22          
3000          
45          
ASP          
Yes/Yes          













Airport map






Aerial View








Airport accidents



B738, Eindhoven Netherlands, 2012
B738, vicinity Eindhoven Netherlands, 2013
B738, Eindhoven Netherlands, 2010