BIKF








Keflavík International Airport





Airport

ICAO code


  BIKF





IATA Code

KEF




Summary

ICAO Region

NAT



ICAO Territory





Iceland






 








Location

Keflavik, Suournes




Serving

Keflavik



Elevation

171 ft



Coordinates



    63°
    58'
          36"
        N
  
      ,
    
    22°
    36'
          53"
        W
  




KCC

Cfc



Airport WX

Volcanic Ash




Metar
BIKF 071300Z 21022KT 9999 FEW013 10/07 Q1006








Description
International civ/mil airport serving western Iceland.
Climatology
Subpolar Oceanic climate (Köppen climate classification Cfc) - uniform precipitation distribution, temperatures are moderated by the proximity of the ocean and warm currents - cool summers and comparatively mild winters.






Runways






Designator
Length
Width
Surface
Rops




2/20          
3054          
60          
ASP          
Yes/Yes          


11/29          
3065          
60          
ASP          
Yes/Yes          













Airport map






Aerial View








Airport accidents



B752, Keflavik Iceland, 2019
B752, vicinity Keflavik Iceland, 2013