UWUU








Ufa International





Airport

ICAO code


  UWUU






Summary

ICAO Region

EUR



ICAO Territory





Russian Federation






 








Location

Ufa, Bashkortostan,




Coordinates



    54°
    33'
          55"
        N
  
      ,
    
    55°
    53'
          4"
        E
  





Metar
UWUU 071430Z 32003MPS CAVOK 17/13 Q1024 R32L/0///60 NOSIG








Description
Ufa International Airport is the primary airport serving Ufa, the capital of Bashkortostan, Russia.
Climatology






Runways






Designator
Length
Width
Surface
Rops




14/32          
645          
96          
GRE          
No/No          


1/19          
675          
105          
GRE          
No/No          


5/23          
725          
91          
GRE          
No/No          


14L/32R          
2513          
50          
CON          
Yes/Yes          


14R/32L          
3761          
60          
CON          
Yes/Yes          













Airport map






Aerial View