URKK








Pashkovsky Airport





Airport

ICAO code


  URKK






Summary

ICAO Region

EUR



ICAO Territory





Russian Federation






 








Location

Krasnodar Krai,




Coordinates



    45°
    2'
          5"
        N
  
      ,
    
    39°
    10'
          14"
        E
  




KCC

Cfa




Metar
URKK 071242Z 09009G14MPS CAVOK 28/13 Q1016 R05R/CLRD70 TEMPO 08009G15MPS RMK QFE759/1012








Description
Also known as Pashkovsky Airport, this airport serves the souther Russian city of Krasnodar.
Climatology
Humid “subtropical” climate (Köppen climate classification Cfa) - characterized by hot, humid summers and cool winters. Significant amounts of precipitation occur in all seasons in most areas.






Runways






Designator
Length
Width
Surface
Rops




05L/23R          
2200          
49          
ASP          
Yes/Yes          


05R/23L          
2998          
44          
CON          
Yes/Yes          













Airport map






Aerial View