KGCK








Garden City Regional Airport





Airport

ICAO code


  KGCK





IATA Code

GCK




Summary

ICAO Region

NAM



ICAO Territory





United States






 








Location

Garden City, Kansas




Serving

Garden City



Elevation

2891 ft



Coordinates



    37°
    55'
          39"
        N
  
      ,
    
    100°
    43'
          20"
        W
  




KCC

BSk



Airport CFIT

Altimeter Temperature Error Correction




Metar
KGCK 071254Z 14007KT 8SM CLR 13/12 A3027 RMK AO2 SLP227 T01330122








Garden City Regional Airport is a public-use airport located 9 nm southeast of the central business district of Garden City, in Finney County, Kansas, USA.














Airport map






Aerial View