KDHN








Dothan Regional Airport





Airport

ICAO code


  KDHN





IATA Code

DHN




Summary

ICAO Region

NAM



ICAO Territory





United States






 








Location

Dothan, Alabama




Serving

Dothan



Elevation

401 ft



Coordinates



    31°
    19'
          16"
        N
  
      ,
    
    85°
    26'
          58"
        W
  




KCC

Cfa



Airport WX

Cumulonimbus




Metar
KDHN 071329Z 04005KT 2 1/2SM -RA BR OVC005 22/21 A2995 RMK AO2 P0002 T02170211








Description
Regional airport serving the city of Dothan and south eastern Alabama, USA.














Airport map






Aerial View