OSDI








Damascus International Airport





Airport

ICAO code


  OSDI





IATA Code

DAM




Summary

ICAO Region

MID



ICAO Territory





Syria






 








Location

Damascus, Dimashq




Serving

Damascus



Elevation

2020 ft



Coordinates



    33°
    24'
          41"
        N
  
      ,
    
    36°
    30'
          56"
        E
  




KCC

BSh




Metar
OSDI 071300Z 22011KT CAVOK 36/13 Q1010








International airport serving the capital of Syria. Damascus International Airport is a public airport located in Damascus, the capital of Syria. Officially opened in the mid-1970s, DAM is Syria's busiest international airport. In 2010, an estimated 5.5 million passengers used the airport, an increase of more than 50% since 2004.
Since the onset of the Syrian civil war, the airport and the road leading to it have been closed intermittently, and all international airlines have ceased flights.
Climatology
Hot, semi-arid/Steppe climate (Köppen climate classification BSh) - hot, sometimes extremely hot summers and mild to warm winters, with low annual precipitation.






Runways






Designator
Length
Width
Surface
Rops




05L/23R          
3000          
45          
ASP          
Yes/Yes          


05R/23L          
3600          
45          
ASP          
Yes/Yes          













Airport map






Aerial View