NZAA








Auckland Airport





Airport

ICAO code


  NZAA





IATA Code

AKL




Summary

ICAO Region

APAC



ICAO Territory





New Zealand






 








Location

Mangere, Manukau City,




Serving

Auckland



Elevation

23 ft



Coordinates



    37°
    0'
          34"
        S
  
      ,
    
    174°
    47'
          29"
        E
  




KCC

Cfb



Airport LOS

Parallel Runway Operation




Metar
NZAA 071100Z AUTO 28017KT 9999 FEW027/// SCT050/// 16/11 Q1013








Description
Auckland Airport (formerly Auckland International Airport) is the largest and busiest airport in New Zealand. The airport is in Mangere, a western suburb of Manukau City, and is 21 km south of Auckland City centre.
Climatology
Temperate Marine climate/Oceanic climate (Köppen climate classification Cfb) - Moderately cool summer and comparatively warm winter.






Runways






Designator
Length
Width
Surface
Rops




05L/23R          
3108          
45          
CON          
Yes/Yes          


05R/23L          
3635          
45          
CON          
Yes/Yes          













Airport map






Aerial View








Airport accidents



B763, Auckland New Zealand, 2019
A320, Auckland New Zealand, 2017
B738, Auckland New Zealand, 2013
A343, Auckland New Zealand, 2013
A320, vicinity Auckland New Zealand, 2012
B190 / B190, Auckland NZ, 2007
SF34 / B190, Auckland NZ, 2007
B773, Auckland Airport New Zealand, 2007