ZSSS








Shanghai Hongqiao International





Airport

ICAO code


  ZSSS






Summary

ICAO Region

APAC



ICAO Territory





China






 








Location

Puxi, Shanghai,




Coordinates



    31°
    11'
          38"
        N
  
      ,
    
    121°
    20'
          47"
        E
  




KCC

Cfa




Metar
ZSSS 071300Z 12005MPS 090V160 CAVOK 30/23 Q1013 NOSIG








Description
International airport serving the city of Shanghai.
Climatology
Humid “subtropical” climate (Köppen climate classification Cfa) - characterized by hot, humid summers and cool winters. Significant amounts of precipitation occur in all seasons in most areas. Winter rainfall (and sometimes snowfall) is associated with large storms that the westerlies steer from west to east. Most summer rainfall occurs during thunderstorms.














Airport map






Aerial View