KSDF








Louisville Muhammad Ali International Airport





Airport

ICAO code


  KSDF





IATA Code

SDF




Summary

ICAO Region

NAM



ICAO Territory





United States






 








Location

Louisville, Kentucky




Serving

Louisville



Elevation

501 ft



Coordinates



    38°
    10'
          27"
        N
  
      ,
    
    85°
    44'
          6"
        W
  




KCC

Cfa



Airport LOS

Parallel Runway Operation



Airport WX

Cumulonimbus




Metar
KSDF 071156Z 36009KT 10SM FEW070 14/09 A3011 RMK AO2 SLP193 70008 T01390089 10183 20133 53012








Louisville International Airport is a public and military use airport centrally located in the city of Louisville in Jefferson County, Kentucky. Its IATA airport code, SDF, is based on the airport's former name, Standiford Field.






Runways






Designator
Length
Width
Surface
Rops




11/29          
2210          
46          
CON          
Yes/Yes          


17L/35R          
2615          
46          
CON          
Yes/Yes          


17R/35L          
3307          
46          
CON          
Yes/Yes          













Airport map






Aerial View