KCIU








Chippewa County International Airport





Airport

ICAO code


  KCIU





IATA Code

CIU




Summary

ICAO Region

NAM



ICAO Territory





United States






 








Location

Kincheloe, Michigan




Serving

Sault Ste. Marie



Elevation

799 ft



Coordinates



    46°
    15'
          0"
        N
  
      ,
    
    84°
    28'
          19"
        W
  




KCC

Dfb



Airport CFIT

Altimeter Temperature Error Correction



Airport GND

Aircraft Ground De/Anti Icing



Airport RE

Landing on Contaminated Runways



Airport WX

Lake Effect Snow




Metar
KCIU 071356Z AUTO 01010G18KT 10SM OVC024 07/02 A3016 RMK AO2 SLP214 T00670017








Description
Chippewa County International Airport is a public use airport located 15 nm south of the central business district of Sault Ste. Marie, in Chippewa County, Michigan, USA.














Airport map






Aerial View