SBSP








Sao Paulo/Congonhas Airport





Airport

ICAO code


  SBSP





IATA Code

CGH




Summary

ICAO Region

CARSAM



ICAO Territory





Brazil






 








Location

Congonhas, São Paulo




Serving

São Paulo



Elevation

2631 ft



Coordinates



    23°
    37'
          34"
        S
  
      ,
    
    46°
    39'
          23"
        W
  




KCC

Cfa




Metar
SBSP 071300Z 05004KT 020V110 7000 NSC 22/17 Q1023








São Paulo/Congonhas Airport Portuguese pronunciation: is one of the four commercial airports serving São Paulo, Brazil.
Climatology
Humid “subtropical” climate (Köppen climate classification Cfa)






Runways






Designator
Length
Width
Surface
Rops




17L/35R          
1435          
45          
ASP          
Yes/Yes          


17R/35L          
1940          
45          
ASP          
Yes/Yes          













Airport map






Aerial View








Airport accidents



A320, São Paulo Congonhas Brazil, 2007