KCOU








Columbia Regional Airport





Airport

ICAO code


  KCOU





IATA Code

COU




Summary

ICAO Region

NAM



ICAO Territory





United States






 








Location

Columbia, Missouri




Serving

Columbia & Jefferson City



Elevation

889 ft



Coordinates



    38°
    49'
          5"
        N
  
      ,
    
    92°
    13'
          11"
        W
  




KCC

Dfa




Metar
KCOU 071254Z 04006KT 10SM CLR 13/09 A3026 RMK AO2 SLP245 T01280089








Description
Columbia Regional Airport is a public use airport located 12 nm southeast of the central business district of Columbia, in Boone County, Missouri, USA.














Airport map






Aerial View