LDZA








Zagreb Airport





Airport

ICAO code


  LDZA





IATA Code

ZAG




Summary

ICAO Region

EUR



ICAO Territory





Croatia






 








Location

Velika Gorica, Zagreb




Serving

Zagreb



Elevation

353 ft



Coordinates



    45°
    44'
          34"
        N
  
      ,
    
    16°
    4'
          8"
        E
  




KCC

Cfb




Metar
LDZA 071400Z 21006KT 130V290 9999 FEW040 31/12 Q1015 TEMPO 22008KT








Description
International airport serving capital of Croatia.
Climatology
Temperate Marine climate/Oceanic climate (Köppen climate classification Cfb).






Runways






Designator
Length
Width
Surface
Rops




5/23          
3252          
45          
ASP          
Yes/Yes          













Airport map






Aerial View