RJOO








Osaka International Airport





Airport

ICAO code


  RJOO





IATA Code

ITM




Summary

ICAO Region

APAC



ICAO Territory





Japan






 








Location

Itami, Hyogo Prefecture




Serving

Itami, Ikeda and Toyonaka



Elevation

39 ft



Coordinates



    34°
    47'
          2"
        N
  
      ,
    
    135°
    26'
          23"
        E
  




KCC

Cfa




Metar
RJOO 071300Z AUTO 24006KT 200V290 9999 NCD 29/23 Q1014








Osaka International Airport is the primary domestic airport for the Kansai region of Japan, including the major cities of Osaka, Kyoto, and Kobe.
Climatology
Humid subtropical climate (Köppen climate classification Cfa).






Runways






Designator
Length
Width
Surface
Rops




14L/32R          
1828          
46          
ASP          
Yes/Yes          


14R/32L          
2999          
61          
CON          
Yes/Yes          













Airport map






Aerial View