LGSR








Santorini/Thira Airport





Airport

ICAO code


  LGSR





IATA Code

JTR




Summary

ICAO Region

EUR



ICAO Territory





Greece






 








Location

Kamari, Cyclades




Serving

Thira/Santorini



Elevation

127 ft



Coordinates



    36°
    24'
          6"
        N
  
      ,
    
    25°
    28'
          42"
        E
  




KCC

Csa



Airport CFIT

Runway Visual Perspective



Airport WX

Low Level Turbulence




Metar
LGSR 071350Z 36011KT CAVOK 30/20 Q1013








Description
International airport on the island of Santorini, Greece.
Climatology
Mediterranean climate (Köppen climate classification Csa) - Hot, dry summer and a mild wet winter.






Runways






Designator
Length
Width
Surface
Rops




16R/34L          
0          
0          
UNK          
Yes/Yes          


16L/34R          
2125          
30          
ASP          
Yes/Yes          













Airport map






Aerial View