YBBN








Brisbane Airport





Airport

ICAO code


  YBBN





IATA Code

BNE




Summary

ICAO Region

APAC



ICAO Territory





Australia






 








Location

Brisbane, Queensland




Serving

Brisbane



Elevation

13 ft



Coordinates



    27°
    23'
          30"
        S
  
      ,
    
    153°
    7'
          21"
        E
  




KCC

Cfa




Metar
YBBN 071400Z 34009KT CAVOK 18/16 Q1022








Description
Serves the city of Brisbane and the surrounding metropolitan area.
Climatology
Humid “subtropical” climate (Köppen climate classification Cfa) - characterized by hot, humid summers and cool winters. Significant amounts of precipitation occur in all seasons in most areas. Most summer rainfall occurs during thunderstorms and occasional tropical storms.














Airport map






Aerial View








Airport accidents



A333, vicinity Brisbane Australia, 2018
A320, Brisbane QLD Australia, 2020
Vehicle / B738, Brisbane Australia, 2006
A332, vicinity Brisbane Australia, 2013
B734, Brisbane Australia, 2001