CYYB








North Bay Jack Garland Airport





Airport

ICAO code


  CYYB






Summary

ICAO Region

NAM



ICAO Territory





Canada






 








Location

North Bay, Ontario,




Coordinates



    46°
    21'
          49"
        N
  
      ,
    
    79°
    25'
          22"
        W
  




KCC

Dfb



Airport CFIT

Altimeter Temperature Error Correction



Airport GND

Aircraft Ground De/Anti Icing



Airport WX

Fog




Metar
CYYB 071400Z 35018G27KT 10SM BKN008 BKN015 08/07 A2984 RMK SF6SC1 SLP116








Description
Regional airport located in North Bay, Ontario, Canada.
Climatology
Humid Continental climate (Köppen climate classification Dfb) - Variable weather patterns and a large seasonal temperature variance. Summers are often warm and humid with frequent thunderstorms and winters can be very cold with frequent snowfall and persistent snow cover.






Runways






Designator
Length
Width
Surface
Rops




13/31          
762          
23          
GRS          
No/No          


18/36          
1364          
46          
ASP          
Yes/Yes          


8/26          
3048          
61          
ASP          
Yes/Yes          













Airport map






Aerial View