SUMU








Montevideo/De Carrasco International





Airport

ICAO code


  SUMU






Summary

ICAO Region

CARSAM



ICAO Territory





Uruguay






 








Location

Montevideo,




Coordinates



    34°
    49'
          59"
        S
  
      ,
    
    56°
    1'
          36"
        W
  




KCC

Cfa




Metar
SUMU 071400Z 22005KT CAVOK 20/03 Q1015 NOSIG








Description
International airport serving Montevideo, the capital of Uruguay.
Climatology
(Köppen climate classification Cfa)






Runways






Designator
Length
Width
Surface
Rops




10/28          
1700          
45          
CON          
Yes/Yes          


1/19          
2250          
45          
PEM          
Yes/Yes          


6/24          
3200          
45          
PEM          
Yes/Yes          













Airport map






Aerial View