LROP








Bucharest/Henri Coandă International Airport





Airport

ICAO code


  LROP





IATA Code

OTP




Summary

ICAO Region

EUR



ICAO Territory





Romania






 








Location

Otopeni, Bucuresti




Serving

Bucharest



Elevation

314 ft



Coordinates



    44°
    34'
          18"
        N
  
      ,
    
    26°
    5'
          6"
        E
  




KCC

Cfa




Metar
LROP 071530Z 06016KT CAVOK 28/03 Q1019 NOSIG








Description
International airport serving the capital city of Romania.
Climatology
Humid “subtropical” climate (Köppen climate classification Cfa) - characterized by hot, humid summers and cool winters. Significant amounts of precipitation occur in all seasons in most areas. Winter rainfall (and sometimes snowfall) is associated with large storms that the westerlies steer from west to east. Most summer rainfall occurs during thunderstorms.






Runways






Designator
Length
Width
Surface
Rops




08L/26R          
3500          
45          
ASP          
Yes/Yes          


08R/26L          
3500          
45          
ASP          
Yes/Yes          













Airport map






Aerial View