ENVR








Værøy Heliport





Airport

ICAO code


  ENVR






Summary

ICAO Region

EUR



ICAO Territory





Norway






 








Location

Værøy, Nordland,




Elevation

12 ft



Coordinates



    67°
    39'
          16"
        N
  
      ,
    
    12°
    43'
          38"
        E
  




KCC

Cfc




Metar
ENVR 070550Z 22010KT 9999 VCSH FEW006 SCT012 BKN017 13/10 Q1018








Description
Værøy Heliport (Norwegian: Værøy lufthavn) is a heliport on the island of Værøy in Nordland county in Norway. The airport had 8,372 passengers in 2005.
Scheduled helicopter services are provided by Lufttransport on public service obligation contracts with the Norwegian Government to Bodø.
Climatology
Subpolar Oceanic climate (Köppen climate classification Cfc) - uniform precipitation distribution, temperatures are moderated by the proximity of the ocean and warm currents - cool summers and comparatively mild winters.






Runways






Designator
Length
Width
Surface
Rops




3/21          
59          
34          
ASPHALT          
No/No          













Airport map






Aerial View