PADU








Unalaska Airport





Airport

ICAO code


  PADU





IATA Code

DUT




Summary

ICAO Region

NAM



ICAO Territory





Alaska






 








Location

Unalaska Island,




Serving

Unalaska Island



Coordinates



    53°
    53'
          56"
        N
  
      ,
    
    166°
    32'
          41"
        W
  




KCC

Cfc



Airport BS

Bird Strike
Non Avian Wildlife Hazards to Aircraft



Airport WX

Fog




Metar
PADU 071356Z 18005KT 10SM SCT065 13/06 A3007 RMK AO2 SLP181 T01280061 $








Description
Regional airport serving Unalaska, Alaska which is located on Unalaska Island and neighboring Amaknak Island in the Aleutian Island chain.
Climatology
Subpolar oceanic climate(Köppen climate classification Cfc) - moderate and fairly uniform temperatures and heavy rainfall. Fog is often present even when it is not raining. Summer weather is around 5 °F (2.8 °C) cooler than Southeast Alaska (Sitka), but the winter temperatures are nearly the same.






Runways






Designator
Length
Width
Surface
Rops




12/30          
1189          
30          
ASP          
Yes/Yes          













Airport map






Aerial View








Airport accidents



SB20, Unalaska AK USA, 2019