LEGR








Granada





Airport

ICAO code


  LEGR






Summary

ICAO Region

EUR



ICAO Territory





Spain






 








Location

Granada, Spain,




Coordinates



    37°
    11'
          18"
        N
  
      ,
    
    3°
    46'
          36"
        W
  




KCC

Csa



Airport WX

Fog




Metar
LEGR 071330Z VRB03KT CAVOK 29/06 Q1012








Description
International airport serving Spanish city of Granada.
Climatology
Dry-summer subtropical ”Mediterranean" climate (Köppen climate classification Csa) - characterized by hot, dry summers and mild winters. During the summer, subtropical high pressure cells dominate, making rainfall unlikely except for the occasional thunderstorm. In the winter, periodic storms bring rain (snow at higher elevations).






Runways






Designator
Length
Width
Surface
Rops




9/27          
2900          
45          
ASP          
Yes/Yes          













Airport map






Aerial View