VVNB








Noi Bai International Airport





Airport

ICAO code


  VVNB





IATA Code

HAN




Summary

ICAO Region

APAC



ICAO Territory





Vietnam






 








Location

Hanoi, Hanoi




Serving

Hanoi



Elevation

39 ft



Coordinates



    21°
    13'
          16"
        N
  
      ,
    
    105°
    48'
          26"
        E
  




KCC

Cwa



Airport LOS

Parallel Runway Operation




Metar
VVNB 071300Z 35027G44KT 4300 RA SCT014 BKN018 OVC026 26/25 Q0986 TEMPO 01037G55KT 2500 +RA








International airport serving the city of Hanoi, Vietnam.
Climatology
Humid subtropical climate (Köppen climate classification Cwa)














Airport map






Aerial View