EGKK








London Gatwick Airport





Airport

ICAO code


  EGKK





IATA Code

LGW




Summary

ICAO Region

EUR



ICAO Territory





United Kingdom






 








Location

Crawley, West Sussex




Serving

London



Elevation

202 ft



Coordinates



    51°
    9'
          13"
        N
  
      ,
    
    0°
    11'
          4"
        W
  




KCC

Cfb




Metar
EGKK 071150Z VRB01KT 9999 -RA NSC 18/17 Q1010








London's second largest international airport.
Climatology
Temperate Marine climate/Oceanic climate (Köppen climate classification Cfb). Moderately cool summer and comparatively warm winter with a temperature range of only 14°C. Prevailing south-westerly winds from the Atlantic Ocean.






Runways






Designator
Length
Width
Surface
Rops




08L/26R          
2565          
45          
ASP          
Yes/Yes          


08R/26L          
3159          
45          
ASP          
Yes/Yes          













Airport map






Aerial View








Airport accidents



A321, vicinity London Gatwick, UK 2020
B738, London Gatwick UK, 2020
A320/B734, vicinity London Gatwick UK, 2012
A320 / Vehicle, London Gatwick UK, 2018
B789, London Gatwick UK, 2018
B752, London Gatwick, 2013
B753, London Gatwick UK, 2014
A306, vicinity London Gatwick, 2011
DH8D, London Gatwick UK, 2009
B732, London Gatwick UK, 1993
B752, vicinity London Gatwick UK, 2008
B763, vicinity Gatwick UK, 1999