LFLL








Lyon/Saint-Exupery





Airport

ICAO code


  LFLL





IATA Code

LYS




Summary

ICAO Region

EUR



ICAO Territory





France






 








Location

Colombier-Saugnieu, Rhone-Alpes




Serving

Lyon



Elevation

821 ft



Coordinates



    45°
    43'
          32"
        N
  
      ,
    
    5°
    4'
          52"
        E
  




KCC

Cfa




Metar
LFLL 071300Z 19013KT 150V220 CAVOK 30/16 Q1008 NOSIG








Description
International airport serving city of Lyon in France; formerly known as Lyon Satolas.
Climatology
Humid Subtropical (Köppen climate classification Cfa).






Runways






Designator
Length
Width
Surface
Rops




18L/36R          
2670          
45          
ASP          
Yes/Yes          


18R/36L          
4000          
45          
ASP          
Yes/Yes          













Airport map






Aerial View








Airport accidents



B738, Lyon Saint-Exupéry France, 2019
CRJ7 / A319, Lyon Saint-Exupéry France, 2017
B738, Lyon France, 2009
B734, vicinity Lyon France, 2010
A320, vicinity Lyons Saint-Exupéry France, 2012
LJ35, Lyon France, 2000