LEMG








Málaga





Airport

ICAO code


  LEMG






Summary

ICAO Region

EUR



ICAO Territory





Spain






 








Location

Málaga,




Coordinates



    36°
    40'
          30"
        N
  
      ,
    
    4°
    29'
          57"
        W
  




KCC

Csa




Metar
LEMG 071400Z 15009KT 110V190 9999 FEW050 28/15 Q1009 NOSIG








Description
Málaga Airport, also known as Pablo Ruiz Picasso Airport, is an important airport for Spanish tourism as it is the main international airport for the Costa Del Sol. It is 8 km southwest of Málaga and 5 km north of Torremolinos.
Climatology
Dry-summer subtropical ”Mediterranean" climate (Köppen climate classification Csa) - characterized by hot, dry summers and mild winters. During the summer, subtropical high pressure cells dominate, making rainfall unlikely except for the occasional thunderstorm. In the winter, periodic storms bring rain.






Runways






Designator
Length
Width
Surface
Rops




12/30          
2750          
45          
ASPHALT          
Yes/Yes          


13/31          
3200          
45          
ASP          
Yes/Yes          













Airport map






Aerial View








Airport accidents



B738 / B738, Malaga Spain, 2019