KSBN








South Bend Regional Airport





Airport

ICAO code


  KSBN






Summary

ICAO Region

NAM



ICAO Territory





United States






 








Location

South Bend, Indiana,




Coordinates



    41°
    42'
          26"
        N
  
      ,
    
    86°
    19'
          9"
        W
  




KCC

Dfa



Airport LOS

Parallel Runway Operation




Metar
KSBN 071354Z 02012G17KT 10SM SCT042 OVC055 13/06 A3018 RMK AO2 SLP221 T01330056








Description
South Bend Regional Airport is a public airport located 5 km northwest of the central business district of South Bend, a city in St. Joseph County, Indiana.
Climatology
Humid continental climate (Köppen climate classification Dfa) - characterized by four seasons: cold, windy, snowy winters, mild springs, hot, humid summers, and crisp and relatively short autumns. Precipitation reaches its lowest in January and February and peaks in summer and latter half of spring.






Runways






Designator
Length
Width
Surface
Rops




09L/27R          
1311          
23          
ASP          
Yes/Yes          


18/36          
1829          
46          
ASP          
Yes/Yes          


09R/27L          
2564          
46          
ASP          
Yes/Yes          













Airport map






Aerial View