LLBG








Tel Aviv International





Airport

ICAO code


  LLBG






Summary

ICAO Region

MID



ICAO Territory





Israel






 








Location

Lod,




Coordinates



    32°
    0'
          41"
        N
  
      ,
    
    34°
    53'
          12"
        E
  




KCC

Csa




Metar
LLBG 071250Z 30012KT 270V330 9999 FEW035 31/22 Q1009 NOSIG








Description
Ben Gurion International Airport‎, also referred to by its Hebrew acronym Natbag, is located near the city of Lod, 15 km southeast of Tel Aviv.
Climatology
Dry-summer subtropical ”Mediterranean" climate (Köppen climate classification Csa) - characterized by hot, dry summers and mild winters. During the summer, subtropical high pressure cells dominate, making rainfall unlikely except for the occasional thunderstorm. In the winter, periodic storms bring rain (snow at higher elevations).






Runways






Designator
Length
Width
Surface
Rops




3/21          
1780          
45          
ASP          
Yes/Yes          


12/30          
3112          
45          
ASP          
Yes/Yes          


8/26          
3657          
45          
ASP          
Yes/Yes          













Airport map






Aerial View








Airport accidents



B763 / B737, Tel Aviv Israel, 2018
A320, vicinity Tel Aviv Israel, 2012
B789, Tel Aviv Israel, 2018