CYTZ








Toronto/Billy Bishop Toronto City Airport





Airport

ICAO code


  CYTZ





IATA Code

YTZ




Summary

ICAO Region

NAM



ICAO Territory





Canada






 








Location

Toronto, Ontario,




Serving

Toronto



Elevation

252 ft



Coordinates



    43°
    37'
          42"
        N
  
      ,
    
    79°
    23'
          46"
        W
  




KCC

Dfa



Airport WX

Lake Effect Snow




Metar
CYTZ 071400Z AUTO 30011G18KT 9SM BKN028 BKN033 15/10 A2986 RMK SLP114








Description
The Billy Bishop Toronto City Airport, more commonly known as the Toronto Island Airport and previously known officially as Toronto City Centre Airport, is a small airport located on the Toronto Islands in Toronto, Ontario, Canada.
Climatology
Humid continental climate (Köppen climate classification Dfa) - characterized by four seasons: cold, windy, snowy winters, mild springs, hot, humid summers, and crisp and relatively short autumns. Precipitation reaches its lowest in January and February and peaks in summer and latter half of spring.






Runways






Designator
Length
Width
Surface
Rops




15/33          
847          
46          
ASP          
Yes/Yes          


6/24          
894          
46          
ASP          
Yes/Yes          


8/26          
1216          
46          
ASP          
Yes/Yes          













Airport map






Aerial View








Airport accidents



DH8D/DH8D, vicinity Toronto City Airport Canada, 2010