KLAX








Los Angeles International Airport





Airport

ICAO code


  KLAX





IATA Code

LAX




Summary

ICAO Region

NAM



ICAO Territory





United States






 








Location

Westchester, California




Serving

Los Angeles



Elevation

126 ft



Coordinates



    33°
    56'
          37"
        N
  
      ,
    
    118°
    24'
          31"
        W
  




KCC

Csa



Airport LOS

Parallel Runway Operation




Metar
KLAX 071253Z 13006KT 10SM SCT180 24/18 A2979 RMK AO2 SLP085 T02390183








Los Angeles International Airport is the primary airport serving Los Angeles, California. It is most often referred to by its IATA airport code LAX. LAX is located in southwestern Los Angeles in the neighborhood of Westchester, 16 nm from the downtown core.






Runways






Designator
Length
Width
Surface
Rops




06L/24R          
2720          
46          
CON          
Yes/Yes          


06R/24L          
3135          
46          
CON          
Yes/Yes          


07R/25L          
3382          
61          
CON          
Yes/Yes          


07L/25R          
3685          
46          
CON          
Yes/Yes          













Airport map






Aerial View








Airport accidents



B737 / A320, Los Angeles CA USA, 2007
B733 / SW4, Los Angeles CA USA, 1991
B762, Los Angeles USA, 2006
B738 / B744, Los Angeles USA, 2004
A320, Los Angeles USA, 2005