NZCH








Christchurch





Airport

ICAO code


  NZCH





IATA Code

CHC




Summary

ICAO Region

APAC



ICAO Territory





New Zealand






 








Location

Harewood, Christchurch,




Serving

Christchurch



Elevation

123 ft



Coordinates



    43°
    29'
          21"
        S
  
      ,
    
    172°
    32'
          2"
        E
  




KCC

Cfb




Metar
NZCH 071200Z AUTO 07001KT 2600 BCFG NCD 07/06 Q1002








Description
Christchurch International Airport is the main airport that serves Christchurch, New Zealand. It is located 12 km to the northwest of the city centre, in the suburb of Harewood.
Climatology
Temperate Marine climate/Oceanic climate (Köppen climate classification Cfb). Moderately cool summer and comparatively warm winter with a temperature range of only 14°C.






Runways






Designator
Length
Width
Surface
Rops




1/19          
515          
70          
GRS          
No/No          


11/29          
1703          
45          
Bitumen          
Yes/Yes          


2/20          
3288          
45          
ASP          
Yes/Yes          













Airport map






Aerial View








Airport accidents



B738, Christchurch New Zealand, 2015
B738, vicinity Christchurch New Zealand, 2011