LOWG








Graz





Airport

ICAO code


  LOWG





IATA Code

GRZ




Summary

ICAO Region

EUR



ICAO Territory





Austria






 








Location

Abtissendorf, Styria




Serving

Graz



Elevation

1115 ft



Coordinates



    46°
    59'
          28"
        N
  
      ,
    
    15°
    26'
          23"
        E
  




KCC

Csa




Metar
LOWG 071420Z AUTO 14005KT 070V200 9999 BKN050 28/15 Q1015 NOSIG








International airport serving southern Austrian city of Graz.
Climatology
Dry-summer subtropical ”Mediterranean" climate (Köppen climate classification Csa) -






Runways






Designator
Length
Width
Surface
Rops




17L/35R          
640          
30          
GRS          
No/No          


17R/35L          
760          
25          
GRS          
No/No          


17C/35C          
3000          
45          
ASP          
Yes/Yes          













Airport map






Aerial View