EHRD








Rotterdam The Hague Airport





Airport

ICAO code


  EHRD





IATA Code

RTM




Summary

ICAO Region

EUR



ICAO Territory





Netherlands






 








Location

Rotterdam, Zuid-Holland




Serving

Rotterdam



Elevation

-15 ft



Coordinates



    51°
    57'
          25"
        N
  
      ,
    
    4°
    26'
          14"
        E
  




KCC

Cfb




Metar
EHRD 071355Z AUTO 12007KT 050V190 9999 NSC 25/15 Q1009 NOSIG








International airport serving Rotterdam and The Hague, The Netherlands. Rotterdam The Hague Airport (formerly: Rotterdam Airport, Vliegveld Zestienhoven), located 3 nm north northwest of Rotterdam, the Netherlands.
Climatology
Temperate Marine climate/Oceanic climate (Köppen climate classification Cfb). Moderately cool summer and comparatively warm winter with a temperature range of only 14°C. Prevailing south-westerly winds from the Atlantic Ocean.






Runways






Designator
Length
Width
Surface
Rops




6/24          
2200          
45          
ASP          
Yes/Yes          













Airport map






Aerial View








Airport accidents



B738, Rotterdam Netherlands, 2003