DNEN








Akanu Ibiam International Airport





Airport

ICAO code


  DNEN





IATA Code

ENU




Summary

ICAO Region

AFI



ICAO Territory





Nigeria






 








Location

Emene, Enugu State




Serving

Enugu



Elevation

466 ft



Coordinates



    6°
    28'
          32"
        N
  
      ,
    
    7°
    33'
          43"
        E
  




KCC

Aw




Metar
DNEN 062100Z 00000KT 9999 BKN010 25/24 Q1014 NOSIG








Akanu Ibiam International Airport, also known as Enugu Airport, is an airport serving Enugu, a city in the Enugu State of Nigeria.
Climatology
Tropical Savanna climate (Köppen climate classification Aw)






Runways






Designator
Length
Width
Surface
Rops




8/26          
2402          
45          
ASP          
No/No          













Airport map






Aerial View