UNNT








Novosibirsk/Tolmachevo





Airport

ICAO code


  UNNT






Summary

ICAO Region

EUR



ICAO Territory





Russian Federation






 








Location

Ob, Siberia,




Coordinates



    55°
    0'
          45"
        N
  
      ,
    
    82°
    39'
          3"
        E
  




KCC

Dfb




Metar
UNNT 071330Z 23004MPS 9999 OVC018CB 12/11 Q1014 R25/290160 R16/290160 NOSIG RMK QFE750/1001








Description
Novosibirsk Tolmachevo Airport is situated in the town of Ob, 16 km from the center of Novosibirsk, an industrial and scientific center in Siberia, Russia.
Climatology
Humid Continental climate (Köppen climate classification Dfb) - Variable weather patterns and a large seasonal temperature variance. Summers are often warm and humid with frequent thunderstorms and winters can be very cold with frequent snowfall and persistent snow cover.






Runways






Designator
Length
Width
Surface
Rops




16/34          
1097          
14          
paved          
Yes/Yes          


7/25          
3600          
60          
ASP          
Yes/Yes          













Airport map






Aerial View