KDEN








Denver International Airport





Airport

ICAO code


  KDEN





IATA Code

DEN




Summary

ICAO Region

NAM



ICAO Territory





United States






 








Location

Aurora, Colorado




Serving

Denver



Elevation

5431 ft



Coordinates



    39°
    51'
          34"
        N
  
      ,
    
    104°
    40'
          19"
        W
  




KCC

BSk



Airport RE

Hot and High Operations




Metar
KDEN 071353Z 24008KT 10SM FEW110 FEW220 17/07 A3028 RMK AO2 SLP189 T01670067








Description
International airport serving the City of Denver, located 23 nm east north east of the city.














Airport map






Aerial View








Airport accidents



CRJ7, Denver CO USA, 2017
B772, vicinity Denver USA, 2021
B752, Denver CO USA, 2011
E190 / Vehicle, Denver CO, USA 2011
B735, Denver USA, 2008
B772, Denver CO USA, 2001