CYQH








Watson Lake Airport





Airport

ICAO code


  CYQH






Summary

ICAO Region

NAM



ICAO Territory





Canada






 








Location

Watson Lake, Yukon,




Coordinates



    60°
    6'
          48"
        N
  
      ,
    
    128°
    48'
          58"
        W
  




KCC

Dfc



Airport BS

Non Avian Wildlife Hazards to Aircraft



Airport CFIT

Altimeter Temperature Error Correction



Airport GND

Aircraft Ground De/Anti Icing



Airport RE

Landing on Contaminated Runways




Metar
CYQH 071400Z VRB02KT 30SM SCT092 07/07 A2987 RMK AC3 SLP134








Description
Regional airport serving the town of Watson Lake, Yukon, Canada.
Climatology
Subarctic climate (Köppen climate classification Dfc) - long, usually very cold winters, and short, cool to mild summers.






Runways






Designator
Length
Width
Surface
Rops




8/26          
1676          
46          
ASP          
No/No          













Airport map






Aerial View