EPKK








Krakow International Airport





Airport

ICAO code


  EPKK





IATA Code

KRK




Summary

ICAO Region

EUR



ICAO Territory





Poland






 








Location

Balice, Lesser Poland




Serving

Krakow



Elevation

791 ft



Coordinates



    50°
    4'
          40"
        N
  
      ,
    
    19°
    47'
          5"
        E
  




KCC

Cfb



Airport WX

Fog




Metar
EPKK 071400Z 10008KT CAVOK 30/13 Q1017








International airport serving Krakow, Poland.
Climatology
Temperate Marine climate/Oceanic climate (Köppen climate classification Cfb) - Moderately cool summer and comparatively warm winter with a temperature range of only 14°C.
Krakow is one of the easternmost localities in Europe to have an oceanic climate. Krakow lies near the Tatra Mountains, and there is often a Föhn wind, when the temperature rises rapidly, and even in winter reaches to 20°C.






Runways






Designator
Length
Width
Surface
Rops




7/25          
2550          
60          
CON          
Yes/Yes          













Airport map






Aerial View