KMKE








Milwaukee Mitchell International Airport





Airport

ICAO code


  KMKE





IATA Code

MKE




Summary

ICAO Region

NAM



ICAO Territory





United States






 








Location

Milwaukee, Wisconsin




Serving

Milwaukee



Elevation

728 ft



Coordinates



    42°
    56'
          52"
        N
  
      ,
    
    87°
    54'
          11"
        W
  




KCC

Dfa



Airport WX

Lake Effect Snow




Metar
KMKE 071152Z 32008KT 10SM FEW050 09/04 A3022 RMK AO2 SLP234 T00890044 10117 20089 53009








General Mitchell International Airport is a civil-military airport located 5 nm south of the central business district of Milwaukee, a city in Milwaukee County, Wisconsin, USA.






Runways






Designator
Length
Width
Surface
Rops




01R/19L          
1275          
46          
ASP          
Yes/Yes          


07L/25R          
1463          
30          
ASP          
Yes/Yes          


13/31          
1789          
46          
ASP          
Yes/Yes          


07R/25L          
2442          
46          
PEM          
Yes/Yes          


01L/19R          
2954          
61          
PEM          
Yes/Yes          













Airport map






Aerial View