KONT








Ontario International Airport





Airport

ICAO code


  KONT





IATA Code

ONT




Summary

ICAO Region

NAM



ICAO Territory





United States






 








Location

Ontario, California




Serving

Ontario



Elevation

944 ft



Coordinates



    34°
    3'
          39"
        N
  
      ,
    
    117°
    35'
          54"
        W
  




KCC

Csa



Airport BS

Bird Strike



Airport WX

Fog




Metar
KONT 071353Z 00000KT 10SM BKN170 BKN190 25/17 A2984 RMK AO2 SLP081 T02500172








International airport 2 nm east of the city of Ontario, California, USA.






Runways






Designator
Length
Width
Surface
Rops




08R/26L          
3109          
46          
CON          
Yes/Yes          


08L/26R          
3718          
46          
PEM          
Yes/Yes          













Airport map






Aerial View