KMKC








Charles B. Wheeler Downtown Airport





Airport

ICAO code


  KMKC





IATA Code

MKC




Summary

ICAO Region

NAM



ICAO Territory





United States






 








Location

Kansas City, Missouri




Serving

Kansas City



Elevation

757 ft



Coordinates



    39°
    7'
          24"
        N
  
      ,
    
    94°
    35'
          34"
        W
  




KCC

Dfa




Metar
KMKC 071254Z 04004KT 10SM CLR 14/08 A3028 RMK AO2 SLP252 T01390083








Description
Charles B. Wheeler Downtown Airport, also known as Kansas City Downtown Airport, is a public airport located in Kansas City, Missouri.






Runways






Designator
Length
Width
Surface
Rops




3/21          
1539          
46          
ASP          
Yes/Yes          


1/19          
2134          
46          
CON          
Yes/Yes          













Airport map






Aerial View