LHBP








Budapest/Ferihegy





Airport

ICAO code


  LHBP






Summary

ICAO Region

EUR



ICAO Territory





Hungary






 








Location

Budapest, Hungary,




Coordinates



    47°
    26'
          24"
        N
  
      ,
    
    19°
    15'
          42"
        E
  




KCC

Dfb




Metar
LHBP 071300Z 14012KT 110V180 CAVOK 30/14 Q1017 NOSIG








Description
International airport serving capital of Hungary.
Climatology
Humid Continental climate (Köppen climate classification Dfb) - Variable weather patterns and a large seasonal temperature variance. Summers are often warm and humid with frequent thunderstorms and winters can be very cold with frequent snowfall and persistent snow cover.






Runways






Designator
Length
Width
Surface
Rops




13R/31L          
3010          
45          
CON          
Yes/Yes          


13L/31R          
3707          
45          
CON          
Yes/Yes          













Airport map






Aerial View








Airport accidents



AT72, vicinity Budapest Hungary, 2016