RODN








Kadena Air Base





Airport

ICAO code


  RODN





IATA Code

DNA




Summary

ICAO Region

APAC



ICAO Territory





Japan






 








Location

Kadena, Okinawa




Serving

Kadena



Elevation

146 ft



Coordinates



    26°
    21'
          20"
        N
  
      ,
    
    127°
    46'
          3"
        E
  





Metar
RODN 071313Z 09003KT 10SM FEW017 28/26 A2986 RMK AO2A RAE1255RAB00E13 SLP112 FZRANO TSNO $









Runways






Designator
Length
Width
Surface
Rops




05L/23R          
3688          
91          
ASP          
Yes/Yes          


05R/23L          
3688          
61          
CON          
Yes/Yes          













Airport map






Aerial View