EGKB








London Biggin Hill Airport





Airport

ICAO code


  EGKB





IATA Code

BQH




Summary

ICAO Region

EUR



ICAO Territory





United Kingdom






 








Location

Biggin Hill, London, England




Serving

London



Elevation

599 ft



Coordinates



    51°
    19'
          35"
        N
  
      ,
    
    0°
    1'
          53"
        E
  




KCC

Cfb




Metar
EGKB 071420Z 04004KT 350V070 CAVOK 18/14 Q1010








Description
London Biggin Hill Airport is an airport at Biggin Hill in the London Borough of Bromley, located 12 nm south southeast of London, United Kingdom. The airport was formerly the Royal Air Force station RAF Biggin Hill, and a small enclave on the airport still retains that designation.
Climatology
Temperate Marine climate/Oceanic climate (Köppen climate classification Cfb). Moderately cool summer and comparatively warm winter with a temperature range of only 14°C. Prevailing south-westerly winds from the Atlantic Ocean.






Runways






Designator
Length
Width
Surface
Rops




11/29          
792          
18          
ASP          
Yes/Yes          


3/21          
1802          
45          
ASP          
Yes/Yes          













Airport map






Aerial View








Airport accidents



GLEX, Biggin Hill UK, 2020
GLF3, Biggin Hill UK, 2014
C500, vicinity Biggin Hill UK, 2008