SAVC








Comodoro Rivadavia/General Enrique Mosconi International Airport





Airport

ICAO code


  SAVC





IATA Code

CRD




Summary

ICAO Region

CARSAM



ICAO Territory





Argentina






 








Location

Comodoro Rivadavia, Chubut




Serving

Comodoro Rivadavia



Elevation

190 ft



Coordinates



    45°
    47'
          12"
        S
  
      ,
    
    67°
    27'
          57"
        W
  





Metar
SAVC 071300Z 29021KT CAVOK 12/M01 Q1006








General Enrique Mosconi International Airport is an international airport in the Chubut Province, Argentina serving Comodoro Rivadavia. The airfield is located 11 km of the city.






Runways






Designator
Length
Width
Surface
Rops




7/25          
2810          
50          
CON          
No/No          













Airport map






Aerial View








Airport accidents



E190, Comodoro Rivadavia Argentina, 2019