OMDB








Dubai International Airport





Airport

ICAO code


  OMDB





IATA Code

DXB




Summary

ICAO Region

MID



ICAO Territory





United Arab Emirates






 








Location

Al Garhoud, Dubai




Serving

Dubai



Elevation

62 ft



Coordinates



    25°
    15'
          10"
        N
  
      ,
    
    55°
    21'
          52"
        E
  




KCC

BWh



Airport BS

Bird Strike



Airport LOS

Parallel Runway Operation




Metar
OMDB 071400Z 32010KT CAVOK 37/21 Q1001 NOSIG








International airport serving the emirate of Dubai, UAE.
Climatology
Hot Desert Climate (Köppen climate classification BWh) - Hot desert climates are typically found in the subtropics where there is unbroken sunshine for the whole year due to the stable descending air and high pressure, little or no precipitation. Maximum temperatures of 40°C to 45°C are not uncommon, particularly during the warmer months of the year.






Runways






Designator
Length
Width
Surface
Rops




12L/30R          
4000          
60          
ASP          
Yes/Yes          


12R/30L          
4000          
46          
ASP          
Yes/Yes          













Airport map






Aerial View








Airport accidents



A320/B773, Dubai UAE, 2012
B773, Dubai UAE, 2016
A320 / B738, vicinity Dubai UAE, 2012
A332, Dubai UAE, 2014
CRJ2, Dubai UAE, 2011
B744, vicinity Dubai UAE, 2010