KIAH








Houston/George Bush Intercontinental Airport





Airport

ICAO code


  KIAH





IATA Code

IAH




Summary

ICAO Region

NAM



ICAO Territory





United States






 








Location

Aldine, Texas




Serving

Houston



Elevation

97 ft



Coordinates



    29°
    59'
          4"
        N
  
      ,
    
    95°
    20'
          29"
        W
  




KCC

Cfa



Airport LOS

Parallel Runway Operation



Airport WX

Tropical Revolving Storm




Metar
KIAH 071253Z 01011KT 10SM FEW020 22/19 A2994 RMK AO2 SLP139 T02220189 $








International airport located 23 miles north of Houston, Texas, USA. Originally named Houston Intercontinental Airport, it was later renamed after President George H. W. Bush.
 














Airport map






Aerial View








Airport accidents



B773, vicinity Houston TX USA, 2014