CYAM








Sault Ste. Marie International Airport





Airport

ICAO code


  CYAM





IATA Code

YAM




Summary

ICAO Region

NAM



ICAO Territory





Canada






 








Location

Sault Ste. Marie, Ontario,




Serving

Sault Ste. Marie



Elevation

630 ft



Coordinates



    46°
    29'
          6"
        N
  
      ,
    
    84°
    30'
          34"
        W
  




KCC

Dfb



Airport BS

Bird Strike



Airport CFIT

Altimeter Temperature Error Correction



Airport GND

Aircraft Ground De/Anti Icing




Metar
CYAM 071400Z 01008G17KT 300V030 20SM BKN027 09/02 A3016 RMK SC7 SLP221








Description
Regional airport located 8 miles west of Sault Ste. Marie, Ontario, Canada.
Climatology
Humid Continental climate (Köppen climate classification Dfb) - Variable weather patterns and a large seasonal temperature variance. Summers are often warm and humid with frequent thunderstorms and winters can be very cold with frequent snowfall and persistent snow cover.






Runways






Designator
Length
Width
Surface
Rops




4/22          
1829          
61          
ASP          
Yes/Yes          


12/30          
1829          
61          
ASP          
Yes/Yes          













Airport map






Aerial View








Airport accidents



DH8A, Saulte Ste. Marie ON Canada, 2015
DH8A / Z42, vicinity Sault Ste. Marie ON Canada, 2014
DH8D, Sault Ste. Marie ON Canada, 2013