KMRY








Monterey Regional Airport





Airport

ICAO code


  KMRY





IATA Code

MRY




Summary

ICAO Region

NAM



ICAO Territory





United States






 








Location

Monterey, , California




Serving

Monterey



Elevation

257 ft



Coordinates



    36°
    35'
          18"
        N
  
      ,
    
    121°
    50'
          57"
        W
  




KCC

Csb



Airport LOS

Parallel Runway Operation



Airport WX

Fog




Metar
KMRY 071404Z 09003KT 1 1/4SM R10R/3500VP6000FT BR SCT001 12/12 A2992 RMK AO2 T01220117








Monterey Regional Airport is located 3 nm southeast of the central business district of Monterey, a city in Monterey County, California, USA.






Runways






Designator
Length
Width
Surface
Rops




10L/28R          
1071          
18          
ASP          
Yes/Yes          


10R/28L          
2321          
46          
ASP          
Yes/Yes          













Airport map






Aerial View