DBBB








Cotonou Cadedjehoun Airport





Airport

ICAO code


  DBBB





IATA Code

COO




Summary

ICAO Region

AFI



ICAO Territory





Benin






 








Location

Cotonou,




Serving

Cotonou



Elevation

20 ft



Coordinates



    6°
    21'
          31"
        N
  
      ,
    
    2°
    23'
          4"
        E
  




KCC

Aw




Metar
DBBB 071400Z 25011KT 230V290 9999 SCT011 24/23 Q1013 RERA NOSIG








Description
International airport serving Cotonou, the biggest city in Benin in West Africa..
Climatology
Tropical Savanna climate (Köppen climate classification Aw).






Runways






Designator
Length
Width
Surface
Rops




6/24          
2400          
45          
ASP          
Yes/Yes          













Airport map






Aerial View








Airport accidents



B722, Cotonou Benin, 2003