KCLM








William R. Fairchild International Airport





Airport

ICAO code


  KCLM






Summary

ICAO Region

NAM



ICAO Territory





United States






 








Location

Port Angeles, Washington,




Coordinates



    48°
    6'
          59"
        N
  
      ,
    
    123°
    29'
          36"
        W
  




KCC

Cfb



Airport WX

Fog




Metar
KCLM 071353Z AUTO 00000KT 10SM CLR 15/13 A2994 RMK AO2 SLP136 T01500128








Description
William R. Fairchild International Airport is a public use airport located within the city limits of Port Angeles, in Clallam County, Washington.
Climatology
Temperate Marine climate/Oceanic climate (Köppen climate classification Cfb). Moderately cool summer and comparatively warm winter.














Airport map






Aerial View