UTTT








Tashkent International Airport





Airport

ICAO code


  UTTT





IATA Code

TAS




Summary

ICAO Region

EUR



ICAO Territory





Uzbekistan






 








Location

Tashkent, Uzbekistan,




Serving

Tashkent



Elevation

1417 ft



Coordinates



    41°
    15'
          28"
        N
  
      ,
    
    69°
    16'
          52"
        E
  




Airport BS

Bird Strike



Airport CFIT

Altimeter Temperature Error Correction



Airport LOS

Parallel Runway Operation




Metar
UTTT 071430Z 35006KT CAVOK 23/M03 Q1019 R08R/CLRD70 NOSIG








Description
Tashkent International Airport is the main international airport of Uzbekistan and the largest airport in Central Asia. It is located 12 km from the center of Tashkent. Sometimes the airport is also referred as Vostochny-Tashkent.
Climatology






Runways






Designator
Length
Width
Surface
Rops




08R/26L          
3905          
45          
ASP          
Yes/Yes          


08L/26R          
4000          
60          
CON          
Yes/Yes          













Airport map






Aerial View