EKVD








Kolding / Vamdrup





Airport

ICAO code


  EKVD






Summary

ICAO Region

EUR



ICAO Territory





Denmark






 








Location

Vamdrup,




Elevation

143 ft



Coordinates



    55°
    26'
          11"
        N
  
      ,
    
    9°
    19'
          51"
        E
  




KCC

Cfb




Metar
EKVD 071150Z 08008KT 050V120 CAVOK 23/18 Q1014








Description
5.4 nm SW of Kolding.
Climatology
Temperate Marine climate/Oceanic climate (Köppen climate classification Cfb). Moderately cool summer and comparatively warm winter with a temperature range of only 14°C. Prevailing south-westerly winds from the Atlantic Ocean.






Runways






Designator
Length
Width
Surface
Rops




8/26          
704          
23          
GRS          
No/No          


1/19          
976          
23          
ASP          
No/No          













Airport map






Aerial View