CYDF








Deer Lake Regional Airport





Airport

ICAO code


  CYDF





IATA Code

YDF




Summary

ICAO Region

NAM



ICAO Territory





Canada






 








Location

Deer Lake, Newfoundland,




Serving

Deer Lake



Elevation

72 ft



Coordinates



    49°
    12'
          35"
        N
  
      ,
    
    57°
    23'
          34"
        W
  




KCC

Dfb



Airport BS

Bird Strike



Airport CFIT

Altimeter Temperature Error Correction



Airport RE

Crosswind Landings



Airport WX

Low Level Turbulence




Metar
CYDF 071400Z 01004KT 340V050 15SM BKN220 19/11 A3027 RMK CI6 SLP252








Description
Regional airport serving Deer Lake, Newfoundland.
Climatology
Humid Continental climate (Köppen climate classification Dfb) - Variable weather patterns and a large seasonal temperature variance. Summers are often warm and humid with frequent thunderstorms and winters can be very cold with frequent snowfall and persistent snow cover.
The separate article climate Newfoundland contains more detail on the climate of Newfoundland and associated weather phenomena.






Runways






Designator
Length
Width
Surface
Rops




7/25          
1829          
46          
ASP          
No/No          













Airport map






Aerial View