UUEE








Moscow/Sheretyevo International Airport





Airport

ICAO code


  UUEE





IATA Code

SVO




Summary

ICAO Region

EUR



ICAO Territory





Russian Federation






 








Location

Khimki, Moscow Oblast,




Serving

Moscow



Elevation

622 ft



Coordinates



    55°
    58'
          17"
        N
  
      ,
    
    37°
    24'
          49"
        E
  




KCC

Dfb




Metar
UUEE 071230Z 29002MPS 210V320 CAVOK 25/09 Q1030 R06R/CLRD62 R06C/CLRD62 NOSIG








Description
Sheremetyevo International Airport, is an international airport located 29 km north-west of Moscow, Russia. It is a hub for the passenger operations of the Russian international airline Aeroflot, and one of the three major airports serving Moscow along with Domodedovo International Airport and Vnukovo.
Climatology
Humid Continental climate (Köppen climate classification Dfb) - Variable weather patterns and a large seasonal temperature variance. Summers are often warm and humid with frequent thunderstorms and winters can be very cold with frequent snowfall and persistent snow cover.






Runways






Designator
Length
Width
Surface
Rops




07L/25R          
3550          
60          
CON          
Yes/Yes          


07R/25L          
3700          
60          
CON          
Yes/Yes          













Airport map






Aerial View