EKEB








Esbjerg





Airport

ICAO code


  EKEB






Summary

ICAO Region

EUR



ICAO Territory





Denmark






 








Location

Esbjerg,




Elevation

97 ft



Coordinates



    55°
    31'
          33"
        N
  
      ,
    
    8°
    33'
          12"
        E
  




KCC

Cfb




Metar
EKEB 071220Z AUTO 08010KT 050V110 9999 NCD 25/18 Q1014








Description
Esbjerg Airport (IATA: EBJ) is a small airport located 5 nm northeast of Esbjerg, Denmark.
Climatology
Temperate Marine climate/Oceanic climate (Köppen climate classification Cfb). Moderately cool summer and comparatively warm winter with a temperature range of only 14°C. Prevailing south-westerly winds from the Atlantic Ocean.






Runways






Designator
Length
Width
Surface
Rops




8/26          
2599          
45          
ASP          
Yes/Yes          













Airport map






Aerial View








Airport accidents



AT45, vicinity Esbjerg Denmark, 2016