LFRU








Morlaix/Ploujean





Airport

ICAO code


  LFRU






Summary

ICAO Region

EUR



ICAO Territory





France






 








Location

Ploujean, Bretagne,




Coordinates



    48°
    36'
          12"
        N
  
      ,
    
    3°
    48'
          57"
        W
  




KCC

Cfb




Metar
LFRU 071300Z AUTO 16004KT 100V230 9999 SCT025 SCT036 BKN052 22/14 Q1007








Description
Morlaix - Ploujean Airport is an airport located 2 km northeast of Morlaix, a commune of the Finistère department in the Brittany region of France. The airport is located in the former commune of Ploujean.
Climatology
Temperate Marine climate/Oceanic climate (Köppen climate classification Cfb). Moderately cool summer and comparatively warm winter with a temperature range of only 14°C. Prevailing south-westerly winds from the Atlantic Ocean.






Runways






Designator
Length
Width
Surface
Rops




16/34          
0          
0          
UNK          
No/No          


5/23          
1617          
36          
ASP          
No/No          













Airport map






Aerial View