DGAA








Accra/Kotoka





Airport

ICAO code


  DGAA






Summary

ICAO Region

AFI



ICAO Territory





Ghana






 








Location

Accra,




Coordinates



    5°
    36'
          19"
        N
  
      ,
    
    0°
    10'
          0"
        W
  




KCC

Aw




Metar
DGAA 071400Z 20017KT 9999 FEW030 29/21 Q1012 NOSIG








Description
International airport serving the capital of Ghana.
Climatology
Tropical Savanna climate (Köppen climate classification Aw)






Runways






Designator
Length
Width
Surface
Rops




3/21          
3403          
61          
ASP          
Yes/Yes          













Airport map






Aerial View