OPKC








Karachi/Jinnah International Airport





Airport

ICAO code


  OPKC





IATA Code

KHI




Summary

ICAO Region

MID



ICAO Territory





Pakistan






 








Location

Karachi, Sindh




Serving

Karachi



Elevation

100 ft



Coordinates



    24°
    54'
          17"
        N
  
      ,
    
    67°
    9'
          26"
        E
  




KCC

BWh




Metar
OPKC 071230Z 24011KT 6000 SCT020 BKN030 30/24 Q1004 NOSIG








International airport serving Karachi, Pakistan.
Climatology
Mild Desert Climate (Köppen climate classification BWh).
Karachi tends to have a relatively mild, arid climate with low average precipitation levels (approximately 250 mm per annum), the bulk of which occurs during the July-August monsoon season. Winters are mild & dry, while the summers are hot & humid; the proximity to the sea maintains humidity levels at a near-constant high and cool sea breezes relieve the heat of the summer months.






Runways






Designator
Length
Width
Surface
Rops




07L/25R          
3200          
46          
CON          
Yes/Yes          


07R/25L          
3400          
46          
CON          
Yes/Yes          













Airport map






Aerial View








Airport accidents



A320, vicinity Karachi Pakistan, 2020
IL76, vicinity Karachi Pakistan, 2010
A332, Karachi Pakistan, 2014