LTBA








Istanbul/Atatürk Airport





Airport

ICAO code


  LTBA





IATA Code

IST




Summary

ICAO Region

EUR



ICAO Territory





Turkey






 








Location

Yeşilköy, Istanbul




Serving

Istanbul



Elevation

163 ft



Coordinates



    40°
    58'
          29"
        N
  
      ,
    
    28°
    48'
          35"
        E
  




KCC

Csa




Metar
LTBA 071320Z 18009KT 9999 SCT025 SCT100 24/20 Q1015








Airport serving city of Istanbul. Until April 2019, it was the main international airport serving Istanbul.
Climatology
Dry-summer subtropical ”Mediterranean" climate (Köppen climate classification Csa)






Runways






Designator
Length
Width
Surface
Rops




5/23          
2600          
60          
ASP          
Yes/Yes          


17L/35R          
3000          
45          
CON          
Yes/Yes          


17R/35L          
3000          
45          
CON          
Yes/Yes          













Airport map






Aerial View