KGBD








Great Bend Municipal Airport





Airport

ICAO code


  KGBD





IATA Code

GBD




Summary

ICAO Region

NAM



ICAO Territory





United States






 








Location

Great Bend, Kansas




Serving

Great Bend



Elevation

1887 ft



Coordinates



    38°
    20'
          39"
        N
  
      ,
    
    98°
    51'
          33"
        W
  




KCC

Dfa



Airport CFIT

Altimeter Temperature Error Correction




Metar
KGBD 071256Z AUTO 10003KT 10SM CLR 14/11 A3030 RMK AO2 SLP251 T01390106








Great Bend Municipal Airport is a public-use airport located 7 km west of the central business district of Great Bend, a city in Barton County, Kansas, USA.














Airport map






Aerial View