LIPX








Verona Villafranca Airport





Airport

ICAO code


  LIPX





IATA Code

VRN




Summary

ICAO Region

EUR



ICAO Territory





Italy






 








Location

Villafranca di Verona, Veneto




Serving

Verona



Elevation

240 ft



Coordinates



    45°
    23'
          50"
        N
  
      ,
    
    10°
    53'
          18"
        E
  




KCC

Csa



Airport WX

Fog




Metar
LIPX 071350Z VRB02KT 9999 SCT030 28/17 Q1016








Verona Airport, also known as Valerio Catullo Villafranca Airport or simply Verona-Villafranca Airport is an airport located 2.7 nm southwest of Verona, Italy.
Climatology
Humid “subtropical” climate influenced by the Mediterranean climate of the Italian Lakes (Köppen climate classification Cfa/Csa) - characterized by hot, humid summers and cool winters. Significant amounts of precipitation occur in all seasons in most areas. Winter rainfall (and sometimes snowfall) is associated with large storms that the westerlies steer from west to east. Most summer rainfall occurs during thunderstorms. High relative humidity frequently causes fog mainly from dusk until late morning.






Runways






Designator
Length
Width
Surface
Rops




4/22          
3068          
45          
ASP          
Yes/Yes          













Airport map






Aerial View