KHRO








Boone County Airport





Airport

ICAO code


  KHRO





IATA Code

HRO




Summary

ICAO Region

NAM



ICAO Territory





United States






 








Location

Harrison, Arkansas




Serving

Harrison



Elevation

1365 ft



Coordinates



    36°
    15'
          41"
        N
  
      ,
    
    93°
    9'
          17"
        W
  




KCC

Cfa




Metar
KHRO 071253Z AUTO 35005KT 10SM CLR 13/09 A3021 RMK AO2 SLP222 T01330089 $








Description
Regional airport serving Harrison, Arkansas and the surrounding Boone county. It is located 3 nm northwest of the city's business district.














Airport map






Aerial View