EDDN








Nuremberg Airport





Airport

ICAO code


  EDDN





IATA Code

NUE




Summary

ICAO Region

EUR



ICAO Territory





Germany






 








Location

Nuremberg, Bavaria, Germany,




Serving

Nuremberg



Elevation

1046 ft



Coordinates



    49°
    29'
          51"
        N
  
      ,
    
    11°
    4'
          37"
        E
  




KCC

Cfb



Airport WX

Fog




Metar
EDDN 071350Z AUTO 04005KT 350V100 CAVOK 28/12 Q1012 NOSIG








Description
International airport 5 km north of the city centre.
Climatology
Temperate Marine climate/Oceanic climate (Köppen climate classification Cfb). Moderately cool summer and comparatively warm winter with a temperature range of only 14°C. Prevailing south-westerly winds from the Atlantic Ocean.






Runways






Designator
Length
Width
Surface
Rops




10/28          
2700          
45          
ASP          
Yes/Yes          













Airport map






Aerial View








Airport accidents



B738, Nuremburg Germany, 2010
F100, Nuremburg Germany, 2015
E170, Nuremberg Germany, 2013
E145, Nuremberg Germany, 2005