UATG








Atyrau Airport





Airport

ICAO code


  UATG





IATA Code

GUW




Summary

ICAO Region

APAC



ICAO Territory





Kazakhstan






 








Location

Atyrau,




Serving

Atyrau



Elevation

-72 ft



Coordinates



    47°
    7'
          19"
        N
  
      ,
    
    51°
    49'
          24"
        E
  




KCC

BSk



Airport BS

Bird Strike



Airport CFIT

Altimeter Temperature Error Correction



Airport WX

Fog




Metar
UATG 071400Z 25005MPS CAVOK 22/06 Q1025 NOSIG RMK QFE771/1028








Description
International airport serving Atyrau, Kazakhstan.
Climatology
Cold Semi-arid climate (Köppen climate classification BSk). - Hot, sometimes extremely hot summers and cold, sometimes very cold winters. Some snowfall during the winter. Areas featuring cold semi-arid climates are sometimes subject to major temperature swings during a 24 hour period.






Runways






Designator
Length
Width
Surface
Rops




14/32          
3000          
44          
ASP          
Yes/Yes          













Airport map






Aerial View