ZSPD








Shanghai Pudong International





Airport

ICAO code


  ZSPD






Summary

ICAO Region

APAC



ICAO Territory





China






 








Location

Pudong, Shanghai,




Coordinates



    31°
    8'
          56"
        N
  
      ,
    
    121°
    48'
          3"
        E
  




KCC

Cfa



Airport LOS

Parallel Runway Operation



Airport WX

Tropical Revolving Storm




Metar
ZSPD 071300Z 08006MPS CAVOK 29/24 Q1013 NOSIG








Description
International airport serving the city of Shanghai.
Climatology
Humid “subtropical” climate (Köppen climate classification Cfa) - characterized by hot, humid summers and cool winters. Significant amounts of precipitation occur in all seasons in most areas. Winter rainfall (and sometimes snowfall) is associated with large storms that the westerlies steer from west to east. Most summer rainfall occurs during thunderstorms.














Airport map






Aerial View








Airport accidents



A320 / A333, Shanghai Hongqiao China, 2016
B773, vicinity Shanghai Pudong China, 2019