EVRA








Riga International Airport





Airport

ICAO code


  EVRA





IATA Code

RIX




Summary

ICAO Region

EUR



ICAO Territory





Latvia






 








Location

Skulte, Mārupe Municipality




Serving

Riga



Elevation

36 ft



Coordinates



    56°
    55'
          25"
        N
  
      ,
    
    23°
    58'
          16"
        E
  




KCC

Dfb




Metar
EVRA 071220Z 14008KT 110V180 CAVOK 26/10 Q1025 NOSIG








International airport serving capital of Latvia.
Climatology
Humid Continental climate (Köppen climate classification Dfb)






Runways






Designator
Length
Width
Surface
Rops




18/36          
3200          
45          
ASP          
Yes/Yes          













Airport map






Aerial View








Airport accidents



BCS3, Riga Latvia, 2018