EGPF








Glasgow International Airport





Airport

ICAO code


  EGPF





IATA Code

GLA




Summary

ICAO Region

EUR



ICAO Territory





United Kingdom






 








Location

Paisley, Scotland




Serving

Glasgow



Elevation

26 ft



Coordinates



    55°
    52'
          5"
        N
  
      ,
    
    4°
    26'
          9"
        W
  




KCC

Cfb




Metar
EGPF 071050Z AUTO 09010KT 9000 BKN009 18/15 Q1014








Description
A domestic and international airport serving the City of Glasgow and the surrounding region.
Climatology
Temperate Marine climate/Oceanic climate (Köppen climate classification Cfb). Moderately cool summer and comparatively warm winter with a temperature range of only 14°C. Prevailing south-westerly winds from the Atlantic Ocean.






Runways






Designator
Length
Width
Surface
Rops




9/27          
1104          
46          
ASP          
Yes/Yes          


5/23          
2658          
46          
ASP          
Yes/Yes          













Airport map






Aerial View








Airport accidents



A321, Glasgow UK, 2019
BE20, vicinity Glasgow UK, 2012
AT43, vicinity Glasgow, UK 2012
B738, Glasgow UK, 2012
B752/GLID, vicinity Glasgow UK, 2011
A319, vicinity Glasgow UK, 2018
A320, vicinity Glasgow UK, 2008
DHC6 / E145, Glasgow UK, 2006
C404, Glasgow UK, 1999