FQMA








Maputo International Airport





Airport

ICAO code


  FQMA





IATA Code

MPM




Summary

ICAO Region

AFI



ICAO Territory





Mozambique






 








Location

Maputo,




Serving

Maputo



Elevation

145 ft



Coordinates



    25°
    55'
          3"
        S
  
      ,
    
    32°
    34'
          30"
        E
  




KCC

Aw




Metar
FQMA 071400Z 07013KT CAVOK 26/19 Q1018 NOSIG








Description
International airport serving capital of Mozambique.
Climatology
Tropical Savanna climate (Köppen climate classification Aw) - monthly mean temperature above 18°C in every month of the year and a pronounced dry season.






Runways






Designator
Length
Width
Surface
Rops




10/28          
1700          
45          
ASP          
Yes/Yes          


5/23          
3660          
45          
ASP          
Yes/Yes          













Airport map






Aerial View