ENFL








Florø





Airport

ICAO code


  ENFL






Summary

ICAO Region

EUR



ICAO Territory





Norway






 








Location

Florø, Sogn og Fjordane,




Elevation

37 ft



Coordinates



    61°
    35'
          1"
        N
  
      ,
    
    5°
    1'
          29"
        E
  




KCC

Cfb



Airport BS

Non Avian Wildlife Hazards to Aircraft



Airport WX

Low Level Turbulence




Metar
ENFL 071350Z 25007KT 9999 FEW040 21/14 Q1018








Description
Airport serving the city of Florø, western Norway. The airport also has a heliport, used to transport personnel to oil platforms in the North Sea.
Climatology
Temperate Marine climate/Oceanic climate (Köppen climate classification Cfb). Moderately cool summer and comparatively warm winter with a temperature range of only 14°C.






Runways






Designator
Length
Width
Surface
Rops




7/25          
1199          
30          
ASP          
No/No          













Airport map






Aerial View