EGJJ








Jersey Airport





Airport

ICAO code


  EGJJ





IATA Code

JER




Summary

ICAO Region

EUR



ICAO Territory





United Kingdom






 








Location

Saint Peter, Jersey




Serving

St Hellier



Elevation

277 ft



Coordinates



    49°
    12'
          26"
        N
  
      ,
    
    2°
    11'
          41"
        W
  




KCC

Cfb




Metar
EGJJ 071220Z 13005KT 9999 -SHRA FEW006 18/17 Q1008








The only airport on the Channel Island of Jersey, a self-governing British Crown Dependency.






Runways






Designator
Length
Width
Surface
Rops




08/26          
1706          
46          
ASP          
Yes/Yes          













Airport map






Aerial View








Airport accidents



Vehicle / E190 / E121, Jersey Channel Islands, 2010
ATP, Jersey Channel Islands, 1998
F27, vicinity Jersey Channel Islands, 2001