KBLV








MidAmerica St. Louis/Scott Air Force Base





Airport

ICAO code


  KBLV





IATA Code

BLV




Summary

ICAO Region

NAM



ICAO Territory





United States






 








Location

Belleville, Illinois




Serving

St. Louis



Elevation

459 ft



Coordinates



    38°
    32'
          42"
        N
  
      ,
    
    89°
    50'
          21"
        W
  




KCC

Dfa




Metar
KBLV 071255Z AUTO 03005KT 10SM CLR 14/11 A3020 RMK AO2 SLP228 T01390111








MidAmerica St. Louis Airport is a public use airport next to Scott Air Force Base St. Clair County, Illinois, near Belleville (part of the St. Louis metropolitan area). 














Airport map






Aerial View