KPHL








Philadelphia International Airport





Airport

ICAO code


  KPHL






Summary

ICAO Region

NAM



ICAO Territory





United States






 








Location

Philadelphia, Pennsylvania,




Coordinates



    39°
    52'
          24"
        N
  
      ,
    
    75°
    14'
          18"
        W
  




KCC

Cfa



Airport LOS

Parallel Runway Operation




Metar
KPHL 071411Z 20008KT 10SM -RA SCT016 BKN027 OVC038 22/19 A2985 RMK AO2 P0000 T02220189








Description
Large international airport 5nm south of central Philadelphia.
Climatology
Humid “subtropical” climate (Köppen climate classification Cfa) - characterized by hot, humid summers and cool winters. Significant amounts of precipitation occur in all seasons in most areas. Winter rainfall (and sometimes snowfall) is associated with large storms that the westerlies steer from west to east. Most summer rainfall occurs during thunderstorms.






Runways






Designator
Length
Width
Surface
Rops




8/26          
1524          
46          
ASP          
Yes/Yes          


17/35          
1664          
46          
ASP          
Yes/Yes          


09L/27R          
2896          
46          
ASP          
Yes/Yes          


09R/27L          
3202          
61          
ASP          
Yes/Yes          













Airport map






Aerial View








Airport accidents



DC87, Philadelphia USA, 2006