GCFV








Fuerteventura Airport





Airport

ICAO code


  GCFV





IATA Code

FUE




Summary

ICAO Region

EUR



ICAO Territory





Canary Islands






 








Location

El Matorral,




Serving

Puerto del Rosario



Elevation

86 ft



Coordinates



    28°
    27'
          6"
        N
  
      ,
    
    13°
    51'
          55"
        W
  




KCC

Csa



Airport WX

Volcanic Ash




Metar
GCFV 071500Z 03011G25KT 360V070 9999 FEW030 27/19 Q1010








Description
Fuerteventura Airport also known as El Matorral Airport serves the Spanish island of Fuerteventura and is situated in El Matorral, 5 km southwest of the capital city Puerto del Rosario.
Climatology
Dry-summer subtropical ”Mediterranean" climate (Köppen climate classification Csa) - characterized by hot, dry summers and mild winters. During the summer, subtropical high pressure cells dominate, making rainfall unlikely except for the occasional thunderstorm. In the winter, periodic storms bring rain (snow at higher elevations).






Runways






Designator
Length
Width
Surface
Rops




1/19          
2400          
45          
ASP          
Yes/Yes          













Airport map






Aerial View








Airport accidents



A321, Fuerteventura Spain, 2016