OMSJ








Sharjah International Airport





Airport

ICAO code


  OMSJ





IATA Code

SHJ




Summary

ICAO Region

MID



ICAO Territory





United Arab Emirates






 








Location

Sharjah,




Serving

Sharjah



Elevation

111 ft



Coordinates



    25°
    19'
          45"
        N
  
      ,
    
    55°
    30'
          58"
        E
  




KCC

BWh




Metar
OMSJ 071100Z 32010KT CAVOK 38/26 Q1001 NOSIG








Description
International airport serving the emirate of Sharjah.
Climatology
Hot Desert Climate (Köppen climate classification BWh) - Hot desert climates are typically found in the subtropics where there is unbroken sunshine for the whole year due to the stable descending air and high pressure, little or no precipitation. Maximum temperatures of 40°C to 45°C are not uncommon, particularly during the warmer months of the year.






Runways






Designator
Length
Width
Surface
Rops




12/30          
4060          
45          
ASP          
Yes/Yes          













Airport map






Aerial View








Airport accidents



A320, Sharjah UAE, 2018
B734, Sharjah UAE, 2015
F27, vicinity Sharjah UAE, 2004