LICJ








Palermo/Punta Raisi Airport





Airport

ICAO code


  LICJ





IATA Code

PMO




Summary

ICAO Region

EUR



ICAO Territory





Italy






 








Location

Cinisi, Sicily




Serving

Palermo



Elevation

65 ft



Coordinates



    38°
    10'
          56"
        N
  
      ,
    
    13°
    6'
          12"
        E
  




KCC

Csa




Metar
LICJ 071350Z AUTO 07015KT 9999 NCD 33/18 Q1015








Palermo Airport, also known as Falcone-Borsellino Airport and Punta Raisi Airport is located at Punta Raisi, 19 nm west northwest of Palermo, the capital city of the Italian island of Sicily.






Runways






Designator
Length
Width
Surface
Rops




2/20          
2074          
45          
ASP          
Yes/Yes          


7/25          
3326          
60          
ASP          
Yes/Yes          













Airport map






Aerial View