KATL








Atlanta/Hartsfield-Jackson International





Airport

ICAO code


  KATL





IATA Code

ATL




Summary

ICAO Region

NAM



ICAO Territory





United States






 








Location

Atlanta, Georgia




Serving

Atlanta



Elevation

1026 ft



Coordinates



    33°
    38'
          25"
        N
  
      ,
    
    84°
    25'
          38"
        W
  




KCC

Cfa



Airport LOS

Parallel Runway Operation




Metar
KATL 071152Z 30005KT 8SM FEW110 SCT150 SCT250 20/18 A2994 RMK AO2 SLP131 60001 70003 T02000183 10211 20200 55000








Description
Primary international airport serving Atlanta, Georgia, USA. The airport is located 10 nm south of the city centre.














Airport map






Aerial View








Airport accidents



A333, vicinity Atlanta GA USA, 2018
B739, vicinity Atlanta GA USA, 2017
B752, vicinity Atlanta GA USA, 2011
E75S, vicinity Atlanta GA USA, 2016
B722 / BE10, Atlanta GA USA, 1990
B763, Atlanta GA, USA 2009