EGFF








Cardiff Airport





Airport

ICAO code


  EGFF





IATA Code

CWL




Summary

ICAO Region

EUR



ICAO Territory





United Kingdom






 








Location

Rhoose, Vale of Glamorgan, Wales




Serving

Cardiff



Elevation

220 ft



Coordinates



    51°
    23'
          48"
        N
  
      ,
    
    3°
    20'
          36"
        W
  




KCC

Cfb




Metar
EGFF 071250Z AUTO 14005KT 9999 BKN009 BKN013 19/16 Q1010








Description
International airport serving the city of Cardiff and the South Wales region.
Climatology
Temperate Marine climate/Oceanic climate (Köppen climate classification Cfb). Moderately cool summer and comparatively warm winter with a temperature range of only 14°C. Prevailing south-westerly winds from the Atlantic Ocean.






Runways






Designator
Length
Width
Surface
Rops




12/30          
2392          
46          
ASP          
Yes/Yes          













Airport map






Aerial View