LFBT








Tarbes-Lourdes-Pyrénées Airport





Airport

ICAO code


  LFBT





IATA Code

LDE




Summary

ICAO Region

EUR



ICAO Territory





France






 








Location

Ossun, Midi-Pyrenees




Serving

Tarbes



Elevation

1259 ft



Coordinates



    43°
    10'
          57"
        N
  
      ,
    
    0°
    0'
          15"
        W
  




KCC

Cfb



Airport WX

Fog




Metar
LFBT 071400Z AUTO 29008KT 260V320 9999 BKN027 OVC036 20/15 Q1011 TEMPO 4500 -SHRA SCT020TCU








Description
International airport serving Tarbes.
Climatology
Temperate Marine climate/Oceanic climate (Köppen climate classification Cfb). Moderately cool summer and comparatively warm winter. Prevailing south-westerly winds from the Atlantic Ocean.






Runways






Designator
Length
Width
Surface
Rops




2/20          
3000          
45          
ASP          
Yes/Yes          













Airport map






Aerial View








Airport accidents



MD82, Tarbes France, 2018