KROC








Greater Rochester International Airport





Airport

ICAO code


  KROC





IATA Code

ROC




Summary

ICAO Region

NAM



ICAO Territory





United States






 








Location

Rochester, New York




Serving

Rochester



Elevation

559 ft



Coordinates



    43°
    7'
          41"
        N
  
      ,
    
    77°
    39'
          58"
        W
  




KCC

Dfb




Metar
KROC 071406Z 27011KT 10SM SCT014 BKN046 16/13 A2983 RMK AO2 T01560128 $








Greater Rochester International Airport is a public use airport located 3 nm southwest of the central business district of Rochester, a city in Monroe County, New York, USA.
 






Runways






Designator
Length
Width
Surface
Rops




7/25          
1341          
43          
ASP          
Yes/Yes          


10/28          
1676          
46          
ASP          
Yes/Yes          


4/22          
2439          
46          
ASP          
Yes/Yes          













Airport map






Aerial View