KMIA








Miami International Airport





Airport

ICAO code


  KMIA





IATA Code

MIA




Summary

ICAO Region

NAM



ICAO Territory





United States






 








Location

Virginia Gardens, Florida




Serving

Miami



Elevation

9 ft



Coordinates



    25°
    47'
          41"
        N
  
      ,
    
    80°
    17'
          23"
        W
  




KCC

Am




Metar
KMIA 071353Z 12008KT 10SM FEW030 FEW070 SCT250 30/26 A2988 RMK AO2 SLP118 T03000261 $








International airport serving the city of Miami and southeast Florida, USA.






Runways






Designator
Length
Width
Surface
Rops




08L/26R          
2621          
46          
ASP          
Yes/Yes          


12/30          
2851          
46          
ASP          
Yes/Yes          


08R/26L          
3202          
61          
ASP          
Yes/Yes          


9/27          
3962          
46          
ASP          
Yes/Yes          













Airport map






Aerial View