RPLL








Manila/Ninoy Aquino International Airport





Airport

ICAO code


  RPLL





IATA Code

MNL




Summary

ICAO Region

APAC



ICAO Territory





Philippines






 








Location

Pasay City and Parañaque City, Manila




Serving

Manila



Elevation

75 ft



Coordinates



    14°
    30'
          35"
        N
  
      ,
    
    121°
    0'
          48"
        E
  




KCC

Aw




Metar
RPLL 071400Z 00000KT 9999 FEW025 28/25 Q1012 NOSIG RMK A2988








International airport serving Manila, located along the border between Pasay City and Parañaque City, about 7 km south of Manila proper, and southwest of Makati City.
Climatology
Tropical Monsoon/Savanna climate (Köppen climate classification Am/Aw)






Runways






Designator
Length
Width
Surface
Rops




13/31          
2258          
45          
CON          
Yes/Yes          


6/24          
3737          
60          
CON          
Yes/Yes          













Airport map






Aerial View








Airport accidents



B738, Manila Philippines, 2018
A333, Manila Philippines, 2013