LPMA








Madeira/Funchal Airport





Airport

ICAO code


  LPMA





IATA Code

FNC




Summary

ICAO Region

EUR



ICAO Territory





Azores






 








Location

Santa Catarina, Região Autónoma da Madeira




Serving

Funchal



Elevation

192 ft



Coordinates



    32°
    41'
          52"
        N
  
      ,
    
    16°
    46'
          28"
        W
  




KCC

Csa



Airport CFIT

Runway Visual Perspective



Airport RE

Crosswind Landings



Airport WX

Low Level Turbulence




Metar
LPMA 071500Z 04011KT 9999 BKN015 25/18 Q1015








Cristiano Ronaldo International Airport, Madeira, commonly known as Madeira Airport or Funchal Airport , is an international airport in the civil parish of Santa Cruz in the Portuguese archipelago and autonomous region of Madeira.
Climatology
Temperate mediterranean climate (Köppen climate classification Csb)






Runways






Designator
Length
Width
Surface
Rops




5/23          
2777          
45          
ASP          
Yes/Yes          













Airport map






Aerial View