LPPT








Lisbon Humberto Delgado Airport





Airport

ICAO code


  LPPT





IATA Code

LIS




Summary

ICAO Region

EUR



ICAO Territory





Portugal






 








Location

Portela, Lisbon




Serving

Lisbon



Elevation

374 ft



Coordinates



    38°
    46'
          31"
        N
  
      ,
    
    9°
    8'
          5"
        W
  




KCC

Csa




Metar
LPPT 071300Z 28004KT 170V340 9999 SCT040 23/12 Q1012








Lisbon Portela Airport, also known as Lisbon Airport, is located 7 km north of Castle of São Jorge in the city of Lisbon, the capital of Portugal.
Climatology
Dry-summer subtropical ”Mediterranean" climate (Köppen climate classification Csa)






Runways






Designator
Length
Width
Surface
Rops




17/35          
2400          
45          
ASP          
Yes/Yes          


3/21          
3805          
45          
ASP          
Yes/Yes          













Airport map






Aerial View








Airport accidents



B738, Lisbon Portugal, 2021
A320, Lisbon Portugal, 2019
AT76, Lisbon Portugal, 2016
A320, Lisbon Portugal, 2015
B773, Lisbon Portugal, 2016