EGTC








Cranfield Airport





Airport

ICAO code


  EGTC






Summary

ICAO Region

EUR



ICAO Territory





United Kingdom






 








Location

Cranfield, England




Serving

Cranfield



Elevation

358 ft



Coordinates



    52°
    4'
          8"
        N
  
      ,
    
    0°
    37'
          11"
        W
  





Metar
EGTC 071250Z 20003KT 150V260 9999 FEW030 22/13 Q1009









Runways






Designator
Length
Width
Surface
Rops




18/36          
620          
18          
ASP          
No/No          


3/21          
1799          
46          
ASP          
Yes/Yes          













Airport map






Aerial View