PHNL








Honolulu International Airport





Airport

ICAO code


  PHNL





IATA Code

HNL




Summary

ICAO Region

NAM



ICAO Territory





Hawaii






 








Location

Honolulu, Hawaii




Serving

Honolulu



Elevation

13 ft



Coordinates



    21°
    19'
          21"
        N
  
      ,
    
    157°
    55'
          23"
        W
  




KCC

As



Airport BS

Bird Strike



Airport LOS

Parallel Runway Operation




Metar
PHNL 071453Z 04006KT 10SM FEW025 FEW040 24/19 A2998 RMK AO2 SLP150 T02440194 56010








Description
Honolulu International Airport is the principal aviation gateway of the City & County of Honolulu and the State of Hawaii.
Climatology
Tropical Savanna climate (Köppen climate classification As) - monthly mean temperature above 18°C in every month of the year and a pronounced dry season.






Runways






Designator
Length
Width
Surface
Rops




04W/22W          
914          
46          
WATER          
No/No          


08W/26W          
1524          
91          
WATER          
No/No          


04L/22R          
2119          
46          
ASPH-G          
Yes/Yes          


04R/22L          
2743          
46          
ASPH-G          
Yes/Yes          


08R/26L          
3658          
61          
ASPH-G          
Yes/Yes          


08L/26R          
3749          
46          
ASPH-G          
Yes/Yes          













Airport map






Aerial View